date,time,tempTemperature,tempFeelsLike,tempDewpoint,tempHumidity,tempPressure,tempVisibility,windDir,tempWindSpeed,tempGustSpeed,tempPrecip,Events,Condition
2017-12-31,9:51 PM,10,-5.2,-5.1,51,30.32,10,NW,12.7,21.9,0,None,Clear
2017-12-31,10:51 PM,10,-4.5,-4,53,30.32,10,WNW,11.5,18.4,0,None,Clear
2017-12-31,11:51 PM,9,-4.2,-4,56,30.31,10,WNW,9.2,19.6,0,None,Clear
2017-12-31,7:51 PM,12,-2,-5.1,46,30.32,10,WNW,11.5,19.6,0,None,Clear
2017-12-31,8:51 PM,10.9,-1.8,-5.1,49,30.33,10,WNW,9.2,20.7,0,None,Clear
2017-12-31,5:51 PM,12.9,-0.9,-5.1,45,30.3,10,NW,11.5,17.3,0,None,Clear
2017-12-29,2:51 AM,10.9,-0.8,-2.9,54,30.38,10,NW,8.1,0,0,None,Clear
2017-12-31,7:51 AM,14,-0.8,-2.9,47,30.22,10,NW,13.8,21.9,0,None,Clear
2017-12-28,10:51 PM,12,-0.4,-4,49,30.42,10,WNW,9.2,16.1,0,None,Clear
2017-12-31,6:51 PM,12,-0.4,-5.1,46,30.32,10,WNW,9.2,18.4,0,None,Clear
2017-12-28,5:51 AM,14,0.5,-0.9,52,30.5,10,NW,11.5,20.7,0,None,Clear
2017-12-28,11:51 PM,12,0.5,-4,49,30.42,10,NW,8.1,0,0,None,Clear
2017-12-28,8:51 AM,12.9,0.7,-5.1,45,30.56,10,WNW,9.2,23,0,None,Clear
2017-12-28,7:51 AM,12.9,0.7,-2,51,30.55,10,NW,9.2,0,0,None,Clear
2017-12-28,8:51 PM,12.9,0.7,-6,43,30.47,10,NW,9.2,19.6,0,None,Clear
2017-12-31,9:51 AM,12.9,0.7,-4,47,30.29,10,WNW,9.2,20.7,0,None,Clear
2017-12-28,7:51 PM,15.1,1.1,-6,39,30.48,10,WNW,12.7,21.9,0,None,Clear
2017-12-28,4:51 AM,14,1.2,0,54,30.5,10,West,10.4,17.3,0,None,Clear
2017-12-29,12:51 AM,10.9,1.4,-2.9,54,30.4,10,West,5.8,0,0,None,Clear
2017-12-29,3:51 AM,12,1.5,-2,53,30.37,10,WNW,6.9,0,0,None,Mostly Cloudy
2017-12-31,8:51 AM,12.9,1.6,-2.9,49,30.25,10,WNW,8.1,19.6,0,None,Clear
2017-12-31,2:51 PM,15.1,1.8,-4,43,30.26,10,WNW,11.5,24.2,0,None,Overcast
2017-12-31,3:51 PM,14,2,-5.1,43,30.27,10,WNW,9.2,21.9,0,None,Partly Cloudy
2017-12-31,12:51 PM,14,2,-4,45,30.23,10,NW,9.2,20.7,0,None,Clear
2017-12-28,6:51 AM,12.9,2.6,-2.9,49,30.53,10,Variable,6.9,19.6,0,None,Clear
2017-12-29,7:51 AM,12.9,2.6,0,56,30.31,10,WNW,6.9,0,0,None,Partly Cloudy
2017-12-29,1:51 AM,12,2.7,-2.9,51,30.4,10,West,5.8,0,0,None,Clear
2017-12-29,6:51 AM,12,2.7,-0.9,56,30.33,10,WNW,5.8,0,0,None,Overcast
2017-12-28,9:51 AM,14,2.9,-7.1,39,30.56,10,NNW,8.1,19.6,0,None,Clear
2017-12-31,10:51 AM,14,2.9,-5.1,43,30.27,10,NW,8.1,19.6,0,None,Clear
2017-01-09,4:51 AM,15.1,3.3,1,54,30.67,10,West,9.2,0,0,None,Clear
2017-03-05,7:51 AM,15.1,3.3,-9,34,30.67,10,WNW,9.2,0,0,None,Clear
2017-03-05,3:51 AM,15.1,3.3,-7.1,37,30.61,10,NW,9.2,0,0,None,Clear
2017-12-31,1:51 PM,15.1,3.3,-2.9,45,30.25,10,NW,9.2,19.6,0,None,Scattered Clouds
2017-01-08,9:51 AM,18,3.6,3,52,30.29,8,WNW,15,24.2,0,None,Clear
2017-01-08,8:51 AM,17.1,3.6,3,54,30.28,8,West,12.7,17.3,0,None,Clear
2017-03-11,3:51 AM,18,3.6,-2.9,40,30.08,10,WNW,15,23,0,None,Clear
2017-12-31,4:51 PM,12.9,3.8,-5.1,45,30.28,10,Variable,5.8,19.6,0,None,Clear
2017-01-09,5:51 AM,15.1,4.2,1.9,56,30.69,10,West,8.1,0,0,None,Clear
2017-12-28,11:51 AM,15.1,4.2,-7.1,37,30.52,10,WNW,8.1,19.6,0,None,Clear
2017-12-28,5:51 PM,17.1,5,-6,36,30.49,10,WNW,10.4,16.1,0,None,Clear
2017-12-28,4:51 PM,17.1,5,-7.1,34,30.49,10,West,10.4,17.3,0,None,Clear
2017-02-09,10:51 PM,19,5,3,50,30.03,10,NW,15,24.2,0,None,Clear
2017-03-05,6:51 AM,14,5.1,-8,37,30.67,10,Variable,5.8,0,0,None,Clear
2017-03-05,5:51 AM,14,5.1,-7.1,39,30.66,10,Variable,5.8,0,0,None,Clear
2017-12-28,10:51 AM,14,5.1,-8,37,30.55,10,Variable,5.8,19.6,0,None,Clear
2017-12-29,8:51 AM,12.9,5.2,0,56,30.31,10,Variable,4.6,0,0,None,Mostly Cloudy
2017-02-09,9:51 PM,19.9,5.2,1,44,29.99,10,NW,17.3,24.2,0,None,Clear
2017-12-29,10:51 AM,16,5.3,1,52,30.29,10,NW,8.1,0,0,None,Clear
2017-01-08,10:51 AM,19,5.6,3,50,30.29,10,WNW,13.8,20.7,0,None,Partly Cloudy
2017-12-28,1:51 PM,17.1,5.8,-8,33,30.47,10,NW,9.2,17.3,0,None,Clear
2017-01-08,7:51 AM,17.1,5.8,5,59,30.27,8,West,9.2,20.7,0,None,Mostly Cloudy
2017-12-31,5:51 AM,17.1,5.8,3,54,30.18,10,NW,9.2,23,0,None,Clear
2017-12-29,4:51 AM,12,5.9,-2,53,30.32,10,Variable,3.5,0,0,None,Overcast
2017-03-05,8:51 AM,18,6.1,-9.9,29,30.67,10,WNW,10.4,16.1,0,None,Clear
2017-03-11,4:51 AM,18,6.1,0,45,30.11,10,NW,10.4,21.9,0,None,Clear
2017-12-28,3:51 AM,15.1,6.4,1,54,30.49,10,Variable,5.8,0,0,None,Clear
2017-12-29,9:51 AM,15.1,6.4,0,51,30.3,10,Variable,5.8,0,0,None,Partly Cloudy
2017-12-31,11:51 AM,15.1,6.4,-2.9,45,30.25,10,Variable,5.8,20.7,0,None,Clear
2017-01-08,5:51 AM,17.1,6.6,6.1,62,30.25,9,West,8.1,0,0,None,Clear
2017-03-14,11:51 PM,21,6.6,8.1,57,29.52,10,West,17.3,28.8,0,None,Scattered Clouds
2017-02-09,8:51 PM,19.9,6.7,0,42,29.94,10,NW,13.8,29.9,0,None,Clear
2017-12-13,7:51 AM,19.9,6.7,5,52,29.54,10,West,13.8,28.8,0,None,Scattered Clouds
2017-03-04,9:51 PM,19,6.8,-9,29,30.6,10,North,11.5,21.9,0,None,Clear
2017-01-08,1:51 AM,19,6.8,8.1,62,30.19,9,NW,11.5,17.3,0,None,Clear
2017-12-28,3:51 PM,18,6.9,-6,35,30.48,10,WNW,9.2,20.7,0,None,Clear
2017-12-28,9:51 PM,12.9,6.9,-5.1,45,30.44,10,NW,3.5,0,0,None,Clear
2017-03-15,4:51 AM,21,7.1,7,55,29.56,10,WNW,16.1,23,0,None,Clear
2017-03-12,7:51 AM,19,7.5,1.9,47,30.3,10,NW,10.4,16.1,0,None,Clear
2017-12-29,8:51 PM,19,7.5,1.9,47,30.28,10,West,10.4,16.1,0,None,Clear
2017-01-08,6:51 AM,17.1,7.6,5,59,30.26,10,Variable,6.9,0,0,None,Clear
2017-03-11,6:51 AM,17.1,7.6,1.9,52,30.17,10,NW,6.9,0,0,None,Mostly Cloudy
2017-12-31,4:51 AM,17.1,7.6,5,59,30.14,10,WNW,6.9,0,0,None,Clear
2017-02-09,7:51 PM,21,7.6,1,42,29.88,10,NW,15,31.1,0,None,Clear
2017-01-09,3:51 AM,15.1,7.7,1,54,30.66,10,West,4.6,0,0,None,Clear
2017-03-05,4:51 AM,15.1,7.7,-7.1,37,30.64,10,WNW,4.6,0,0,None,Clear
2017-12-28,2:51 PM,18,7.7,-7.1,33,30.48,10,WNW,8.1,20.7,0,None,Clear
2017-12-29,11:51 PM,18,7.7,3,52,30.24,10,West,8.1,0,0,None,Clear
2017-02-09,6:51 PM,21.9,7.8,1.9,42,29.82,10,NW,17.3,26.5,0,None,Unknown
2017-03-05,9:51 AM,19.9,7.9,-11,25,30.65,10,WNW,11.5,18.4,0,None,Clear
2017-03-12,5:51 AM,19.9,7.9,3.9,50,30.28,10,WNW,11.5,21.9,0,None,Clear
2017-01-07,1:51 PM,19.9,7.9,17.1,89,30.15,0.2,NNW,11.5,0,0.03,"Fog	",Snow
2017-12-13,6:51 AM,19.9,7.9,5,52,29.53,10,West,11.5,27.6,0,None,Partly Cloudy
2017-03-04,8:51 PM,21,8.1,-4,33,30.57,10,NW,13.8,26.5,0,None,Clear
2017-01-08,9:51 PM,19,8.2,1,46,30.56,10,WNW,9.2,18.4,0,None,Clear
2017-01-08,2:51 AM,19,8.2,6.1,57,30.21,9,WNW,9.2,19.6,0,None,Clear
2017-12-31,2:51 AM,19,8.2,6.1,57,30.11,10,West,9.2,0,0,None,Clear
2017-02-09,11:51 PM,19,8.2,3.9,52,30.08,10,NW,9.2,0,0,None,Clear
2017-03-11,2:51 AM,19,8.2,-2.9,38,30.06,10,NW,9.2,17.3,0,None,Clear
2017-02-09,5:51 PM,23,8.3,3,42,29.77,8,NW,19.6,36.8,0,None,Unknown
2017-03-04,5:51 AM,21,8.6,3,46,30.49,10,WNW,12.7,0,0,None,Clear
2017-01-07,11:51 PM,21,8.6,12,68,30.15,7,NW,12.7,18.4,0,None,Overcast
2017-12-30,9:22 AM,19.9,8.6,12,71,30.14,0.8,WSW,10.4,23,0,Snow,Light Snow
2017-02-10,3:51 AM,19.9,8.6,6.1,55,30.13,10,West,10.4,31.1,0,None,Clear
2017-01-07,5:51 PM,19.9,8.6,17.1,89,30.12,0.2,North,10.4,19.6,0.03,"Fog	",Snow
2017-03-15,6:51 AM,19.9,8.6,9,62,29.6,10,West,10.4,21.9,0,None,Scattered Clouds
2017-03-15,5:51 AM,19.9,8.6,8.1,60,29.57,10,West,10.4,20.7,0,None,Clear
2017-12-13,8:51 AM,21,8.6,6.1,53,29.54,10,WNW,12.7,26.5,0,None,Mostly Cloudy
2017-03-15,1:51 AM,21,8.6,7,55,29.53,10,WNW,12.7,25.3,0,None,Clear
2017-03-15,12:51 AM,21,8.6,8.1,57,29.5,10,West,12.7,21.9,0,None,Clear
2017-01-09,9:51 AM,17.1,8.7,3,54,30.76,10,West,5.8,0,0,None,Clear
2017-03-04,10:51 PM,18,8.7,-9,30,30.59,10,Variable,6.9,21.9,0,None,Clear
2017-12-27,11:51 PM,17.1,8.7,-0.9,45,30.5,10,Variable,5.8,0,0,None,Clear
2017-01-08,3:51 AM,18,8.7,7,62,30.22,9,WNW,6.9,0,0,None,Clear
2017-03-11,12:51 AM,21.9,8.7,0,38,30.07,10,NW,15,28.8,0,None,Clear
2017-01-09,8:51 AM,16,8.8,3,57,30.73,10,Variable,4.6,0,0,None,Clear
2017-01-09,2:51 AM,16,8.8,1,52,30.65,10,WNW,4.6,0,0,None,Clear
2017-01-09,1:51 AM,16,8.8,0,49,30.64,10,Variable,4.6,0,0,None,Clear
2017-03-05,1:51 AM,16,8.8,-6,38,30.61,10,Variable,4.6,0,0,None,Clear
2017-12-28,1:51 AM,16,8.8,1,52,30.49,10,Variable,4.6,0,0,None,Clear
2017-12-28,2:51 AM,16,8.8,1.9,54,30.49,10,Variable,4.6,0,0,None,Clear
2017-12-27,9:51 AM,19,9,1.9,47,30.51,10,NW,8.1,0,0,None,Mostly Cloudy
2017-03-12,6:51 AM,19,9,1.9,47,30.28,10,NW,8.1,20.7,0,None,Clear
2017-03-12,9:51 AM,21,9.3,1.9,44,30.31,10,NW,11.5,19.6,0,None,Clear
2017-03-12,1:51 AM,21,9.3,3,46,30.28,10,WNW,11.5,17.3,0,None,Clear
2017-01-07,10:51 AM,19.9,9.3,17.1,89,30.27,0.2,NE,9.2,0,0.04,"Fog	",Snow
2017-03-11,9:51 AM,21,9.3,1.9,44,30.18,10,WNW,11.5,19.6,0,None,Overcast
2017-02-10,12:51 AM,19.9,9.3,5,52,30.09,10,West,9.2,0,0,None,Scattered Clouds
2017-02-10,2:51 AM,19.9,9.3,5,52,30.09,10,West,9.2,0,0,None,Clear
2017-12-31,12:51 AM,19.9,9.3,10.9,68,30.05,10,West,9.2,0,0,None,Mostly Cloudy
2017-12-13,5:51 AM,19.9,9.3,5,52,29.5,10,West,9.2,23,0,None,Clear
2017-01-09,6:51 AM,15.1,9.4,1,54,30.68,10,Variable,3.5,0,0,None,Clear
2017-01-07,6:48 PM,19.4,9.5,17.6,93,30.14,1,NNW,8.1,16.1,0.03,Snow,Light Snow
2017-03-15,11:51 AM,23,9.6,9,55,29.59,9,WNW,16.1,26.5,0,None,Overcast
2017-12-29,9:51 PM,18,9.8,3,52,30.27,10,West,5.8,0,0,None,Clear
2017-12-29,10:51 PM,18,9.8,3,52,30.26,10,WNW,5.8,0,0,None,Clear
2017-12-13,3:51 AM,21.9,9.8,3,44,29.5,10,WNW,12.7,27.6,0,None,Partly Cloudy
2017-12-29,2:51 PM,21,9.9,3.9,48,30.22,10,WNW,10.4,19.6,0,None,Partly Cloudy
2017-02-10,6:51 AM,21,9.9,6.1,53,30.2,10,WNW,10.4,18.4,0,None,Clear
2017-02-10,4:51 AM,21,9.9,5,50,30.15,10,West,10.4,20.7,0,None,Clear
2017-01-07,7:37 PM,21,9.9,17.1,85,30.13,1,North,10.4,19.6,0.01,Snow,Light Snow
2017-12-13,4:51 AM,21,9.9,3,46,29.5,10,West,10.4,23,0,None,Clear
2017-01-09,12:51 AM,17.1,10,1,50,30.61,10,Variable,4.6,0,0,None,Clear
2017-01-08,10:51 PM,19,10,1,46,30.59,10,Variable,6.9,0,0,None,Clear
2017-12-28,12:51 AM,17.1,10,0,47,30.5,10,Variable,4.6,0,0,None,Clear
2017-12-27,8:51 AM,19,10,1.9,47,30.5,10,WNW,6.9,0,0,None,Overcast
2017-12-29,11:51 AM,19,10,1,46,30.25,10,West,6.9,0,0,None,Clear
2017-12-31,3:51 AM,19,10,6.1,57,30.11,10,West,6.9,17.3,0,None,Clear
2017-12-27,10:51 AM,19.9,10.1,1,44,30.5,10,West,8.1,0,0,None,Clear
2017-12-29,5:51 PM,19.9,10.1,1.9,46,30.26,10,NW,8.1,17.3,0,None,Clear
2017-01-07,1:32 PM,19.9,10.1,16,85,30.2,0.2,North,8.1,0,0.02,"Fog	",Snow
2017-01-08,12:51 AM,19.9,10.1,8.1,60,30.16,8,WNW,8.1,0,0,None,Clear
2017-12-13,9:51 AM,23,10.1,7,50,29.56,10,West,15,28.8,0,None,Mostly Cloudy
2017-03-05,12:51 AM,16,10.4,-7.1,36,30.61,10,Variable,3.5,0,0,None,Clear
2017-01-09,10:51 PM,21,10.6,9,60,30.67,10,SW,9.2,16.1,0,None,Clear
2017-01-08,7:51 PM,21,10.6,1.9,44,30.49,10,NW,9.2,19.6,0,None,Clear
2017-03-04,4:51 AM,21,10.6,1.9,44,30.48,10,NW,9.2,18.4,0,None,Clear
2017-01-07,10:28 AM,21,10.6,16,81,30.3,0.2,NNE,9.2,16.1,0.02,Snow,Heavy Snow
2017-01-07,9:51 AM,21,10.6,15.1,78,30.3,0.5,NE,9.2,0,0,Snow,Snow
2017-03-12,4:51 AM,21,10.6,3,46,30.29,10,WNW,9.2,0,0,None,Partly Cloudy
2017-12-29,3:51 PM,21,10.6,3,46,30.22,10,West,9.2,20.7,0,None,Partly Cloudy
2017-02-10,5:51 AM,21,10.6,6.1,53,30.18,10,West,9.2,18.4,0,None,Clear
2017-01-07,7:05 PM,21,10.6,17.1,85,30.14,1.5,NNW,9.2,17.3,0,Snow,Light Snow
2017-12-30,10:51 PM,21,10.6,12.9,71,30.02,8,West,9.2,20.7,0,None,Mostly Cloudy
2017-03-15,10:51 AM,23,10.6,7,50,29.6,10,West,13.8,27.6,0,None,Overcast
2017-03-15,3:51 AM,21,10.6,7,55,29.56,10,West,9.2,29.9,0,None,Clear
2017-03-04,7:51 PM,21.9,11,-5.1,30,30.56,10,WNW,10.4,21.9,0,None,Clear
2017-01-08,5:51 PM,21.9,11,1.9,42,30.41,10,West,10.4,21.9,0,None,Clear
2017-01-09,12:51 PM,19.9,11.1,3,48,30.69,10,West,6.9,0,0,None,Scattered Clouds
2017-01-08,8:51 PM,19.9,11.1,3.9,50,30.53,10,Variable,6.9,19.6,0,None,Clear
2017-12-27,10:51 PM,18,11.1,-0.9,44,30.5,10,Variable,4.6,0,0,None,Clear
2017-12-27,9:51 PM,19,11.1,-2,40,30.5,10,West,5.8,0,0,None,Clear
2017-12-27,7:51 AM,19,11.1,1.9,47,30.5,10,WNW,5.8,0,0,None,Overcast
2017-03-12,8:51 AM,19.9,11.1,3,48,30.32,10,Variable,6.9,18.4,0,None,Clear
2017-12-29,7:51 PM,19,11.1,1.9,47,30.27,10,Variable,5.8,0,0,None,Clear
2017-01-08,11:51 AM,19.9,11.1,3.9,50,30.27,10,West,6.9,0,0,None,Overcast
2017-12-29,6:51 PM,19.9,11.1,1.9,46,30.26,10,Variable,6.9,0,0,None,Clear
2017-12-30,1:51 AM,18,11.1,3,52,30.2,10,WNW,4.6,0,0,None,Clear
2017-03-11,8:51 AM,19.9,11.1,3,48,30.19,10,Variable,6.9,0,0,None,Overcast
2017-01-07,4:51 PM,19.9,11.1,17.1,89,30.12,0.5,Variable,6.9,18.4,0.05,"Fog	",Snow
2017-12-30,9:51 AM,19.9,11.1,12.9,74,30.1,0.8,West,6.9,0,0.01,Snow,Light Snow
2017-03-15,4:51 PM,25,11.3,10.9,55,29.63,10,West,18.4,28.8,0,None,Overcast
2017-01-09,1:51 PM,21,11.4,3,46,30.68,10,West,8.1,0,0,None,Overcast
2017-03-04,7:51 AM,21,11.4,3.9,48,30.52,10,NW,8.1,0,0,None,Overcast
2017-12-27,6:51 PM,21,11.4,-0.9,38,30.49,10,NW,8.1,0,0,None,Clear
2017-01-07,12:03 PM,21,11.4,17.1,85,30.23,0.5,NNE,8.1,16.1,0.01,"Fog	",Snow
2017-12-29,4:51 PM,21,11.4,3,46,30.23,10,West,8.1,0,0,None,Partly Cloudy
2017-01-07,11:51 AM,21,11.4,17.1,85,30.21,0.2,NNE,8.1,18.4,0.03,"Fog	",Snow
2017-01-07,1:22 PM,21,11.4,16,81,30.18,0.5,North,8.1,18.4,0.01,Snow,Snow
2017-01-07,12:51 PM,21,11.4,17.1,85,30.18,0.2,North,8.1,18.4,0.04,"Fog	",Snow
2017-12-30,7:51 AM,21,11.4,3.9,48,30.13,10,West,8.1,0,0,None,Overcast
2017-12-30,8:51 AM,21,11.4,6.1,53,30.13,9,West,8.1,0,0,None,Overcast
2017-03-15,7:51 AM,21,11.4,7,55,29.59,10,West,8.1,18.4,0,None,Mostly Cloudy
2017-03-04,12:51 AM,23,11.7,1.9,40,30.46,10,WNW,11.5,26.5,0,None,Clear
2017-01-08,6:51 PM,21.9,11.7,1.9,42,30.46,10,WNW,9.2,0,0,None,Clear
2017-03-13,1:51 AM,21.9,11.7,1.9,42,30.43,10,NW,9.2,18.4,0,None,Clear
2017-02-04,7:51 AM,21.9,11.7,5,48,30.36,10,West,9.2,0,0,None,Clear
2017-01-07,9:16 AM,21.9,11.7,12,66,30.32,1.8,ENE,9.2,0,0,Snow,Light Snow
2017-02-04,5:51 AM,21.9,11.7,5,48,30.32,10,WNW,9.2,0,0,None,Clear
2017-01-07,8:51 AM,21.9,11.7,9,58,30.3,3,ENE,9.2,17.3,0,Snow,Light Snow
2017-02-04,4:51 AM,21.9,11.7,3.9,46,30.3,10,WNW,9.2,23,0,None,Clear
2017-01-07,5:51 AM,23,11.7,3.9,44,30.3,10,NE,11.5,0,0,None,Overcast
2017-01-08,12:51 PM,21.9,11.7,5,48,30.26,10,WNW,9.2,23,0,None,Overcast
2017-12-15,12:51 AM,21.9,11.7,6.1,51,30.09,10,WNW,9.2,0,0,None,Clear
2017-03-15,9:51 AM,23,11.7,8.1,53,29.6,10,West,11.5,26.5,0,None,Overcast
2017-03-03,11:51 PM,24.1,12,1,37,30.45,10,WNW,13.8,29.9,0,None,Clear
2017-01-07,6:33 PM,19.9,12.1,17.1,89,30.14,0.8,Variable,5.8,20.7,0.03,Snow,Light Snow
2017-12-30,9:08 AM,19.9,12.1,8.1,60,30.14,1.8,Variable,5.8,20.7,0,Snow,Light Snow
2017-01-07,4:30 PM,19.9,12.1,17.1,89,30.14,0.2,Variable,5.8,17.3,0.03,"Fog	",Snow
2017-01-07,3:51 PM,19.9,12.1,18,92,30.11,0.2,Variable,5.8,0,0.03,"Fog	",Snow
2017-12-30,10:35 AM,19.9,12.1,12.9,74,30.1,0.8,Variable,5.8,16.1,0,Snow,Light Snow
2017-12-30,11:51 PM,19.9,12.1,12,71,30.06,9,Variable,5.8,0,0,None,Clear
2017-12-31,1:51 AM,19.9,12.1,8.1,60,30.06,10,Variable,5.8,0,0,None,Clear
2017-03-14,9:51 PM,25,12.2,14,63,29.45,10,WNW,16.1,28.8,0,None,Clear
2017-12-30,3:51 AM,19,12.3,3.9,52,30.19,10,WNW,4.6,0,0,None,Overcast
2017-12-30,4:51 AM,19,12.3,5,54,30.15,10,West,4.6,0,0,None,Overcast
2017-03-04,3:51 AM,21,12.4,1.9,44,30.47,10,Variable,6.9,20.7,0,None,Clear
2017-03-13,2:51 AM,21,12.4,3,46,30.45,10,NW,6.9,0,0,None,Clear
2017-01-07,7:51 AM,23,12.4,5,46,30.3,10,NE,10.4,20.7,0,None,Overcast
2017-03-12,3:51 AM,21,12.4,3,46,30.27,10,Variable,6.9,0,0,None,Clear
2017-03-11,9:51 PM,23,12.4,3.9,44,30.26,10,WNW,10.4,24.2,0,None,Clear
2017-01-07,12:12 PM,21,12.4,17.1,85,30.21,0.2,Variable,6.9,0,0.01,"Fog	",Snow
2017-03-11,11:51 AM,23,12.4,5,46,30.16,10,West,10.4,17.3,0,None,Overcast
2017-01-07,8:25 PM,21,12.4,17.1,85,30.14,1.8,Variable,6.9,0,0,Snow,Light Snow
2017-01-07,8:42 PM,21,12.4,16,81,30.14,1.5,WNW,6.9,0,0,Snow,Light Snow
2017-03-15,2:51 AM,21,12.4,7,55,29.55,10,Variable,6.9,25.3,0,None,Clear
2017-12-13,2:51 AM,23,12.4,3,42,29.52,10,West,10.4,17.3,0,None,Partly Cloudy
2017-01-09,4:51 PM,21.9,12.5,7,53,30.65,10,South,8.1,0,0,None,Scattered Clouds
2017-12-26,10:51 AM,24.1,12.5,0,35,30.4,10,West,12.7,21.9,0,None,Clear
2017-02-04,6:51 AM,21.9,12.5,5,48,30.35,10,WNW,8.1,0,0,None,Clear
2017-03-12,12:51 AM,21.9,12.5,3.9,46,30.3,10,WNW,8.1,0,0,None,Clear
2017-02-04,1:51 AM,24.1,12.5,3,40,30.26,10,NW,12.7,20.7,0,None,Clear
2017-02-10,7:51 AM,21.9,12.5,6.1,51,30.21,10,WSW,8.1,0,0,None,Clear
2017-12-15,1:51 AM,21.9,12.5,5,48,30.11,10,West,8.1,0,0,None,Clear
2017-12-30,2:10 PM,21.9,12.5,17.1,82,29.93,1.2,WSW,8.1,0,0,Snow,Light Snow
2017-01-07,9:48 AM,21.2,12.6,14,74,30.31,0.5,Variable,6.9,16.1,0,Snow,Snow
2017-12-26,4:51 AM,25,12.6,1,36,30.28,10,WNW,15,21.9,0,None,Clear
2017-03-15,2:51 PM,25,12.6,10,53,29.58,9,WNW,15,27.6,0,None,Overcast
2017-01-08,11:51 PM,18,12.7,1.9,50,30.6,10,Variable,3.5,17.3,0,None,Clear
2017-12-30,12:51 AM,18,12.7,1.9,50,30.24,10,Variable,3.5,0,0,None,Clear
2017-01-08,4:51 AM,18,12.7,6.1,60,30.23,9,Variable,3.5,0,0,None,Clear
2017-12-30,2:51 AM,18,12.7,3,52,30.19,10,WNW,3.5,0,0,None,Clear
2017-03-11,5:51 AM,18,12.7,0,45,30.15,10,Variable,3.5,0,0,None,Mostly Cloudy
2017-03-04,8:51 AM,23,13.1,3.9,44,30.51,10,WNW,9.2,17.3,0,None,Mostly Cloudy
2017-12-26,11:51 PM,23,13.1,3.9,44,30.46,10,WNW,9.2,0,0,None,Clear
2017-03-03,10:51 PM,25,13.1,1,36,30.44,10,WNW,13.8,24.2,0,None,Clear
2017-12-27,1:51 PM,23,13.1,-2,34,30.42,10,WNW,9.2,18.4,0,None,Clear
2017-12-26,8:51 AM,24.1,13.1,1,37,30.4,10,West,11.5,18.4,0,None,Clear
2017-01-08,1:51 PM,23,13.1,5,46,30.27,10,NW,9.2,23,0,None,Mostly Cloudy
2017-02-04,12:51 AM,25,13.1,3.9,41,30.23,10,WNW,13.8,23,0,None,Clear
2017-03-10,11:51 PM,23,13.1,8.1,53,30.02,10,West,9.2,25.3,0,None,Partly Cloudy
2017-03-10,10:51 PM,25,13.1,7,46,30,10,WNW,13.8,26.5,0,None,Clear
2017-12-30,4:51 PM,23,13.1,14,68,29.93,9,West,9.2,0,0,None,Clear
2017-12-30,4:02 PM,23,13.1,16,74,29.92,7,WNW,9.2,0,0,None,Scattered Clouds
2017-02-09,4:51 PM,25,13.1,6.1,45,29.7,8,NW,13.8,33.4,0,None,Unknown
2017-03-15,12:51 PM,24.1,13.1,10.9,57,29.58,10,West,11.5,25.3,0,None,Overcast
2017-01-09,11:51 AM,19.9,13.4,3.9,50,30.7,10,West,4.6,0,0,None,Partly Cloudy
2017-01-09,11:51 PM,21.9,13.4,9,58,30.65,10,Variable,6.9,0,0,None,Clear
2017-03-13,7:51 AM,19.9,13.4,3.9,50,30.5,10,Variable,4.6,0,0,None,Clear
2017-12-27,5:51 AM,19.9,13.4,1.9,46,30.49,10,WNW,4.6,0,0,None,Overcast
2017-12-27,4:51 AM,19.9,13.4,1.9,46,30.48,10,NW,4.6,0,0,None,Overcast
2017-03-13,5:51 AM,19.9,13.4,5,52,30.46,10,Variable,4.6,0,0,None,Clear
2017-03-11,11:51 PM,21.9,13.4,3.9,46,30.26,10,West,6.9,21.9,0,None,Clear
2017-03-11,10:51 PM,21.9,13.4,3.9,46,30.25,10,Variable,6.9,19.6,0,None,Clear
2017-12-29,1:51 PM,21.9,13.4,3,44,30.2,10,Variable,6.9,0,0,None,Mostly Cloudy
2017-01-07,4:09 PM,19.9,13.4,17.1,89,30.16,0.2,Variable,4.6,0,0.02,"Fog	",Snow
2017-01-07,6:51 PM,19.9,13.4,17.1,89,30.12,1,Variable,4.6,16.1,0.03,Snow,Light Snow
2017-01-07,8:51 PM,21,13.4,16,81,30.12,1.8,Variable,5.8,0,0,Snow,Light Snow
2017-12-30,9:59 AM,19.9,13.4,12.9,74,30.11,1,Variable,4.6,0,0,Snow,Light Snow
2017-12-15,2:51 AM,21,13.4,6.1,53,30.11,10,WNW,5.8,0,0,None,Clear
2017-02-10,1:51 AM,19.9,13.4,3.9,50,30.09,10,Variable,4.6,0,0,None,Clear
2017-12-15,3:51 AM,21,13.4,7,55,30.09,10,WNW,5.8,0,0,None,Clear
2017-12-30,8:51 PM,21.9,13.4,14,72,29.99,8,West,6.9,18.4,0,None,Partly Cloudy
2017-12-30,1:51 PM,21.9,13.4,16,78,29.93,2,WNW,6.9,0,0.01,None,Haze
2017-03-15,10:51 PM,25,13.6,14,63,29.84,10,West,12.7,24.2,0,None,Mostly Cloudy
2017-03-15,9:51 PM,26.1,13.6,10,51,29.82,10,West,16.1,26.5,0,None,Partly Cloudy
2017-02-09,3:51 PM,25,13.6,9,51,29.66,5,WNW,12.7,24.2,0,None,Haze
2017-03-11,8:51 PM,24.1,13.7,5,44,30.22,10,WNW,10.4,19.6,0,None,Clear
2017-01-10,4:51 AM,23,13.9,12,63,30.63,10,WSW,8.1,0,0,None,Clear
2017-03-23,6:51 AM,23,13.9,6.1,48,30.55,10,West,8.1,0,0,None,Clear
2017-12-27,4:51 PM,23,13.9,-2.9,32,30.44,10,WNW,8.1,17.3,0,None,Clear
2017-01-08,4:51 PM,23,13.9,0,37,30.37,10,WNW,8.1,19.6,0,None,Mostly Cloudy
2017-12-30,3:51 PM,23,13.9,15.1,72,29.91,9,WNW,8.1,0,0,None,Mostly Cloudy
2017-02-09,2:14 PM,26.1,14,17.1,69,29.6,1.5,WNW,15,29.9,0,Snow,Light Snow
2017-02-09,3:31 PM,25,14.2,10.9,55,29.67,3,NW,11.5,27.6,0,None,Haze
2017-03-15,3:51 PM,25,14.2,12,58,29.61,10,West,11.5,23,0,None,Overcast
2017-03-15,1:51 PM,25,14.2,12.9,60,29.57,8,West,11.5,23,0,None,Overcast
2017-03-22,11:51 PM,24.1,14.4,-2,32,30.45,10,NW,9.2,0,0,None,Clear
2017-12-26,9:51 AM,24.1,14.4,0,35,30.41,10,West,9.2,17.3,0,None,Clear
2017-01-07,4:51 AM,24.1,14.4,5,44,30.32,10,NE,9.2,0,0,None,Mostly Cloudy
2017-01-08,2:51 PM,24.1,14.4,3,40,30.3,10,NW,9.2,19.6,0,None,Mostly Cloudy
2017-12-16,2:51 AM,24.1,14.4,17.1,75,29.94,8,West,9.2,20.7,0,None,Clear
2017-12-15,10:51 PM,24.1,14.4,17.1,75,29.9,9,West,9.2,0,0,None,Scattered Clouds
2017-12-14,12:10 AM,24.1,14.4,16,71,29.7,1.5,WSW,9.2,0,0,Snow,Light Snow
2017-01-09,2:51 PM,21.9,14.5,5,48,30.67,10,West,5.8,0,0,None,Overcast
2017-01-10,2:51 AM,21.9,14.5,10,60,30.63,10,WSW,5.8,0,0,None,Clear
2017-03-04,2:51 AM,21.9,14.5,1.9,42,30.46,10,Variable,5.8,0,0,None,Clear
2017-12-27,5:51 PM,21.9,14.5,-2,35,30.46,10,WNW,5.8,0,0,None,Clear
2017-01-07,9:24 AM,21.9,14.5,12.9,68,30.32,1,Variable,5.8,0,0,Snow,Light Snow
2017-03-11,10:51 AM,21.9,14.5,5,48,30.17,10,Variable,5.8,17.3,0,None,Overcast
2017-03-11,1:51 PM,26.1,14.5,3,37,30.12,10,WNW,13.8,23,0,None,Overcast
2017-12-30,9:51 PM,21.9,14.5,14,72,30.01,5,Variable,5.8,0,0,None,Haze
2017-12-30,1:33 PM,21.9,14.5,17.1,82,29.95,2.5,WSW,5.8,0,0.01,None,Haze
2017-12-13,11:51 PM,26.1,14.5,12,55,29.68,6,West,13.8,20.7,0,None,Haze
2017-12-13,11:51 AM,26.1,14.5,7,44,29.55,10,West,13.8,29.9,0,None,Overcast
2017-12-27,11:51 AM,21,14.6,0,40,30.48,10,Variable,4.6,0,0,None,Clear
2017-12-27,2:51 AM,21,14.6,3.9,48,30.47,10,NW,4.6,0,0,None,Overcast
2017-01-07,9:41 PM,21,14.6,16,81,30.16,4,Variable,4.6,0,0,None,Haze
2017-01-07,8:34 PM,21,14.6,17.1,85,30.14,2,Variable,4.6,0,0,Snow,Light Snow
2017-12-15,6:51 AM,21,14.6,8.1,57,30.1,10,West,4.6,0,0,None,Clear
2017-03-23,1:51 AM,23,14.7,3,42,30.47,10,Variable,6.9,17.3,0,None,Clear
2017-03-23,3:51 AM,23,14.7,5,46,30.47,10,NW,6.9,0,0,None,Clear
2017-03-04,1:51 AM,23,14.7,1.9,40,30.47,10,Variable,6.9,0,0,None,Clear
2017-03-12,10:51 AM,23,14.7,3.9,44,30.31,10,NNW,6.9,0,0,None,Partly Cloudy
2017-02-04,2:51 AM,23,14.7,1.9,40,30.27,10,Variable,6.9,17.3,0,None,Clear
2017-02-10,8:51 AM,23,14.7,5,46,30.23,10,Variable,6.9,0,0,None,Clear
2017-03-14,10:51 PM,23,14.7,12,63,29.49,10,Variable,6.9,19.6,0,None,Scattered Clouds
2017-03-22,10:51 PM,25,14.8,-0.9,33,30.43,10,NW,10.4,19.6,0,None,Clear
2017-03-11,7:51 PM,25,14.8,6.1,45,30.23,10,WNW,10.4,18.4,0,None,Mostly Cloudy
2017-02-10,9:51 AM,25,14.8,6.1,45,30.23,10,West,10.4,0,0,None,Clear
2017-03-16,4:51 AM,25,14.8,9,51,29.9,10,WNW,10.4,21.9,0,None,Clear
2017-02-09,2:51 PM,25,14.8,16,69,29.62,1.2,NW,10.4,27.6,0,Snow,Light Snow
2017-03-04,6:51 AM,19.9,14.9,3.9,50,30.51,10,Variable,3.5,0,0,None,Clear
2017-03-13,4:51 AM,19.9,14.9,3.9,50,30.45,10,Variable,3.5,0,0,None,Clear
2017-01-07,2:51 PM,19.9,14.9,17.1,89,30.17,0.2,Variable,3.5,0,0.03,"Fog	",Snow
2017-12-15,4:51 AM,19.9,14.9,8.1,60,30.09,10,Variable,3.5,0,0,None,Clear
2017-12-30,11:51 AM,19.9,14.9,15.1,81,30.02,0.5,Variable,3.5,0,0.02,Snow,Snow
2017-12-26,12:51 PM,26.1,15,1,34,30.37,10,West,12.7,20.7,0,None,Clear
2017-12-26,3:51 AM,26.1,15,0,32,30.3,10,West,12.7,24.2,0,None,Clear
2017-02-03,11:51 PM,26.1,15,5,41,30.22,10,NW,12.7,27.6,0,None,Scattered Clouds
2017-12-14,10:51 PM,24.1,15.2,5,44,30.09,10,WNW,8.1,0,0,None,Clear
2017-03-14,8:51 AM,28,15.3,27,96,29.71,0.5,ENE,18.4,31.1,0.16,"Fog	",Snow
2017-03-14,9:51 AM,28,15.3,27,96,29.55,0.5,NE,18.4,35.7,0.33,Fog,Light Freezing Fog
2017-03-14,10:18 AM,28,15.3,27,96,29.51,0.5,NE,18.4,34.5,0.13,Fog,Light Freezing Fog
2017-03-12,10:51 PM,25,15.5,0,34,30.42,10,NW,9.2,0,0,None,Clear
2017-01-07,2:51 AM,25,15.5,8.1,49,30.31,10,North,9.2,0,0,None,Clear
2017-12-13,10:51 AM,25,15.5,9,51,29.56,10,WNW,9.2,24.2,0,None,Overcast
2017-03-12,12:51 PM,27,15.6,3.9,37,30.3,10,NW,13.8,21.9,0,None,Partly Cloudy
2017-12-26,2:51 AM,26.1,15.6,1,34,30.27,10,West,11.5,25.3,0,None,Clear
2017-03-11,5:51 PM,26.1,15.6,9,49,30.16,10,NW,11.5,20.7,0,None,Mostly Cloudy
2017-02-17,5:51 AM,27,15.6,14,58,29.84,10,WNW,13.8,21.9,0,None,Clear
2017-02-09,1:34 PM,27,15.6,19.9,75,29.57,1.8,WNW,13.8,28.8,0,Snow,Light Snow
2017-01-10,1:51 AM,21.9,15.7,9,58,30.63,10,West,4.6,16.1,0,None,Clear
2017-01-10,3:51 AM,21.9,15.7,10,60,30.61,10,West,4.6,0,0,None,Clear
2017-12-27,12:51 AM,21.9,15.7,3.9,46,30.45,10,NW,4.6,0,0,None,Clear
2017-12-30,1:11 PM,21.9,15.7,16,78,29.96,1,West,4.6,0,0.01,Snow,Light Snow
2017-12-30,6:51 PM,21.9,15.7,14,72,29.96,9,WNW,4.6,0,0,None,Clear
2017-03-23,5:51 AM,23,15.8,7,50,30.52,10,Variable,5.8,0,0,None,Clear
2017-03-23,4:51 AM,23,15.8,6.1,48,30.5,10,Variable,5.8,0,0,None,Clear
2017-01-07,6:51 AM,23,15.8,5,46,30.28,10,Variable,5.8,0,0,None,Overcast
2017-12-15,4:42 PM,23,15.8,19.9,88,29.94,0.5,WNW,5.8,0,0.03,"Fog	",Snow
2017-12-30,2:28 PM,23,15.8,17.1,78,29.93,2.5,WSW,5.8,0,0,None,Haze
2017-12-30,3:11 PM,23,15.8,17.1,78,29.92,9,West,5.8,0,0,None,Overcast
2017-12-15,11:51 PM,23,15.8,18,81,29.89,8,WSW,5.8,18.4,0,None,Clear
2017-03-04,6:51 PM,24.1,16,-6,27,30.54,10,Variable,6.9,27.6,0,None,Clear
2017-11-11,3:51 AM,24.1,16,10.9,57,30.52,10,Variable,6.9,17.3,0,None,Clear
2017-03-23,12:51 AM,24.1,16,0,35,30.46,10,Variable,6.9,23,0,None,Clear
2017-12-26,10:51 PM,24.1,16,3.9,42,30.44,10,Variable,6.9,0,0,None,Clear
2017-12-27,3:51 PM,24.1,16,-2,32,30.42,10,WNW,6.9,0,0,None,Clear
2017-12-26,7:51 AM,24.1,16,1.9,38,30.39,10,Variable,6.9,24.2,0,None,Clear
2017-12-26,1:51 AM,27,16.1,3,36,30.25,10,West,12.7,25.3,0,None,Clear
2017-01-05,7:51 AM,27,16.1,8.1,45,29.94,10,WNW,12.7,19.6,0,None,Clear
2017-12-13,7:51 PM,27,16.1,7,43,29.67,10,West,12.7,21.9,0,None,Clear
2017-12-27,1:51 AM,21,16.2,5,50,30.47,10,Variable,3.5,0,0,None,Partly Cloudy
2017-03-13,3:51 AM,21,16.2,3.9,48,30.43,10,Variable,3.5,0,0,None,Clear
2017-12-26,5:51 PM,26.1,16.2,1.9,35,30.42,10,WNW,10.4,17.3,0,None,Clear
2017-12-29,12:51 PM,21,16.2,1.9,44,30.21,10,Variable,3.5,0,0,None,Scattered Clouds
2017-03-11,12:51 PM,26.1,16.2,1,34,30.14,10,WNW,10.4,25.3,0,None,Mostly Cloudy
2017-01-07,10:51 PM,21,16.2,15.1,78,30.14,7,Variable,3.5,0,0,None,Overcast
2017-01-07,9:51 PM,21,16.2,16,81,30.14,6,Variable,3.5,0,0,None,Haze
2017-12-16,4:51 AM,26.1,16.2,17.1,69,29.96,9,West,10.4,18.4,0,None,Clear
2017-03-16,12:51 AM,26.1,16.2,10.9,53,29.87,10,West,10.4,25.3,0,None,Overcast
2017-03-15,8:51 PM,26.1,16.2,8.1,47,29.79,10,WNW,10.4,25.3,0,None,Overcast
2017-03-23,8:51 AM,25,16.3,5,43,30.6,10,NW,8.1,0,0,None,Clear
2017-03-04,5:51 PM,25,16.3,-7.1,24,30.51,10,WNW,8.1,18.4,0,None,Clear
2017-03-04,9:51 AM,25,16.3,5,43,30.5,10,NW,8.1,0,0,None,Overcast
2017-11-11,1:51 AM,25,16.3,10.9,55,30.49,10,NW,8.1,0,0,None,Clear
2017-02-04,9:51 AM,25,16.3,5,43,30.4,10,West,8.1,16.1,0,None,Clear
2017-03-11,6:51 PM,25,16.3,6.1,45,30.17,10,NW,8.1,21.9,0,None,Partly Cloudy
2017-03-14,7:09 AM,28,16.5,26.1,92,29.83,1,NE,15,25.3,0.03,Snow,Light Snow
2017-03-14,7:51 AM,28,16.5,26.1,92,29.78,0.8,ENE,15,27.6,0.14,Snow,Light Snow
2017-02-09,1:29 PM,28,16.5,21,75,29.57,3,NW,15,28.8,0,None,Haze
2017-03-03,9:51 PM,27,16.7,3.9,37,30.42,10,NNW,11.5,24.2,0,None,Clear
2017-03-12,8:51 PM,27,16.7,1,33,30.36,10,WNW,11.5,0,0,None,Clear
2017-02-10,9:51 PM,27,16.7,19,72,30.15,1.5,West,11.5,20.7,0,Snow,Light Snow
2017-01-05,6:51 AM,27,16.7,7,43,29.93,10,West,11.5,24.2,0,None,Clear
2017-02-17,4:51 AM,27,16.7,14,58,29.83,10,WNW,11.5,21.9,0,None,Clear
2017-03-11,4:51 PM,26.1,16.8,9,49,30.14,10,NW,9.2,26.5,0,None,Overcast
2017-03-16,1:51 AM,26.1,16.8,10,51,29.88,10,West,9.2,28.8,0,None,Clear
2017-03-15,11:51 PM,26.1,16.8,12,55,29.86,10,WNW,9.2,35.7,0,None,Clear
2017-03-15,6:51 PM,26.1,16.8,7,44,29.7,10,WNW,9.2,21.9,0,None,Overcast
2017-03-14,4:51 AM,28.9,16.9,28,96,29.99,0.5,ENE,17.3,28.8,0.12,"Fog	",Snow
2017-12-13,12:51 PM,28.9,16.9,5,36,29.54,10,WNW,17.3,29.9,0,None,Partly Cloudy
2017-01-09,6:51 PM,23,17,8.1,53,30.67,10,SSW,4.6,0,0,None,Clear
2017-01-09,7:51 PM,23,17,9,55,30.66,10,South,4.6,0,0,None,Clear
2017-11-11,4:51 AM,24.1,17,12,60,30.53,10,Variable,5.8,0,0,None,Clear
2017-11-11,5:51 AM,24.1,17,12,60,30.53,10,Variable,5.8,0,0,None,Clear
2017-03-13,10:51 AM,24.1,17,5,44,30.52,10,NW,5.8,0,0,None,Clear
2017-11-11,2:51 AM,24.1,17,10.9,57,30.5,10,Variable,5.8,0,0,None,Clear
2017-12-27,2:51 PM,24.1,17,-0.9,34,30.42,10,WNW,5.8,0,0,None,Clear
2017-01-08,3:51 PM,24.1,17,0,35,30.32,10,Variable,5.8,24.2,0,None,Overcast
2017-01-07,3:51 AM,24.1,17,9,53,30.31,10,Variable,5.8,0,0,None,Partly Cloudy
2017-02-04,3:51 AM,23,17,3,42,30.28,10,Variable,4.6,0,0,None,Clear
2017-03-14,2:51 AM,28,17,26.1,92,30.13,0.8,ENE,13.8,20.7,0.04,Snow,Light Snow
2017-12-15,8:51 AM,23,17,10,58,30.11,10,West,4.6,0,0,None,Clear
2017-12-14,11:51 PM,23,17,6.1,48,30.09,10,Variable,4.6,0,0,None,Clear
2017-12-14,9:51 PM,24.1,17,7,48,30.08,10,NW,5.8,0,0,None,Clear
2017-12-15,5:09 PM,23,17,19.9,88,29.94,0.5,WNW,4.6,0,0.01,"Fog	",Snow
2017-12-15,6:40 PM,24.1,17,19.9,84,29.93,1.5,West,5.8,0,0.01,Snow,Light Snow
2017-12-15,5:40 PM,24.1,17,21,88,29.93,1,WNW,5.8,0,0.03,Snow,Light Snow
2017-12-30,2:35 PM,23,17,17.1,78,29.93,4,Variable,4.6,0,0,None,Haze
2017-12-30,3:24 PM,23,17,16,74,29.92,9,WSW,4.6,0,0,None,Mostly Cloudy
2017-12-15,3:51 PM,24.1,17,19.9,84,29.91,0.5,NW,5.8,0,0.02,"Fog	",Snow
2017-03-14,7:22 AM,28,17,26.1,92,29.82,0.8,ENE,13.8,28.8,0.06,Snow,Light Snow
2017-02-09,9:36 AM,28,17,27,96,29.55,0.2,North,13.8,24.2,0.14,"Fog	",Snow
2017-11-10,11:51 PM,25,17.1,9,51,30.5,10,Variable,6.9,18.4,0,None,Clear
2017-12-26,7:51 PM,25,17.1,3,39,30.42,10,NW,6.9,0,0,None,Clear
2017-12-26,5:51 AM,25,17.1,1,36,30.31,10,WNW,6.9,0,0,None,Clear
2017-03-16,2:51 AM,25,17.1,10,53,29.89,10,Variable,6.9,16.1,0,None,Clear
2017-03-16,3:51 AM,25,17.1,9,51,29.89,10,West,6.9,0,0,None,Clear
2017-12-13,1:51 AM,25,17.1,1,36,29.51,10,Variable,6.9,25.3,0,None,Scattered Clouds
2017-12-30,1:25 PM,21.9,17.2,17.1,82,29.96,1.8,West,3.5,0,0.01,Snow,Light Snow
2017-12-26,4:51 PM,27,17.3,1,33,30.39,10,WNW,10.4,20.7,0,None,Clear
2017-12-26,2:51 PM,27,17.3,1.9,34,30.36,10,WNW,10.4,17.3,0,None,Clear
2017-03-11,3:51 PM,28,17.5,6.1,39,30.12,10,West,12.7,27.6,0,None,Overcast
2017-03-14,6:51 AM,28,17.5,27,96,29.84,0.5,NE,12.7,23,0.1,"Fog	",Snow
2017-02-16,11:51 PM,28,17.5,12.9,53,29.79,10,NW,12.7,23,0,None,Partly Cloudy
2017-02-09,9:51 AM,28,17.5,26.1,92,29.53,0.2,North,12.7,21.9,0.16,"Fog	",Snow
2017-11-10,8:51 PM,26.1,17.6,6.1,43,30.49,10,North,8.1,0,0,None,Clear
2017-02-03,5:51 AM,26.1,17.6,8.1,47,30.22,10,NW,8.1,0,0,None,Clear
2017-12-16,5:51 AM,26.1,17.6,16,66,29.98,9,WSW,8.1,0,0,None,Clear
2017-02-17,6:51 AM,26.1,17.6,14,60,29.85,10,West,8.1,0,0,None,Clear
2017-12-14,9:51 AM,26.1,17.6,21,81,29.69,9,NNW,8.1,0,0,None,Overcast
2017-02-10,8:51 PM,28.9,17.7,12.9,51,30.14,10,West,15,23,0,None,Overcast
2017-03-14,3:51 AM,28.9,17.7,27,92,30.05,0.2,ENE,15,23,0.1,"Fog	",Snow
2017-03-14,10:51 AM,28.9,17.7,28,96,29.44,0.5,ENE,15,31.1,0.26,"Fog	",Snow
2017-03-04,4:51 PM,27,18,-5.1,25,30.48,10,WNW,9.2,26.5,0,None,Clear
2017-02-04,10:51 AM,27,18,6.1,41,30.39,10,West,9.2,0,0,None,Clear
2017-03-10,9:51 PM,27,18,7,43,29.99,10,WNW,9.2,19.6,0,None,Clear
2017-01-05,8:51 AM,27,18,7,43,29.96,10,WNW,9.2,18.4,0,None,Clear
2017-02-17,3:51 AM,27,18,14,58,29.81,10,WNW,9.2,18.4,0,None,Clear
2017-12-26,6:51 AM,25,18.1,1.9,37,30.35,10,West,5.8,19.6,0,None,Clear
2017-01-07,1:51 AM,25,18.1,10,53,30.29,10,Variable,5.8,0,0,None,Clear
2017-03-12,2:51 PM,28,18.1,3.9,36,30.26,10,NW,11.5,24.2,0,None,Scattered Clouds
2017-12-15,8:51 PM,25,18.1,19.9,81,29.91,9,West,5.8,0,0,None,Overcast
2017-02-16,10:51 PM,28,18.1,12.9,53,29.78,10,NW,11.5,25.3,0,None,Partly Cloudy
2017-11-11,6:51 AM,24.1,18.2,12,60,30.53,10,Variable,4.6,0,0,None,Clear
2017-11-10,6:51 PM,28.9,18.2,5,36,30.45,10,NNW,13.8,21.9,0,None,Clear
2017-12-15,9:51 AM,24.1,18.2,10,55,30.11,10,Variable,4.6,0,0,None,Clear
2017-12-15,4:25 PM,24.1,18.2,21,88,29.94,0.5,Variable,4.6,0,0.01,"Fog	",Snow
2017-12-15,6:29 PM,24.1,18.2,21,88,29.93,1.2,Variable,4.6,0,0.01,Snow,Light Snow
2017-12-15,6:00 PM,24.1,18.2,19.9,84,29.93,1,WNW,4.6,0,0.01,Snow,Light Snow
2017-12-15,3:41 PM,24.1,18.2,19.9,84,29.93,0.5,Variable,4.6,0,0.01,"Fog	",Snow
2017-12-15,7:28 PM,24.1,18.2,19.9,84,29.92,1.2,West,4.6,0,0,Snow,Light Snow
2017-12-15,7:09 PM,24.1,18.2,19.9,84,29.92,1.5,WNW,4.6,0,0,Snow,Light Snow
2017-12-15,5:51 PM,24.1,18.2,19.9,84,29.91,1,WNW,4.6,0,0.03,Snow,Light Snow
2017-03-16,5:51 AM,24.1,18.2,10,55,29.91,10,Variable,4.6,17.3,0,None,Clear
2017-01-09,3:51 PM,23,18.4,7,50,30.66,10,West,3.5,0,0,None,Scattered Clouds
2017-01-10,5:51 AM,23,18.4,10.9,60,30.62,10,West,3.5,0,0,None,Clear
2017-03-13,9:51 AM,23,18.4,6.1,48,30.52,10,NNW,3.5,0,0,None,Clear
2017-03-04,10:51 AM,26.1,18.4,5,41,30.49,10,Variable,6.9,19.6,0,None,Overcast
2017-03-23,2:51 AM,23,18.4,3.9,44,30.48,10,Variable,3.5,0,0,None,Clear
2017-12-26,6:51 PM,26.1,18.4,1.9,35,30.43,10,WNW,6.9,0,0,None,Clear
2017-03-12,11:51 PM,23,18.4,0,37,30.4,10,Variable,3.5,0,0,None,Clear
2017-03-12,9:51 PM,26.1,18.4,0,32,30.38,10,Variable,6.9,19.6,0,None,Clear
2017-02-03,7:51 AM,26.1,18.4,8.1,47,30.23,10,NW,6.9,0,0,None,Clear
2017-01-06,10:51 PM,26.1,18.4,7,44,30.23,10,Variable,6.9,0,0,None,Clear
2017-12-14,7:51 PM,26.1,18.4,8.1,47,30.03,10,WNW,6.9,16.1,0,None,Clear
2017-12-16,6:51 AM,26.1,18.4,16,66,30,9,Variable,6.9,20.7,0,None,Clear
2017-12-30,2:51 PM,23,18.4,17.1,78,29.9,7,Variable,3.5,0,0,None,Overcast
2017-12-16,12:51 AM,23,18.4,18,81,29.9,8,Variable,3.5,0,0,None,Clear
2017-03-15,7:51 PM,26.1,18.4,7,44,29.74,10,Variable,6.9,25.3,0,None,Overcast
2017-12-14,9:32 AM,26.1,18.4,21,81,29.69,8,NE,6.9,0,0,None,Overcast
2017-03-04,12:51 PM,28,18.6,0,30,30.46,10,WNW,10.4,31.1,0,None,Mostly Cloudy
2017-03-03,8:51 PM,28.9,18.6,8.1,41,30.38,10,NW,12.7,23,0,None,Scattered Clouds
2017-03-22,7:51 PM,28.9,18.6,-5.1,23,30.33,10,NW,12.7,23,0,None,Clear
2017-03-12,6:51 PM,28,18.6,1,31,30.3,10,WNW,10.4,19.6,0,None,Clear
2017-02-03,10:51 PM,28,18.6,7,41,30.19,10,NW,10.4,17.3,0,None,Partly Cloudy
2017-03-14,2:32 AM,28,18.6,26.1,92,30.18,0.5,ENE,10.4,19.6,0.03,"Fog	",Snow
2017-12-16,8:51 AM,28,18.6,17.1,63,30.05,8,West,10.4,25.3,0,None,Mostly Cloudy
2017-02-17,2:51 AM,28,18.6,14,56,29.81,10,West,10.4,24.2,0,None,Clear
2017-02-09,11:05 AM,28,18.6,27,96,29.56,0.2,North,10.4,20.7,0.02,"Fog	",Snow
2017-12-13,12:51 AM,28,18.6,7,41,29.48,10,WNW,10.4,25.3,0,None,Overcast
2017-03-14,6:18 PM,28.9,18.6,24.1,82,29.29,6,NW,12.7,23,0,None,Haze
2017-12-26,3:51 PM,27,18.7,1,33,30.37,10,WNW,8.1,17.3,0,None,Clear
2017-03-12,7:51 PM,27,18.7,1.9,34,30.34,10,NW,8.1,0,0,None,Clear
2017-03-22,5:51 PM,30.9,18.7,-2.9,23,30.26,10,NW,19.6,34.5,0,None,Clear
2017-02-12,10:44 AM,30,18.7,28,92,30,3,ENE,16.1,23,0.1,None,Overcast
2017-12-14,5:51 PM,27,18.7,8.1,45,29.96,10,NW,8.1,0,0,None,Clear
2017-03-16,9:51 AM,27,18.7,10,49,29.95,10,West,8.1,0,0,None,Clear
2017-02-09,1:14 PM,27,18.7,21,78,29.56,1.2,NW,8.1,27.6,0,Snow,Light Snow
2017-02-09,8:11 AM,30,19.1,28,92,29.58,0.2,North,15,25.3,0.07,"Fog	",Snow
2017-02-10,11:51 AM,28.9,19.2,7,40,30.22,10,WNW,11.5,29.9,0,None,Partly Cloudy
2017-12-14,3:51 PM,28.9,19.2,9,43,29.88,10,NW,11.5,20.7,0,None,Clear
2017-02-09,6:51 AM,28.9,19.2,28,96,29.57,0.2,North,11.5,25.3,0.16,"Fog	",Snow
2017-02-09,7:51 AM,28.9,19.2,28,96,29.55,0.2,NNE,11.5,23,0.21,"Fog	",Snow
2017-11-11,12:51 AM,25,19.3,9,51,30.5,10,Variable,4.6,0,0,None,Clear
2017-12-26,9:51 PM,25,19.3,3,39,30.43,10,Variable,4.6,0,0,None,Clear
2017-12-26,11:51 AM,25,19.3,0,34,30.38,10,Variable,4.6,20.7,0,None,Clear
2017-03-12,11:51 AM,25,19.3,3,39,30.31,10,Variable,4.6,0,0,None,Scattered Clouds
2017-12-26,12:51 AM,28,19.3,8.1,43,30.24,10,WNW,9.2,18.4,0,None,Clear
2017-12-25,11:51 PM,28,19.3,8.1,43,30.23,10,WNW,9.2,17.3,0,None,Clear
2017-12-25,10:51 PM,28,19.3,8.1,43,30.23,10,West,9.2,19.6,0,None,Clear
2017-01-06,8:51 PM,28,19.3,8.1,43,30.23,10,North,9.2,0,0,None,Clear
2017-12-15,3:01 PM,25,19.3,17.1,72,29.95,1,WNW,4.6,0,0,Snow,Light Snow
2017-01-05,4:51 AM,28,19.3,9,45,29.86,10,WNW,9.2,17.3,0,None,Clear
2017-02-17,8:51 AM,28,19.3,15.1,58,29.86,10,WNW,9.2,23,0,None,Clear
2017-12-13,6:51 PM,28,19.3,6.1,39,29.66,10,WSW,9.2,18.4,0,None,Clear
2017-03-14,3:51 PM,28,19.3,26.1,92,29.17,0.8,NW,9.2,0,0.04,Snow,Light Snow
2017-11-11,7:51 AM,26.1,19.4,12,55,30.56,10,Variable,5.8,0,0,None,Clear
2017-11-10,10:51 PM,26.1,19.4,7,44,30.5,10,WNW,5.8,0,0,None,Clear
2017-12-14,8:51 AM,26.1,19.4,23,88,29.64,4,Variable,5.8,0,0,None,Overcast
2017-12-14,4:51 AM,26.1,19.4,23,88,29.53,8,NE,5.8,0,0,None,Overcast
2017-03-14,11:42 AM,30.9,19.4,28.9,92,29.37,1,ENE,17.3,34.5,0.15,Snow,Light Snow
2017-03-14,11:51 AM,30.9,19.4,28.9,92,29.34,0.8,NE,17.3,34.5,0.17,None,Overcast
2017-03-14,1:51 PM,30.9,19.4,28,89,29.17,0.5,North,17.3,31.1,0.14,"Fog	",Snow
2017-03-23,9:51 AM,27,19.5,1.9,34,30.6,10,WNW,6.9,0,0,None,Clear
2017-03-04,1:51 PM,30,19.5,1,29,30.45,10,West,13.8,29.9,0,None,Overcast
2017-02-10,10:51 AM,27,19.5,6.1,41,30.23,10,Variable,6.9,21.9,0,None,Clear
2017-01-06,2:29 AM,27,19.5,24.1,89,29.98,1,WNW,6.9,0,0.01,Snow,Light Snow
2017-02-12,10:51 AM,30,19.5,28,92,29.97,3,ENE,13.8,23,0.11,None,Overcast
2017-02-17,7:51 AM,27,19.5,15.1,61,29.86,10,Variable,6.9,0,0,None,Clear
2017-12-14,6:37 AM,27,19.5,24.1,89,29.57,1.8,NE,6.9,0,0,Snow,Light Snow
2017-03-14,6:51 PM,30,19.5,21.9,72,29.32,10,WNW,13.8,25.3,0,None,Overcast
2017-03-14,12:51 PM,30,19.5,28.9,96,29.27,0.5,NNE,13.8,24.2,0.21,Fog,Light Freezing Fog
2017-03-23,7:51 AM,24.1,19.7,6.1,46,30.58,10,NW,3.5,0,0,None,Clear
2017-12-15,6:21 PM,24.1,19.7,21,88,29.93,2,WNW,3.5,0,0.01,Snow,Light Snow
2017-12-15,4:13 PM,24.1,19.7,21,88,29.93,0.5,Variable,3.5,0,0.01,"Fog	",Snow
2017-12-15,8:02 PM,24.1,19.7,19.9,84,29.92,4,West,3.5,0,0,Snow,Light Snow
2017-12-15,4:51 PM,24.1,19.7,21,88,29.92,0.5,WNW,3.5,0,0.04,"Fog	",Snow
2017-12-15,6:51 PM,24.1,19.7,21,88,29.91,2.5,WNW,3.5,0,0.02,Snow,Light Snow
2017-12-15,7:51 PM,24.1,19.7,21,88,29.9,2,WNW,3.5,0,0,Snow,Light Snow
2017-03-04,11:51 AM,28.9,19.8,1.9,32,30.48,10,WNW,10.4,27.6,0,None,Overcast
2017-03-04,2:51 PM,28.9,19.8,-2,26,30.46,10,NW,10.4,31.1,0,None,Mostly Cloudy
2017-03-12,3:51 PM,28.9,19.8,3.9,35,30.27,10,WNW,10.4,18.4,0,None,Clear
2017-02-10,6:51 PM,28.9,19.8,12.9,51,30.19,10,West,10.4,20.7,0,None,Overcast
2017-03-14,2:14 AM,28.9,19.8,26.1,89,30.18,0.8,ENE,10.4,19.6,0.01,Snow,Light Snow
2017-12-25,8:51 PM,28.9,19.8,10,45,30.18,10,WNW,10.4,24.2,0,None,Clear
2017-02-10,7:51 PM,28.9,19.8,12.9,51,30.17,10,WSW,10.4,24.2,0,None,Overcast
2017-01-05,10:51 AM,28.9,19.8,7,40,29.97,10,WNW,10.4,17.3,0,None,Overcast
2017-03-10,8:51 PM,28.9,19.8,10,45,29.96,10,NNW,10.4,20.7,0,None,Overcast
2017-12-14,11:51 AM,28.9,19.8,17.1,61,29.75,10,WNW,10.4,18.4,0,None,Partly Cloudy
2017-02-09,5:14 AM,30.9,19.8,28.9,92,29.59,1.8,NNE,16.1,28.8,0.01,Snow,Light Snow
2017-03-14,4:29 PM,28.9,19.8,25,85,29.21,2,WNW,10.4,27.6,0,None,Overcast
2017-02-12,10:31 AM,30,20,28,92,30.03,1.8,ENE,12.7,0,0.07,Snow,Light Snow
2017-02-12,9:51 AM,30,20,28,92,30.02,1.5,East,12.7,0,0.01,Rain,Light Freezing Rain
2017-01-05,9:51 AM,28,20,7,41,30,10,WSW,8.1,23,0,None,Clear
2017-02-17,12:51 AM,28,20,14,56,29.8,10,WNW,8.1,0,0,None,Clear
2017-03-14,7:51 PM,30,20,19.9,66,29.36,10,WNW,12.7,21.9,0,None,Overcast
2017-03-14,6:02 PM,30,20,26.1,85,29.27,1.2,NW,12.7,24.2,0,Snow,Light Snow
2017-02-09,5:01 AM,30.9,20.2,30,96,29.6,1,NE,15,21.9,0.01,Snow,Light Snow
2017-12-13,2:51 PM,30.9,20.2,3,31,29.57,10,WNW,15,28.8,0,None,Clear
2017-12-13,1:51 PM,30.9,20.2,3,31,29.55,10,WNW,15,28.8,0,None,Clear
2017-03-12,4:51 PM,28.9,20.4,3,33,30.27,10,WNW,9.2,21.9,0,None,Clear
2017-12-25,9:51 PM,28.9,20.4,9,43,30.21,10,West,9.2,0,0,None,Clear
2017-03-14,2:04 AM,28.9,20.4,25,85,30.2,0.8,ENE,9.2,0,0,Snow,Light Snow
2017-01-31,2:39 PM,28.9,20.4,26.1,89,29.77,1.2,ENE,9.2,0,0.01,Snow,Light Snow
2017-01-31,1:51 PM,28.9,20.4,26.1,89,29.77,0.5,ENE,9.2,0,0.02,"Fog	",Snow
2017-02-16,9:51 PM,28.9,20.4,14,54,29.77,10,NW,9.2,25.3,0,None,Partly Cloudy
2017-11-11,8:51 AM,27,20.5,9,47,30.57,10,Variable,5.8,0,0,None,Clear
2017-03-22,6:51 PM,30,20.5,-5.1,22,30.3,10,NW,11.5,32.2,0,None,Clear
2017-02-03,8:51 AM,27,20.5,8.1,45,30.25,10,WNW,5.8,0,0,None,Clear
2017-02-10,9:55 PM,27,20.5,18,69,30.17,3,Variable,5.8,20.7,0,Snow,Light Snow
2017-12-14,6:51 PM,26.1,20.5,7,44,30,10,Variable,4.6,0,0,None,Clear
2017-01-31,11:26 AM,27,20.5,24.1,89,29.91,0.2,SSW,5.8,0,0.01,"Fog	",Snow
2017-02-16,8:51 PM,30,20.5,12.9,49,29.76,10,NW,11.5,25.3,0,None,Clear
2017-12-14,9:02 AM,26.1,20.5,21.9,84,29.66,6,Variable,4.6,0,0,None,Mostly Cloudy
2017-02-09,6:19 AM,30,20.5,28,92,29.61,0.8,NNE,11.5,21.9,0.06,Snow,Light Snow
2017-12-13,3:51 PM,30,20.5,3.9,33,29.6,10,WNW,11.5,26.5,0,None,Clear
2017-12-14,6:51 AM,27,20.5,25,92,29.56,0.8,NE,5.8,0,0.01,Snow,Light Snow
2017-12-14,3:51 AM,26.1,20.5,23,88,29.55,9,SSE,4.6,0,0,None,Overcast
2017-02-09,8:51 AM,30,20.5,28.9,96,29.54,0.2,NNW,11.5,23,0.23,"Fog	",Snow
2017-12-14,5:51 AM,27,20.5,23,85,29.54,8,NE,5.8,0,0,None,Overcast
2017-03-14,5:51 PM,30,20.5,26.1,85,29.25,0.8,WNW,11.5,21.9,0.01,Snow,Light Snow
2017-12-26,8:51 PM,25,20.7,3,39,30.43,10,Variable,3.5,0,0,None,Clear
2017-01-06,11:51 PM,25,20.7,7,46,30.27,10,Variable,3.5,0,0,None,Clear
2017-01-07,12:51 AM,25,20.7,9,51,30.27,10,Variable,3.5,0,0,None,Clear
2017-02-12,8:20 AM,30.9,20.7,27,85,30.09,7,East,13.8,0,0,None,Overcast
2017-12-15,3:16 PM,25,20.7,19,78,29.95,0.8,NW,3.5,0,0,Snow,Light Snow
2017-03-16,8:51 AM,25,20.7,10.9,55,29.95,10,Variable,3.5,0,0,None,Clear
2017-12-16,3:51 AM,25,20.7,17.1,72,29.95,9,Variable,3.5,0,0,None,Clear
2017-02-03,10:51 AM,28,20.8,9,45,30.23,10,NW,6.9,0,0,None,Clear
2017-03-14,5:51 AM,28,20.8,27,96,29.92,0.5,NE,6.9,19.6,0.1,"Fog	",Snow
2017-12-14,10:51 AM,28,20.8,21,75,29.71,10,North,6.9,0,0,None,Mostly Cloudy
2017-02-09,12:51 PM,28,20.8,25,88,29.54,0.5,Variable,6.9,0,0.03,"Fog	",Snow
2017-03-14,3:08 PM,28,20.8,25,88,29.16,0.8,Variable,6.9,34.5,0.02,Snow,Light Snow
2017-03-14,2:51 PM,28,20.8,26.1,92,29.13,0.5,Variable,6.9,21.9,0.03,"Fog	",Snow
2017-03-14,1:51 AM,30,21.1,24.1,79,30.19,1,East,10.4,0,0.01,Snow,Light Snow
2017-03-03,5:51 AM,30,21.1,10,43,30.18,10,WNW,10.4,21.9,0,None,Clear
2017-02-03,9:51 PM,28.9,21.1,6.1,38,30.18,10,WNW,8.1,0,0,None,Partly Cloudy
2017-01-06,9:51 AM,28.9,21.1,15.1,56,30.05,9,WNW,8.1,0,0,None,Scattered Clouds
2017-02-12,11:01 AM,30,21.1,28,92,29.99,3,ENE,10.4,20.7,0.01,Rain,Light Freezing Rain
2017-01-05,11:51 AM,28.9,21.1,7,40,29.96,10,WSW,8.1,19.6,0,None,Partly Cloudy
2017-03-16,10:51 AM,30,21.1,9,41,29.95,10,West,10.4,21.9,0,None,Partly Cloudy
2017-12-10,7:51 AM,28.9,21.1,21,72,29.87,4,WSW,8.1,0,0,None,Haze
2017-02-16,7:51 PM,30,21.1,12.9,49,29.74,10,NW,10.4,18.4,0,None,Scattered Clouds
2017-12-13,5:51 PM,28.9,21.1,8.1,41,29.65,10,West,8.1,0,0,None,Clear
2017-12-12,11:51 PM,30,21.1,8.1,40,29.47,10,WNW,10.4,24.2,0,None,Mostly Cloudy
2017-03-14,6:09 PM,30,21.1,26.1,85,29.28,2,WNW,10.4,20.7,0,Snow,Light Snow
2017-03-22,2:51 PM,33.1,21.2,-5.1,19,30.19,10,NW,20.7,32.2,0,None,Clear
2017-12-14,6:48 AM,26.6,21.2,24.8,93,29.58,1,NE,4.6,0,0.01,Snow,Light Snow
2017-03-14,1:47 AM,30.2,21.3,24.8,80,30.22,1.2,East,10.4,0,0.01,Snow,Light Snow
2017-02-12,9:47 AM,30.2,21.3,28.4,93,30.04,1.5,ENE,10.4,17.3,0,Rain,Light Freezing Rain
2017-01-06,9:51 PM,27,21.6,8.1,45,30.24,10,Variable,4.6,0,0,None,Clear
2017-12-16,7:51 AM,27,21.6,17.1,66,30.03,8,Variable,4.6,20.7,0,None,Clear
2017-01-31,3:51 AM,27,21.6,10,49,30,10,Variable,4.6,0,0,None,Overcast
2017-01-31,4:51 AM,27,21.6,10,49,29.98,10,NNW,4.6,0,0,None,Overcast
2017-12-13,10:51 PM,27,21.6,6.1,41,29.66,10,Variable,4.6,17.3,0,None,Overcast
2017-12-13,8:51 PM,27,21.6,7,43,29.66,10,Variable,4.6,0,0,None,Mostly Cloudy
2017-12-14,6:13 AM,27,21.6,24.1,89,29.57,1.8,NE,4.6,0,0,Snow,Light Snow
2017-12-14,6:27 AM,27,21.6,24.1,89,29.57,2,NE,4.6,0,0,Snow,Light Snow
2017-01-14,3:51 AM,30,21.7,12.9,49,30.7,10,ENE,9.2,0,0,None,Clear
2017-01-14,7:51 AM,28,21.7,12.9,53,30.68,10,NE,5.8,0,0,None,Clear
2017-01-14,6:51 AM,28,21.7,12.9,53,30.68,10,NNE,5.8,0,0,None,Clear
2017-11-10,5:51 PM,30,21.7,5,35,30.41,10,NNW,9.2,0,0,None,Clear
2017-11-10,4:51 PM,30.9,21.7,7,37,30.36,10,NW,11.5,23,0,None,Clear
2017-03-13,7:51 PM,30,21.7,12.9,49,30.35,10,South,9.2,18.4,0,None,Scattered Clouds
2017-02-04,12:51 PM,30.9,21.7,6.1,35,30.33,10,WSW,11.5,18.4,0,None,Clear
2017-01-15,6:51 AM,30,21.7,23,75,30.3,10,WNW,9.2,0,0,None,Clear
2017-03-12,5:51 PM,28,21.7,3,34,30.28,10,Variable,5.8,23,0,None,Clear
2017-02-03,3:51 AM,28,21.7,9,45,30.2,10,Variable,5.8,0,0,None,Clear
2017-02-03,8:51 PM,30,21.7,3.9,33,30.17,10,WNW,9.2,0,0,None,Overcast
2017-12-25,6:51 PM,30.9,21.7,10,42,30.12,10,West,11.5,17.3,0,None,Clear
2017-02-12,10:08 AM,30,21.7,28.9,96,30.05,2,ENE,9.2,17.3,0.02,Rain,Light Freezing Rain
2017-02-12,9:34 AM,30,21.7,28,92,30.05,2.5,ENE,9.2,18.4,0,Rain,Light Freezing Rain
2017-01-06,1:10 AM,28,21.7,24.1,85,29.98,0.8,West,5.8,0,0.01,Snow,Light Snow
2017-02-14,5:51 AM,28,21.7,17.1,63,29.97,10,NW,5.8,0,0,None,Clear
2017-02-13,9:51 PM,30.9,21.7,19,61,29.96,10,WNW,11.5,20.7,0,None,Clear
2017-02-13,8:51 PM,30.9,21.7,18,59,29.96,10,WNW,11.5,25.3,0,None,Clear
2017-01-31,7:51 AM,28,21.7,12.9,53,29.95,10,South,5.8,0,0,None,Mostly Cloudy
2017-02-12,11:51 AM,30,21.7,28.9,96,29.91,2.5,East,9.2,18.4,0.08,Rain,Light Freezing Rain
2017-03-10,7:51 PM,30.9,21.7,9,40,29.91,10,NW,11.5,23,0,None,Clear
2017-01-05,2:51 AM,30,21.7,10,43,29.81,10,West,9.2,17.3,0,None,Clear
2017-12-10,5:51 AM,30,21.7,21.9,72,29.81,4,West,9.2,0,0,None,Haze
2017-01-31,2:51 PM,30,21.7,26.1,85,29.75,1.5,East,9.2,0,0.01,Snow,Light Snow
2017-12-14,11:20 AM,28,21.7,17.1,63,29.74,7,Variable,5.8,0,0,None,Scattered Clouds
2017-02-09,6:24 AM,30,21.7,28,92,29.6,0.5,NNE,9.2,24.2,0.07,"Fog	",Snow
2017-02-16,8:51 AM,30.9,21.7,15.1,52,29.57,10,West,11.5,26.5,0,None,Overcast
2017-03-14,7:01 PM,30.9,21.7,21.9,69,29.34,10,West,11.5,20.7,0,None,Overcast
2017-03-14,12:16 PM,30.9,21.7,30,96,29.33,0.8,NE,11.5,23,0.07,None,Overcast
2017-01-14,5:51 AM,28.9,21.9,12.9,51,30.69,10,ENE,6.9,0,0,None,Clear
2017-01-14,3:13 PM,28.9,21.9,24.1,82,30.53,0.2,SSE,6.9,0,0,Snow,Heavy Snow
2017-03-06,5:51 AM,26.1,21.9,5,41,30.53,10,NNE,3.5,0,0,None,Clear
2017-02-03,6:51 AM,26.1,21.9,8.1,47,30.23,10,Variable,3.5,0,0,None,Clear
2017-02-03,11:51 AM,28.9,21.9,9,43,30.18,10,WNW,6.9,0,0,None,Clear
2017-12-15,11:51 AM,26.1,21.9,12,55,30.04,10,NW,3.5,0,0,None,Scattered Clouds
2017-01-31,5:51 AM,26.1,21.9,10,51,29.97,10,ENE,3.5,0,0,None,Mostly Cloudy
2017-02-14,4:51 AM,28.9,21.9,17.1,61,29.97,10,WNW,6.9,0,0,None,Clear
2017-01-31,8:28 AM,28.9,21.9,18,64,29.96,10,South,6.9,0,0,None,Mostly Cloudy
2017-12-15,2:51 PM,26.1,21.9,16,66,29.93,2.5,Variable,3.5,0,0,Snow,Light Snow
2017-01-31,12:30 PM,28.9,21.9,23,78,29.85,1.5,Variable,6.9,0,0,Snow,Light Snow
2017-01-31,12:51 PM,28.9,21.9,25,85,29.81,0.5,East,6.9,0,0,"Fog	",Snow
2017-01-31,2:08 PM,28.9,21.9,25,85,29.79,1,ENE,6.9,0,0,Snow,Light Snow
2017-02-09,5:48 AM,30.2,21.9,28.4,93,29.62,1,North,9.2,0,0.08,Snow,Light Snow
2017-03-14,4:09 PM,28.9,21.9,26.1,89,29.2,1,Variable,6.9,21.9,0,None,Overcast
2017-03-14,4:11 PM,28.9,21.9,25,85,29.2,1,Variable,6.9,21.9,0,None,Overcast
2017-03-22,4:51 PM,32,22.1,-2,23,30.23,10,NW,13.8,32.2,0,None,Clear
2017-03-16,11:51 AM,32,22.1,9,38,29.95,10,West,13.8,29.9,0,None,Clear
2017-02-09,5:51 AM,30.9,22.2,28.9,92,29.6,0.8,NNE,10.4,0,0.09,Snow,Light Snow
2017-02-04,11:51 AM,30,22.4,6.1,36,30.36,10,West,8.1,0,0,None,Clear
2017-03-17,6:51 AM,30,22.4,16,56,30.22,10,West,8.1,0,0,None,Clear
2017-02-03,2:51 AM,30,22.4,9,41,30.2,10,NW,8.1,0,0,None,Clear
2017-01-06,6:51 PM,30,22.4,8.1,40,30.19,10,North,8.1,0,0,None,Clear
2017-03-03,4:51 AM,30,22.4,10,43,30.15,10,NW,8.1,23,0,None,Clear
2017-02-10,11:51 PM,30,22.4,17.1,59,30.09,10,SSE,8.1,0,0,None,Overcast
2017-01-06,12:29 AM,30,22.4,19.9,66,29.98,1.8,WSW,8.1,0,0,Snow,Light Snow
2017-12-10,8:51 AM,30,22.4,19.9,66,29.9,5,West,8.1,0,0,None,Haze
2017-02-17,9:51 AM,30,22.4,15.1,54,29.86,10,West,8.1,21.9,0,None,Clear
2017-01-31,3:44 PM,30,22.4,26.1,85,29.78,3,ENE,8.1,0,0,Snow,Light Snow
2017-03-14,4:22 PM,30,22.4,26.1,85,29.21,1.8,NW,8.1,27.6,0,None,Overcast
2017-01-05,6:51 PM,32,22.5,10.9,42,29.95,10,West,12.7,17.3,0,None,Overcast
2017-02-16,10:51 AM,32,22.5,15.1,50,29.59,10,WNW,12.7,24.2,0,None,Scattered Clouds
2017-03-22,10:51 AM,33.1,22.6,7,34,30.11,10,WNW,16.1,31.1,0,None,Clear
2017-03-06,2:51 AM,28,22.8,1,31,30.51,10,Variable,4.6,0,0,None,Clear
2017-03-04,3:51 PM,28.9,22.8,-2.9,25,30.47,10,Variable,5.8,25.3,0,None,Partly Cloudy
2017-03-22,8:51 PM,28,22.8,-5.1,24,30.38,10,Variable,4.6,0,0,None,Clear
2017-02-10,5:51 PM,28.9,22.8,12,49,30.19,10,Variable,5.8,0,0,None,Clear
2017-03-17,4:51 AM,30.9,22.8,15.1,52,30.18,10,WNW,9.2,0,0,None,Clear
2017-02-10,9:41 PM,28,22.8,17.1,63,30.16,1.8,Variable,4.6,19.6,0,Snow,Light Snow
2017-03-17,3:51 AM,30.9,22.8,16,54,30.16,10,WNW,9.2,17.3,0,None,Clear
2017-01-06,5:51 PM,30.9,22.8,9,40,30.16,10,NW,9.2,0,0,None,Clear
2017-02-03,7:51 PM,30.9,22.8,10.9,43,30.15,10,West,9.2,0,0,None,Overcast
2017-01-06,7:41 AM,28,22.8,23,81,30.03,4,Variable,4.6,0,0.01,Snow,Light Snow
2017-01-06,7:51 AM,28,22.8,21.9,78,30.01,5,Variable,4.6,0,0.01,None,Haze
2017-01-06,2:13 AM,28,22.8,24.1,85,29.99,1,WNW,4.6,0,0.01,Snow,Light Snow
2017-02-14,7:51 AM,28.9,22.8,17.1,61,29.99,10,WNW,5.8,0,0,None,Clear
2017-01-06,12:37 AM,28.9,22.8,21.9,75,29.98,0.8,West,5.8,0,0,Snow,Light Snow
2017-01-06,1:31 AM,28,22.8,24.1,85,29.97,1.2,West,4.6,0,0.02,Snow,Light Snow
2017-01-06,12:51 AM,28,22.8,24.1,85,29.97,0.5,West,4.6,0,0,"Fog	",Snow
2017-01-30,10:51 PM,30.9,22.8,8.1,38,29.97,10,NW,9.2,0,0,None,Overcast
2017-01-31,10:11 AM,28.9,22.8,18,64,29.96,1.8,Variable,5.8,0,0,Snow,Light Snow
2017-12-14,4:51 PM,28,22.8,9,45,29.93,10,Variable,4.6,0,0,None,Clear
2017-01-05,1:51 PM,30.9,22.8,8.1,38,29.93,10,West,9.2,0,0,None,Clear
2017-01-05,12:51 PM,30.9,22.8,8.1,38,29.93,10,WNW,9.2,0,0,None,Clear
2017-01-31,10:51 AM,28,22.8,23,81,29.92,0.5,Variable,4.6,0,0.01,Snow,Snow
2017-01-31,11:57 AM,28,22.8,23,81,29.88,2,Variable,4.6,0,0,Snow,Light Snow
2017-12-14,2:51 PM,30.9,22.8,10.9,43,29.85,10,WNW,9.2,20.7,0,None,Partly Cloudy
2017-02-17,1:51 AM,28,22.8,12.9,53,29.81,10,Variable,4.6,0,0,None,Clear
2017-12-13,4:51 PM,28.9,22.8,8.1,41,29.62,10,West,5.8,18.4,0,None,Clear
2017-02-09,5:24 AM,30.9,22.8,28.9,92,29.6,0.8,NE,9.2,24.2,0.03,Snow,Light Snow
2017-02-16,9:51 AM,30.9,22.8,16,54,29.58,10,NW,9.2,23,0,None,Overcast
2017-02-16,7:51 AM,30.9,22.8,17.1,57,29.55,10,WNW,9.2,20.7,0,None,Overcast
2017-01-10,8:51 AM,27,23,12.9,56,30.63,10,Variable,3.5,0,0,None,Clear
2017-03-06,3:51 AM,27,23,1.9,34,30.53,10,NNE,3.5,0,0,None,Clear
2017-03-06,4:51 AM,27,23,5,39,30.53,10,Variable,3.5,0,0,None,Clear
2017-03-13,11:51 AM,27,23,5,39,30.49,10,Variable,3.5,0,0,None,Clear
2017-12-26,1:51 PM,27,23,1.9,34,30.36,10,Variable,3.5,0,0,None,Clear
2017-03-13,10:51 PM,32,23,19.9,61,30.29,10,East,11.5,0,0,None,Overcast
2017-03-17,2:51 AM,32,23,15.1,50,30.15,10,West,11.5,0,0,None,Clear
2017-03-11,2:51 PM,27,23,3.9,37,30.12,10,Variable,3.5,21.9,0,None,Overcast
2017-12-15,12:51 PM,27,23,12,53,29.99,10,West,3.5,0,0,None,Overcast
2017-12-25,1:51 PM,34,23,10.9,38,29.9,10,West,18.4,32.2,0,None,Mostly Cloudy
2017-02-13,5:51 AM,34,23,21,59,29.7,10,WNW,18.4,31.1,0,None,Overcast
2017-12-13,9:51 PM,27,23,7,43,29.67,10,Variable,3.5,0,0,None,Scattered Clouds
2017-02-09,4:37 AM,32,23,28.9,88,29.64,0.5,NNE,11.5,19.6,0.05,"Fog	",Snow
2017-12-14,7:06 AM,27,23,25,92,29.59,1.2,NNE,3.5,0,0.01,Snow,Light Snow
2017-12-14,6:58 AM,27,23,25,92,29.59,0.8,Variable,3.5,0,0,Snow,Light Snow
2017-12-14,7:51 AM,27,23,25,92,29.59,1,Variable,3.5,0,0.02,Snow,Light Snow
2017-02-09,4:51 AM,32,23,30,92,29.59,0.5,NE,11.5,24.2,0.09,"Fog	",Snow
2017-02-16,5:51 AM,32,23,17.1,54,29.5,10,West,11.5,27.6,0,None,Overcast
2017-03-03,7:51 AM,30,23.2,10.9,45,30.22,10,Variable,6.9,18.4,0,None,Clear
2017-02-10,4:51 PM,30,23.2,12,47,30.2,10,Variable,6.9,0,0,None,Clear
2017-03-03,6:51 AM,30,23.2,10.9,45,30.2,10,West,6.9,0,0,None,Clear
2017-12-25,7:51 PM,30,23.2,10,43,30.15,10,Variable,6.9,19.6,0,None,Scattered Clouds
2017-02-14,12:51 AM,30,23.2,17.1,59,29.96,10,Variable,6.9,17.3,0,None,Clear
2017-12-10,6:51 AM,30,23.2,19.9,66,29.84,5,West,6.9,0,0,None,Haze
2017-12-10,4:51 AM,30,23.2,25,82,29.78,4,WNW,6.9,0,0,None,Haze
2017-01-31,3:01 PM,30,23.2,26.1,85,29.77,2.5,East,6.9,0,0,Snow,Light Snow
2017-01-31,3:29 PM,30,23.2,27,88,29.77,3,ENE,6.9,0,0,Snow,Light Snow
2017-01-31,3:51 PM,30,23.2,26.1,85,29.76,4,ENE,6.9,0,0,None,Overcast
2017-12-09,11:51 PM,30,23.2,28.9,96,29.73,3,Variable,6.9,0,0,None,Scattered Clouds
2017-03-22,11:51 AM,33.1,23.4,3.9,29,30.15,10,NW,13.8,32.2,0,None,Clear
2017-02-13,7:51 AM,34,23.4,19.9,56,29.71,10,WNW,17.3,35.7,0,None,Partly Cloudy
2017-01-10,10:51 AM,30.9,23.5,10,42,30.61,10,South,8.1,0,0,None,Clear
2017-03-13,6:51 PM,30.9,23.5,10,42,30.35,10,SSE,8.1,0,0,None,Clear
2017-03-03,7:51 PM,30.9,23.5,14,50,30.34,10,WNW,8.1,23,0,None,Mostly Cloudy
2017-03-17,8:51 AM,30.9,23.5,16,54,30.27,10,West,8.1,0,0,None,Clear
2017-03-03,9:51 AM,30.9,23.5,9,40,30.23,10,WNW,8.1,17.3,0,None,Partly Cloudy
2017-03-14,1:38 AM,30.9,23.5,23,72,30.22,2.5,ENE,8.1,0,0,Snow,Light Snow
2017-03-14,12:51 AM,30.9,23.5,21.9,69,30.22,10,NE,8.1,0,0,None,Overcast
2017-02-10,3:51 PM,30.9,23.5,9,40,30.2,10,West,8.1,17.3,0,None,Clear
2017-02-03,12:51 PM,30.9,23.5,10,42,30.14,10,WNW,8.1,0,0,None,Clear
2017-02-12,7:17 AM,30.9,23.5,28,89,30.09,8,East,8.1,0,0,None,Overcast
2017-01-05,11:51 PM,30.9,23.5,15.1,52,29.95,10,West,8.1,0,0,None,Overcast
2017-02-12,1:09 PM,30.9,23.5,30,96,29.87,4,ENE,8.1,0,0.01,Rain,Light Freezing Rain
2017-12-14,1:51 PM,30.9,23.5,14,50,29.8,10,West,8.1,23,0,None,Partly Cloudy
2017-12-09,4:27 PM,30.9,23.5,30,96,29.76,1.2,North,8.1,0,0.04,Snow,Light Snow
2017-02-16,6:51 AM,30.9,23.5,17.1,57,29.53,10,WNW,8.1,23,0,None,Mostly Cloudy
2017-02-05,12:51 AM,32,23.6,8.1,37,30.24,10,WSW,10.4,19.6,0,None,Clear
2017-03-22,1:51 PM,32,23.6,-2.9,22,30.19,10,NW,10.4,29.9,0,None,Clear
2017-02-03,4:51 PM,32,23.6,10,40,30.09,10,West,10.4,0,0,None,Mostly Cloudy
2017-02-12,6:51 AM,32,23.6,27,82,30.07,8,East,10.4,0,0.02,Rain,Light Freezing Rain
2017-02-16,5:51 PM,32,23.6,12.9,45,29.68,10,WNW,10.4,23,0,None,Clear
2017-03-18,8:12 PM,34,23.8,32,92,30.19,10,ENE,16.1,24.2,0,None,Overcast
2017-01-14,8:51 AM,28.9,23.9,12,49,30.68,10,Variable,4.6,0,0,None,Clear
2017-01-14,3:36 PM,28.9,23.9,25,85,30.52,0.2,Variable,4.6,0,0.02,"Fog	",Snow
2017-01-06,7:51 PM,28.9,23.9,9,43,30.21,10,Variable,4.6,0,0,None,Clear
2017-02-14,3:51 AM,28.9,23.9,17.1,61,29.96,10,Variable,4.6,0,0,None,Clear
2017-01-23,10:48 PM,35.6,24,35.6,100,29.53,2.5,NE,23,35.7,0.16,Rain,Rain
2017-01-15,5:51 AM,30,24.1,24.1,79,30.28,10,WNW,5.8,0,0,None,Clear
2017-03-17,5:51 AM,30,24.1,16,56,30.2,10,Variable,5.8,0,0,None,Clear
2017-02-03,1:51 AM,30,24.1,10,43,30.2,10,WNW,5.8,0,0,None,Clear
2017-01-30,11:51 PM,30,24.1,7,38,29.96,10,WNW,5.8,0,0,None,Scattered Clouds
2017-01-31,2:25 PM,30,24.1,26.1,85,29.78,0.8,Variable,5.8,0,0.01,Snow,Light Snow
2017-01-14,1:51 AM,32,24.2,16,52,30.7,10,NNW,9.2,0,0,None,Clear
2017-01-15,12:32 AM,32,24.2,28,85,30.32,8,WNW,9.2,0,0,None,Overcast
2017-02-04,7:51 PM,32,24.2,7,35,30.3,10,WSW,9.2,0,0,None,Clear
2017-02-04,8:51 PM,32,24.2,7,35,30.29,10,West,9.2,0,0,None,Clear
2017-02-04,11:51 PM,32,24.2,8.1,37,30.26,10,WSW,9.2,0,0,None,Clear
2017-03-22,3:51 PM,32,24.2,-5.1,20,30.22,10,WNW,9.2,34.5,0,None,Clear
2017-03-18,6:36 PM,34,24.2,32,92,30.18,1.5,ENE,15,19.6,0.02,Snow,Light Snow
2017-02-03,6:51 PM,32,24.2,10,40,30.13,10,NW,9.2,0,0,None,Overcast
2017-02-12,7:02 AM,32,24.2,28,85,30.08,8,ENE,9.2,0,0,None,Overcast
2017-01-06,7:31 AM,28,24.2,21.9,78,30.02,2.5,NE,3.5,0,0.01,Snow,Light Snow
2017-01-31,2:51 AM,28,24.2,9,45,30.01,10,Variable,3.5,0,0,None,Mostly Cloudy
2017-01-05,7:51 PM,32,24.2,12,44,29.97,10,West,9.2,17.3,0,None,Mostly Cloudy
2017-12-25,3:51 PM,34,24.2,10.9,38,29.97,10,West,15,23,0,None,Partly Cloudy
2017-01-06,1:51 AM,28,24.2,24.1,85,29.96,1,West,3.5,0,0.02,Snow,Light Snow
2017-02-13,7:51 PM,32,24.2,17.1,54,29.96,10,NW,9.2,19.6,0,None,Clear
2017-01-06,4:51 AM,28,24.2,23,81,29.94,6,Variable,3.5,0,0,None,Haze
2017-01-31,11:51 AM,28,24.2,23,81,29.87,0.8,Variable,3.5,0,0.02,Snow,Light Snow
2017-03-10,12:20 PM,32,24.2,30.9,96,29.85,0.8,North,9.2,0,0.02,Snow,Light Snow
2017-02-12,2:51 PM,32,24.2,32,100,29.75,5,ENE,9.2,0,0.01,None,Overcast
2017-02-16,2:51 PM,34,24.2,12.9,42,29.6,10,NW,15,28.8,0,None,Scattered Clouds
2017-02-16,3:51 AM,32,24.2,18,56,29.47,10,WNW,9.2,24.2,0,None,Overcast
2017-02-16,2:51 AM,32,24.2,19,59,29.46,10,WNW,9.2,20.7,0,None,Clear
2017-12-12,10:51 PM,32,24.2,15.1,50,29.44,10,WNW,9.2,25.3,0,None,Mostly Cloudy
2017-01-14,2:51 AM,30.9,24.3,14,50,30.7,10,NE,6.9,0,0,None,Clear
2017-01-15,4:51 AM,30.9,24.3,25,79,30.27,10,NW,6.9,0,0,None,Partly Cloudy
2017-03-13,11:51 PM,30.9,24.3,21.9,69,30.26,10,Variable,6.9,0,0,None,Overcast
2017-03-03,8:51 AM,30.9,24.3,10.9,43,30.23,10,WNW,6.9,0,0,None,Clear
2017-02-10,12:51 PM,30.9,24.3,8.1,38,30.21,10,West,6.9,21.9,0,None,Clear
2017-02-10,1:51 PM,30.9,24.3,9,40,30.19,10,Variable,6.9,0,0,None,Clear
2017-03-03,3:51 AM,30.9,24.3,10,42,30.14,10,WNW,6.9,0,0,None,Clear
2017-02-12,7:51 AM,30.9,24.3,28,89,30.07,5,East,6.9,0,0.01,Rain,Light Freezing Rain
2017-01-06,10:51 AM,30.9,24.3,16,54,30.06,10,Variable,6.9,0,0,None,Clear
2017-01-05,5:51 PM,30.9,24.3,10,42,29.95,10,Variable,6.9,17.3,0,None,Scattered Clouds
2017-12-09,3:05 PM,30.9,24.3,30,96,29.79,0.5,Variable,6.9,0,0.01,"Fog	",Snow
2017-12-09,3:10 PM,30.9,24.3,30,96,29.78,0.5,NE,6.9,0,0.02,"Fog	",Snow
2017-01-31,2:48 PM,30.2,24.3,26.6,86,29.77,1.5,Variable,5.8,0,0.01,Snow,Light Snow
2017-12-09,2:51 PM,30.9,24.3,30,96,29.77,0.8,Variable,6.9,0,0.03,Snow,Light Snow
2017-12-14,12:51 PM,30.9,24.3,15.1,52,29.76,10,Variable,6.9,21.9,0,None,Clear
2017-12-09,9:30 PM,30.9,24.3,28.9,92,29.74,0.8,WNW,6.9,0,0.01,Snow,Light Snow
2017-12-09,4:51 PM,30.9,24.3,30,96,29.73,1.2,Variable,6.9,0,0.04,Snow,Light Snow
2017-11-10,3:51 PM,33.1,24.4,7,34,30.31,10,NNW,11.5,20.7,0,None,Clear
2017-02-16,1:51 AM,33.1,24.4,21.9,64,29.47,10,WNW,11.5,23,0,None,Clear
2017-03-18,6:58 PM,34,24.6,33.1,96,30.18,2.5,ENE,13.8,21.9,0,Snow,Light Snow
2017-03-18,7:05 PM,34,24.6,32,92,30.18,3,ENE,13.8,23,0.01,Snow,Light Snow
2017-03-18,6:51 PM,34,24.6,32,92,30.16,1.8,ENE,13.8,20.7,0.03,Snow,Light Snow
2017-02-16,3:51 PM,34,24.6,14,44,29.62,10,NW,13.8,23,0,None,Clear
2017-01-13,10:51 PM,32,24.8,12.9,45,30.68,10,North,8.1,0,0,None,Clear
2017-01-14,10:51 AM,32,24.8,15.1,50,30.64,10,ENE,8.1,0,0,None,Clear
2017-01-15,12:51 AM,32,24.8,28,85,30.3,8,WNW,8.1,0,0,None,Overcast
2017-03-17,9:51 AM,32,24.8,15.1,50,30.28,10,West,8.1,0,0,None,Clear
2017-01-06,3:51 PM,32,24.8,10,40,30.08,10,NW,8.1,0,0,None,Overcast
2017-12-25,5:51 PM,32,24.8,10,40,30.07,10,West,8.1,25.3,0,None,Clear
2017-01-05,8:51 PM,32,24.8,12,44,29.97,10,West,8.1,0,0,None,Overcast
2017-03-10,6:51 PM,32,24.8,10.9,42,29.89,10,NW,8.1,21.9,0,None,Partly Cloudy
2017-02-13,4:51 PM,35.1,24.8,18,50,29.88,10,WNW,17.3,26.5,0,None,Scattered Clouds
2017-03-10,12:59 PM,32,24.8,30.9,96,29.83,1.8,North,8.1,0,0,Snow,Light Snow
2017-03-10,1:26 PM,32,24.8,30,92,29.82,1.8,North,8.1,0,0,Snow,Light Snow
2017-02-12,1:51 PM,32,24.8,30.9,96,29.79,4,East,8.1,0,0.03,Rain,Light Freezing Rain
2017-02-05,6:51 AM,33.1,24.9,18,54,30.09,10,WSW,10.4,0,0,None,Clear
2017-12-25,4:51 PM,33.1,24.9,12,42,30.03,10,West,10.4,23,0,None,Mostly Cloudy
2017-12-11,7:51 AM,33.1,24.9,25,72,30.02,10,West,10.4,21.9,0,None,Overcast
2017-02-09,4:22 AM,33.1,24.9,28.9,85,29.62,0.8,NE,10.4,16.1,0.02,Snow,Light Snow
2017-03-19,6:51 AM,34,25,25,70,30.17,10,NE,12.7,20.7,0,None,Mostly Cloudy
2017-03-22,12:51 PM,34,25,1.9,26,30.17,10,NNW,12.7,29.9,0,None,Clear
2017-02-12,3:51 AM,34,25,25,70,30.1,10,ENE,12.7,19.6,0,None,Overcast
2017-02-13,5:51 PM,34,25,18,52,29.92,10,NW,12.7,23,0,None,Clear
2017-12-25,12:51 PM,34,25,14,44,29.88,10,West,12.7,26.5,0,None,Overcast
2017-12-25,9:51 AM,36,25,21,55,29.79,10,West,20.7,34.5,0,None,Clear
2017-02-13,6:41 AM,34,25,19.9,56,29.72,10,WNW,12.7,35.7,0,None,Overcast
2017-02-13,6:51 AM,34,25,19.9,56,29.7,10,WNW,12.7,27.6,0,None,Mostly Cloudy
2017-04-01,12:51 AM,37,25.1,35.1,93,29.68,7,East,26.5,38,0.01,None,Overcast
2017-01-10,9:51 AM,28.9,25.2,12.9,51,30.63,10,SSE,3.5,0,0,None,Clear
2017-11-11,9:51 AM,28.9,25.2,9,43,30.57,10,Variable,3.5,0,0,None,Clear
2017-03-05,11:51 PM,28.9,25.2,-2,26,30.54,10,Variable,3.5,0,0,None,Clear
2017-01-14,4:10 PM,28.9,25.2,26.1,89,30.51,0.5,Variable,3.5,0,0.01,"Fog	",Snow
2017-01-14,3:51 PM,28.9,25.2,26.1,89,30.49,0.2,Variable,3.5,0,0.03,"Fog	",Snow
2017-01-16,5:51 AM,30,25.2,17.1,59,30.44,10,NNE,4.6,0,0,None,Clear
2017-01-16,4:51 AM,30,25.2,16,56,30.43,10,NNE,4.6,0,0,None,Clear
2017-01-15,7:51 AM,30,25.2,21,69,30.34,10,Variable,4.6,0,0,None,Clear
2017-01-14,10:51 PM,30.9,25.2,28,89,30.34,7,West,5.8,0,0,None,Overcast
2017-01-15,3:51 AM,30.9,25.2,26.1,82,30.27,9,WNW,5.8,0,0,None,Scattered Clouds
2017-03-17,7:51 AM,30,25.2,16,56,30.25,10,Variable,4.6,0,0,None,Clear
2017-02-10,10:51 PM,28.9,25.2,17.1,61,30.14,10,Variable,3.5,0,0,None,Overcast
2017-02-12,8:51 AM,30.9,25.2,27,85,30.05,7,East,5.8,19.6,0,None,Overcast
2017-02-13,11:51 PM,30.9,25.2,18,59,29.98,10,Variable,5.8,0,0,None,Overcast
2017-02-14,1:51 AM,30,25.2,17.1,59,29.97,10,Variable,4.6,0,0,None,Mostly Cloudy
2017-01-31,1:51 AM,28.9,25.2,7,40,29.96,10,Variable,3.5,0,0,None,Partly Cloudy
2017-01-31,8:37 AM,28.9,25.2,17.1,61,29.96,10,Variable,3.5,0,0,None,Mostly Cloudy
2017-01-31,12:04 PM,28.9,25.2,23,78,29.88,7,Variable,3.5,0,0,None,Overcast
2017-01-31,12:40 PM,28.9,25.2,24.1,82,29.84,0.5,Variable,3.5,0,0,Snow,Snow
2017-12-09,1:14 PM,30.9,25.2,30,96,29.83,0.2,NE,5.8,0,0.02,"Fog	",Snow
2017-01-31,2:19 PM,30,25.2,26.1,85,29.79,1.5,ENE,4.6,0,0,Snow,Light Snow
2017-12-09,3:34 PM,30.9,25.2,30,96,29.79,0.2,Variable,5.8,0,0.05,"Fog	",Snow
2017-01-31,4:51 PM,30.9,25.2,26.1,82,29.79,7,ENE,5.8,0,0,None,Overcast
2017-01-31,4:02 PM,30,25.2,26.1,85,29.78,6,ENE,4.6,0,0,None,Overcast
2017-12-10,3:51 AM,30.9,25.2,26.1,82,29.75,3,Variable,5.8,0,0,None,Haze
2017-12-09,7:42 PM,30.9,25.2,30,96,29.74,0.8,NNW,5.8,0,0.04,Snow,Light Snow
2017-12-09,9:51 PM,30.9,25.2,28.9,92,29.73,1,Variable,5.8,0,0.01,Snow,Light Snow
2017-12-10,1:51 AM,30.9,25.2,28.9,92,29.73,4,West,5.8,0,0,None,Overcast
2017-12-09,5:51 PM,30.9,25.2,30,96,29.72,1.2,NNW,5.8,0,0.03,Snow,Light Snow
2017-02-16,6:51 PM,30.9,25.2,14,50,29.71,10,Variable,5.8,20.7,0,None,Clear
2017-01-23,6:51 PM,36,25.3,34,93,29.65,4,NE,19.6,29.9,0.18,Rain,Rain
2017-01-23,10:51 PM,36,25.3,35.1,97,29.51,2.5,ENE,19.6,35.7,0.18,Rain,Rain
2017-12-09,9:48 PM,30.2,25.4,30.2,100,29.75,1,Variable,4.6,0,0.01,Snow,Light Snow
2017-03-18,7:51 PM,34,25.5,32,92,30.17,10,ENE,11.5,0,0.01,None,Overcast
2017-03-19,5:51 AM,34,25.5,25,70,30.16,10,NE,11.5,16.1,0,None,Overcast
2017-02-12,5:51 AM,33.1,25.5,27,78,30.1,8,ESE,9.2,0,0.01,None,Overcast
2017-03-10,7:22 AM,33.1,25.5,30.9,92,29.91,0.2,NNE,9.2,0,0.01,"Fog	",Snow
2017-03-10,5:51 PM,34,25.5,15.1,46,29.85,10,NW,11.5,19.6,0,None,Mostly Cloudy
2017-02-13,8:51 AM,34,25.5,21.9,61,29.73,10,WNW,11.5,28.8,0,None,Overcast
2017-02-16,4:51 PM,33.1,25.5,14,46,29.65,10,WNW,9.2,24.2,0,None,Partly Cloudy
2017-01-24,8:51 AM,35.1,25.5,35.1,100,29.36,4,NNE,15,27.6,0,None,Overcast
2017-03-05,12:51 PM,32,25.6,-13,14,30.57,10,Variable,6.9,20.7,0,None,Clear
2017-01-14,11:51 PM,32,25.6,28,85,30.31,8,West,6.9,0,0,None,Overcast
2017-03-03,2:51 AM,32,25.6,10,40,30.12,10,NW,6.9,17.3,0,None,Clear
2017-01-30,7:51 PM,32,25.6,9,38,29.91,10,NW,6.9,0,0,None,Clear
2017-03-10,8:51 AM,32,25.6,30.9,96,29.86,0.2,East,6.9,0,0.04,"Fog	",Snow
2017-03-10,9:51 AM,32,25.6,30.9,96,29.86,0.2,Variable,6.9,0,0.08,"Fog	",Snow
2017-03-10,11:51 AM,32,25.6,30.9,96,29.84,0.2,Variable,6.9,0,0.05,"Fog	",Snow
2017-03-10,1:04 PM,32,25.6,30,92,29.83,2,North,6.9,19.6,0,Snow,Light Snow
2017-03-10,1:39 PM,32,25.6,28.9,88,29.82,2,Variable,6.9,0,0,Snow,Light Snow
2017-03-10,12:51 PM,32,25.6,30,92,29.81,1.5,Variable,6.9,0,0.03,Snow,Light Snow
2017-02-12,2:00 PM,32,25.6,30.9,96,29.81,6,ENE,6.9,0,0,None,Overcast
2017-12-09,2:04 PM,32,25.6,30,92,29.79,0.5,Variable,6.9,0,0.01,"Fog	",Snow
2017-12-09,1:51 PM,32,25.6,30,92,29.78,0.2,NE,6.9,0,0.06,"Fog	",Snow
2017-01-30,7:51 AM,32,25.6,12.9,45,29.76,10,Variable,6.9,16.1,0,None,Overcast
2017-01-30,5:51 AM,32,25.6,17.1,54,29.75,10,NE,6.9,0,0,None,Clear
2017-02-13,9:51 AM,36,25.6,21,55,29.74,10,NW,18.4,34.5,0,None,Mostly Cloudy
2017-02-16,4:51 AM,32,25.6,19,59,29.49,10,West,6.9,20.7,0,None,Overcast
2017-03-18,12:25 PM,35.1,25.9,26.1,70,30.2,3,ENE,13.8,20.7,0,Snow,Light Snow
2017-03-22,9:51 AM,35.1,25.9,12.9,40,30.06,10,NW,13.8,31.1,0,None,Unknown
2017-12-25,11:51 AM,35.1,25.9,16,46,29.85,10,WNW,13.8,31.1,0,None,Mostly Cloudy
2017-01-28,4:51 AM,35.1,25.9,19,52,29.63,10,WSW,13.8,24.2,0,None,Mostly Cloudy
2017-01-24,7:51 AM,35.1,25.9,35.1,100,29.35,5,NNE,13.8,25.3,0,None,Overcast
2017-03-18,12:12 PM,34,26,26.1,73,30.21,1.8,ENE,10.4,19.6,0,Snow,Light Snow
2017-03-19,5:58 AM,34,26,25,70,30.18,10,NNE,10.4,17.3,0,None,Overcast
2017-03-19,7:51 AM,34,26,25,70,30.17,10,NNE,10.4,18.4,0,None,Clear
2017-03-03,12:51 AM,34,26,10.9,38,30.11,10,NW,10.4,18.4,0,None,Clear
2017-02-13,12:51 PM,36,26,19.9,52,29.79,10,NW,17.3,36.8,0,None,Overcast
2017-01-23,7:51 PM,36,26,34,93,29.62,4,NE,17.3,27.6,0.17,Rain,Light Rain
2017-01-23,8:51 PM,36,26,34,93,29.6,3,NE,17.3,31.1,0.12,Rain,Rain
2017-01-23,9:51 PM,36,26,35.1,97,29.56,3,ENE,17.3,25.3,0.17,Rain,Rain
2017-01-10,11:51 AM,33.1,26.1,14,46,30.56,10,SSE,8.1,0,0,None,Clear
2017-02-04,6:51 PM,33.1,26.1,6.1,32,30.3,10,WSW,8.1,17.3,0,None,Clear
2017-03-20,6:51 AM,33.1,26.1,15.1,48,30.14,10,North,8.1,0,0,None,Clear
2017-03-16,11:51 PM,33.1,26.1,10.9,40,30.12,10,NW,8.1,0,0,None,Scattered Clouds
2017-02-12,4:51 AM,33.1,26.1,27,78,30.1,7,ENE,8.1,0,0.01,None,Overcast
2017-11-23,2:51 AM,33.1,26.1,19,56,30.09,10,NW,8.1,0,0,None,Clear
2017-12-21,4:51 AM,33.1,26.1,16,50,30.09,10,NW,8.1,0,0,None,Clear
2017-12-21,2:51 AM,33.1,26.1,17.1,52,30.07,10,WNW,8.1,0,0,None,Clear
2017-02-14,11:51 AM,33.1,26.1,19,56,29.9,10,West,8.1,0,0,None,Clear
2017-02-12,4:13 PM,33.1,26.1,33.1,100,29.72,3,ENE,8.1,0,0.01,None,Overcast
2017-03-23,10:51 AM,30.9,26.2,1,28,30.61,10,Variable,4.6,0,0,None,Clear
2017-01-16,3:51 AM,30.9,26.2,17.1,57,30.45,10,Variable,4.6,0,0,None,Clear
2017-01-14,5:51 PM,30.9,26.2,28,89,30.44,2,WNW,4.6,0,0.02,Snow,Light Snow
2017-01-14,10:16 PM,30.9,26.2,28,89,30.37,4,West,4.6,0,0,None,Overcast
2017-01-14,9:51 PM,30.9,26.2,28.9,92,30.36,2,WNW,4.6,0,0,Snow,Light Snow
2017-01-06,11:51 AM,30.9,26.2,15.1,52,30.04,10,Variable,4.6,0,0,None,Clear
2017-02-13,10:51 PM,30.9,26.2,19,61,29.97,10,Variable,4.6,0,0,None,Scattered Clouds
2017-12-09,10:13 AM,30.9,26.2,26.1,82,29.96,0.8,NNE,4.6,0,0.01,Snow,Light Snow
2017-12-09,10:51 AM,30.9,26.2,28,89,29.92,0.5,NNE,4.6,0,0.03,"Fog	",Snow
2017-12-09,11:12 AM,30.9,26.2,28.9,92,29.92,0.5,Variable,4.6,0,0.01,"Fog	",Snow
2017-12-09,12:00 PM,30.9,26.2,30,96,29.87,0.2,ENE,4.6,0,0.01,"Fog	",Snow
2017-12-09,11:51 AM,30.9,26.2,30,96,29.87,0.2,NE,4.6,0,0.05,"Fog	",Snow
2017-01-31,7:51 PM,30.9,26.2,27,85,29.83,9,NE,4.6,0,0,None,Mostly Cloudy
2017-01-31,5:51 PM,30.9,26.2,27,85,29.81,10,Variable,4.6,0,0,None,Overcast
2017-01-05,1:51 AM,30.9,26.2,10,42,29.78,10,Variable,4.6,21.9,0,None,Clear
2017-12-10,1:30 AM,30.9,26.2,28.9,92,29.75,3,Variable,4.6,0,0,None,Overcast
2017-12-10,1:19 AM,30.9,26.2,28.9,92,29.75,3,West,4.6,0,0,None,Overcast
2017-12-09,3:51 PM,30.9,26.2,30,96,29.74,0.2,Variable,4.6,0,0.06,"Fog	",Snow
2017-12-09,7:51 PM,30.9,26.2,30,96,29.73,0.8,Variable,4.6,0,0.05,Snow,Light Snow
2017-12-10,12:51 AM,30.9,26.2,28,89,29.73,3,Variable,4.6,0,0,None,Overcast
2017-01-23,11:17 PM,36,26.3,35.1,97,29.51,2.5,ENE,16.1,36.8,0.09,Rain,Rain
2017-01-23,11:51 PM,36,26.3,35.1,97,29.46,3,ENE,16.1,31.1,0.18,Rain,Rain
2017-01-13,11:51 PM,32,26.4,14,48,30.69,10,NE,5.8,0,0,None,Clear
2017-03-05,7:51 PM,32,26.4,-2,23,30.53,10,Variable,5.8,0,0,None,Clear
2017-02-04,9:51 PM,32,26.4,7,35,30.29,10,Variable,5.8,0,0,None,Clear
2017-01-15,1:51 AM,32,26.4,27,82,30.28,10,Variable,5.8,0,0,None,Mostly Cloudy
2017-03-18,11:51 AM,35.1,26.4,25,67,30.19,9,ENE,12.7,19.6,0,None,Overcast
2017-02-12,6:13 AM,32,26.4,28,85,30.12,6,Variable,5.8,0,0.01,Rain,Light Freezing Rain
2017-01-06,4:51 PM,32,26.4,10,40,30.12,10,WNW,5.8,0,0,None,Mostly Cloudy
2017-02-03,5:51 PM,32,26.4,9,38,30.11,10,WNW,5.8,0,0,None,Overcast
2017-12-16,10:51 AM,32,26.4,19,59,30.04,10,Variable,5.8,16.1,0,None,Overcast
2017-01-05,9:51 PM,32,26.4,12,44,29.96,10,WSW,5.8,17.3,0,None,Overcast
2017-12-09,9:51 AM,32,26.4,24.1,73,29.94,1.2,Variable,5.8,0,0,Snow,Light Snow
2017-02-14,10:51 AM,32,26.4,19,59,29.94,10,West,5.8,0,0,None,Clear
2017-03-10,12:31 PM,32,26.4,30.9,96,29.84,1,Variable,5.8,0,0.03,Snow,Light Snow
2017-03-10,10:51 AM,32,26.4,30.9,96,29.84,0.2,Variable,5.8,0,0.07,"Fog	",Snow
2017-02-12,1:46 PM,32,26.4,30.2,93,29.82,5,Variable,5.8,0,0.03,None,Overcast
2017-12-09,2:19 PM,32,26.4,30,92,29.79,0.8,NE,5.8,0,0.02,Snow,Light Snow
2017-03-31,11:51 PM,37,26.4,36,96,29.7,4,ENE,20.7,32.2,0.03,Rain,Light Rain
2017-01-14,4:51 AM,30,26.5,14,51,30.69,10,Variable,3.5,0,0,None,Clear
2017-03-05,9:51 PM,30,26.5,-2.9,24,30.54,10,Variable,3.5,0,0,None,Clear
2017-01-14,3:04 PM,30,26.5,21.9,72,30.53,1.8,Variable,3.5,0,0,Snow,Light Snow
2017-01-14,5:54 PM,30,26.5,28,92,30.46,1.8,Variable,3.5,0,0,Snow,Light Snow
2017-01-16,6:51 AM,30,26.5,19,64,30.45,10,NNE,3.5,0,0,None,Clear
2017-01-31,8:51 AM,30,26.5,17.1,59,29.94,10,Variable,3.5,0,0,None,Overcast
2017-01-13,8:51 PM,34,26.6,15.1,46,30.66,10,NNW,9.2,0,0,None,Clear
2017-02-04,3:51 PM,34,26.6,5,30,30.29,10,WSW,9.2,17.3,0,None,Clear
2017-03-18,6:10 PM,34,26.6,32,92,30.19,2,East,9.2,18.4,0,None,Overcast
2017-03-19,3:25 AM,34,26.6,26.1,73,30.17,10,ENE,9.2,0,0,None,Overcast
2017-11-23,12:51 AM,34,26.6,19,54,30.08,10,NW,9.2,19.6,0,None,Clear
2017-02-05,7:51 AM,34,26.6,18,52,30.06,10,SW,9.2,20.7,0,None,Mostly Cloudy
2017-02-05,9:51 AM,34,26.6,18,52,30.01,10,WSW,9.2,0,0,None,Overcast
2017-03-16,12:51 PM,34,26.6,10,37,29.96,10,WNW,9.2,21.9,0,None,Clear
2017-01-30,10:51 AM,34,26.6,10,37,29.8,10,NW,9.2,17.3,0,None,Overcast
2017-01-30,11:51 AM,34,26.6,9,35,29.79,10,WNW,9.2,17.3,0,None,Mostly Cloudy
2017-02-12,4:20 PM,34,26.6,33.1,96,29.71,2,ENE,9.2,0,0.02,None,Overcast
2017-02-13,2:24 AM,35.6,26.6,33.8,93,29.63,7,West,13.8,27.6,0,Rain,Light Rain
2017-11-10,9:51 AM,36,26.7,15.1,43,30.2,10,WNW,15,28.8,0,None,Partly Cloudy
2017-03-22,8:51 AM,36,26.7,12.9,39,30.03,10,NW,15,29.9,0,None,Clear
2017-02-13,10:51 AM,36,26.7,21.9,57,29.76,10,WNW,15,27.6,0,None,Overcast
2017-01-13,9:51 PM,33.1,26.9,14,46,30.68,10,Variable,6.9,17.3,0,None,Clear
2017-03-05,5:51 PM,33.1,26.9,-2.9,21,30.51,10,ENE,6.9,0,0,None,Clear
2017-02-04,5:51 PM,33.1,26.9,6.1,32,30.3,10,West,6.9,0,0,None,Clear
2017-02-04,4:51 PM,33.1,26.9,3.9,29,30.29,10,West,6.9,18.4,0,None,Clear
2017-11-10,12:51 PM,35.1,26.9,9,34,30.25,10,NW,11.5,21.9,0,None,Clear
2017-11-10,10:51 AM,35.1,26.9,10,35,30.23,10,NW,11.5,26.5,0,None,Partly Cloudy
2017-03-18,9:51 AM,35.1,26.9,21.9,59,30.22,10,ENE,11.5,17.3,0,None,Overcast
2017-03-18,12:36 PM,35.1,26.9,27,72,30.2,9,ENE,11.5,19.6,0,None,Overcast
2017-02-02,11:51 PM,33.1,26.9,14,46,30.19,10,WNW,6.9,0,0,None,Clear
2017-12-21,7:51 AM,33.1,26.9,18,54,30.18,10,North,6.9,0,0,None,Clear
2017-03-18,8:51 PM,35.1,26.9,30,82,30.17,10,ENE,11.5,23,0,None,Overcast
2017-03-18,4:15 PM,35.1,26.9,33.1,92,30.16,3,ENE,11.5,16.1,0.01,None,Overcast
2017-03-19,12:51 AM,35.1,26.9,27,72,30.15,10,ENE,11.5,26.5,0,None,Overcast
2017-02-05,4:51 AM,33.1,26.9,12,42,30.14,10,Variable,6.9,0,0,None,Clear
2017-03-17,12:51 AM,33.1,26.9,10.9,40,30.13,10,Variable,6.9,0,0,None,Clear
2017-03-03,1:51 AM,33.1,26.9,12,42,30.12,10,Variable,6.9,0,0,None,Clear
2017-01-30,6:51 PM,33.1,26.9,8.1,35,29.88,10,NW,6.9,0,0,None,Clear
2017-02-12,3:34 PM,33.1,26.9,32,96,29.75,2,ENE,6.9,0,0,Rain,Rain
2017-01-05,12:51 AM,33.1,26.9,10.9,40,29.75,10,West,6.9,0,0,None,Clear
2017-02-12,3:51 PM,33.1,26.9,32,96,29.72,2,ENE,6.9,0,0.01,None,Overcast
2017-02-09,4:06 AM,35.1,26.9,26.1,70,29.6,1.8,NNE,11.5,24.2,0,Snow,Light Snow
2017-02-16,1:51 PM,35.1,26.9,14,42,29.6,10,WNW,11.5,24.2,0,None,Scattered Clouds
2017-02-16,12:51 AM,35.1,26.9,24.1,64,29.46,10,WNW,11.5,20.7,0,None,Mostly Cloudy
2017-02-15,11:51 PM,35.1,26.9,24.1,64,29.45,10,WNW,11.5,17.3,0,None,Mostly Cloudy
2017-12-12,9:51 PM,33.1,26.9,19.9,59,29.42,10,Variable,6.9,0,0,None,Partly Cloudy
2017-01-24,5:20 AM,35.1,26.9,35.1,100,29.39,2.5,NNE,11.5,19.6,0.02,None,Overcast
2017-01-23,11:27 PM,37,27,35.1,93,29.51,4,ENE,18.4,32.2,0.12,Rain,Light Rain
2017-01-24,1:06 AM,37,27,35.1,93,29.43,3,NE,18.4,27.6,0.05,Rain,Rain
2017-03-18,10:51 PM,36,27.1,28,73,30.16,10,ENE,13.8,24.2,0,None,Overcast
2017-03-18,9:51 PM,36,27.1,30.9,82,30.15,10,ENE,13.8,23,0,None,Overcast
2017-01-23,4:51 PM,37.9,27.1,33.1,83,29.65,8,NE,23,36.8,0.02,Rain,Light Rain
2017-11-10,2:51 PM,34,27.2,6.1,31,30.27,10,NW,8.1,0,0,None,Clear
2017-03-18,5:51 PM,34,27.2,33.1,96,30.17,4,ENE,8.1,17.3,0.02,None,Overcast
2017-12-16,11:51 AM,34,27.2,19.9,56,30.01,10,West,8.1,17.3,0,None,Overcast
2017-12-11,4:51 AM,34,27.2,21.9,61,29.99,10,West,8.1,20.7,0,None,Overcast
2017-01-30,5:51 PM,34,27.2,7,32,29.85,10,NW,8.1,0,0,None,Clear
2017-02-12,4:27 PM,34,27.2,33.1,96,29.71,1.8,ENE,8.1,0,0.02,None,Overcast
2017-02-12,5:51 PM,34,27.2,33.1,96,29.69,2,North,8.1,0,0.02,None,Overcast
2017-01-28,7:51 AM,34,27.2,19.9,56,29.68,10,WSW,8.1,0,0,None,Overcast
2017-02-16,12:51 PM,34,27.2,15.1,46,29.59,10,WNW,8.1,20.7,0,None,Mostly Cloudy
2017-03-18,10:51 AM,35.1,27.4,23,61,30.2,10,East,10.4,0,0,None,Overcast
2017-03-19,1:51 AM,35.1,27.4,27,72,30.15,10,ENE,10.4,19.6,0,None,Overcast
2017-03-18,3:51 PM,35.1,27.4,32,89,30.15,3,ENE,10.4,0,0,None,Overcast
2017-12-08,10:51 PM,35.1,27.4,16,46,29.99,10,West,10.4,0,0,None,Overcast
2017-01-24,12:51 AM,37,27.4,35.1,93,29.41,2.5,ENE,17.3,31.1,0.17,Rain,Rain
2017-01-24,2:20 AM,37,27.4,35.1,93,29.39,5,NE,17.3,31.1,0.03,Rain,Light Rain
2017-01-24,1:51 AM,37,27.4,35.1,93,29.37,6,ENE,17.3,29.9,0.15,Rain,Light Rain
2017-01-14,9:51 AM,30.9,27.5,12.9,47,30.67,10,Variable,3.5,0,0,None,Clear
2017-03-05,8:51 PM,30.9,27.5,-0.9,26,30.54,10,Variable,3.5,0,0,None,Clear
2017-03-13,12:51 PM,32,27.5,5,32,30.48,10,West,4.6,0,0,None,Clear
2017-01-16,7:51 AM,30.9,27.5,18,59,30.45,10,North,3.5,0,0,None,Clear
2017-01-16,2:51 AM,30.9,27.5,19.9,64,30.45,10,Variable,3.5,0,0,None,Clear
2017-01-16,1:51 AM,30.9,27.5,19.9,64,30.44,10,WNW,3.5,0,0,None,Clear
2017-01-14,7:08 PM,30.9,27.5,28,89,30.43,3,Variable,3.5,0,0.01,Snow,Light Snow
2017-01-16,12:51 AM,30.9,27.5,19,61,30.42,10,NNW,3.5,0,0,None,Clear
2017-01-14,10:07 PM,30.9,27.5,28,89,30.37,2.5,WNW,3.5,0,0,Snow,Light Snow
2017-01-15,8:51 AM,30.9,27.5,19.9,64,30.36,10,Variable,3.5,0,0,None,Clear
2017-01-15,1:39 AM,32,27.5,27,82,30.3,9,Variable,4.6,0,0,None,Mostly Cloudy
2017-01-15,1:47 AM,32,27.5,26.6,80,30.3,10,Variable,4.6,0,0,None,Mostly Cloudy
2017-02-04,10:51 PM,32,27.5,7,35,30.28,10,Variable,4.6,0,0,None,Clear
2017-12-17,6:51 AM,32,27.5,21,64,30.27,10,NNE,4.6,0,0,None,Overcast
2017-02-03,12:51 AM,32,27.5,10.9,42,30.19,10,Variable,4.6,0,0,None,Clear
2017-02-03,1:51 PM,32,27.5,10,40,30.11,10,WNW,4.6,0,0,None,Clear
2017-02-11,12:51 AM,30.9,27.5,18,59,30.07,10,Variable,3.5,0,0,None,Overcast
2017-01-06,1:51 PM,32,27.5,10.9,42,30.04,10,Variable,4.6,0,0,None,Clear
2017-02-14,9:51 AM,30.9,27.5,18,59,29.95,10,Variable,3.5,0,0,None,Clear
2017-02-26,7:51 AM,36,27.5,18,48,29.93,10,WNW,12.7,23,0,None,Overcast
2017-12-10,9:51 AM,32,27.5,21.9,66,29.92,5,Variable,4.6,0,0,None,Haze
2017-01-05,4:51 PM,32,27.5,9,38,29.92,10,West,4.6,0,0,None,Clear
2017-02-12,12:51 PM,32,27.5,30.9,96,29.88,1.5,Variable,4.6,0,0.1,Rain,Light Freezing Rain
2017-12-09,12:51 PM,32,27.5,30,92,29.83,0.5,NE,4.6,0,0.05,"Fog	",Snow
2017-12-25,10:51 AM,36,27.5,19,50,29.83,10,WNW,12.7,28.8,0,None,Mostly Cloudy
2017-03-10,1:21 PM,32,27.5,28.9,88,29.82,2,Variable,4.6,0,0,Snow,Light Snow
2017-12-25,1:51 AM,36,27.5,35.1,97,29.74,3,ENE,12.7,18.4,0.03,None,Overcast
2017-12-09,6:51 PM,30.9,27.5,30,96,29.73,1.5,Variable,3.5,0,0.02,Snow,Light Snow
2017-02-13,4:51 AM,36,27.5,23,59,29.67,10,WNW,12.7,28.8,0,None,Overcast
2017-01-24,9:03 PM,36,27.5,34,93,29.46,10,WNW,12.7,21.9,0.01,None,Overcast
2017-01-24,5:46 AM,35.6,27.5,35.6,100,29.39,3,NNE,11.5,20.7,0.04,None,Overcast
2017-01-24,5:10 AM,36,27.5,35.1,97,29.39,2.5,NNE,12.7,23,0.01,None,Overcast
2017-01-24,4:30 AM,36,27.5,36,100,29.38,3,NE,12.7,20.7,0.05,Rain,Light Rain
2017-01-24,4:16 AM,36,27.5,35.1,97,29.38,2.5,NE,12.7,23,0.03,Rain,Light Rain
2017-01-24,12:03 PM,36,27.5,36,100,29.34,3,North,12.7,16.1,0,None,Overcast
2017-01-24,11:51 AM,36,27.5,36,100,29.33,2.5,North,12.7,19.6,0.04,Rain,Light Rain
2017-03-31,10:51 PM,37.9,27.6,37,97,29.73,4,East,20.7,31.1,0.05,Rain,Light Rain
2017-01-23,3:51 PM,37.9,27.6,32,79,29.67,4,ENE,20.7,38,0.01,Rain,Light Rain
2017-02-04,1:51 PM,33.1,27.7,6.1,32,30.3,10,Variable,5.8,0,0,None,Clear
2017-12-17,12:51 AM,33.1,27.7,19.9,59,30.21,10,Variable,5.8,0,0,None,Overcast
2017-03-17,1:51 AM,33.1,27.7,14,46,30.15,10,WNW,5.8,0,0,None,Partly Cloudy
2017-03-10,7:31 AM,33.1,27.7,32,96,29.91,0.2,ENE,5.8,0,0.02,"Fog	",Snow
2017-03-10,7:51 AM,33.1,27.7,32,96,29.88,0.5,ENE,5.8,0,0.04,"Fog	",Snow
2017-02-13,11:51 AM,37,27.7,19.9,50,29.77,10,WNW,16.1,34.5,0,None,Overcast
2017-04-01,3:38 AM,37,27.7,36,96,29.67,3,NE,16.1,26.5,0,None,Overcast
2017-03-19,4:03 AM,35.1,27.9,26.1,70,30.16,10,NNE,9.2,19.6,0,None,Overcast
2017-03-19,2:51 AM,35.1,27.9,27,72,30.15,10,NE,9.2,0,0,None,Overcast
2017-11-22,11:51 PM,35.1,27.9,19,52,30.08,10,WNW,9.2,21.9,0,None,Clear
2017-03-10,7:00 AM,35.1,27.9,28,76,29.92,1.8,NNE,9.2,0,0,Snow,Light Snow
2017-12-25,7:51 AM,35.1,27.9,32,89,29.7,10,West,9.2,19.6,0,None,Scattered Clouds
2017-01-24,6:51 AM,35.1,27.9,34,96,29.35,4,NNE,9.2,21.9,0.02,None,Overcast
2017-02-04,2:51 PM,34,28,6.1,31,30.3,10,WSW,6.9,0,0,None,Clear
2017-03-17,10:51 AM,34,28,15.1,46,30.27,10,Variable,6.9,0,0,None,Clear
2017-03-03,10:51 AM,34,28,8.1,34,30.23,10,West,6.9,20.7,0,None,Partly Cloudy
2017-03-18,11:51 PM,36,28,27,70,30.17,10,East,11.5,19.6,0,None,Overcast
2017-03-18,2:51 PM,36,28,30,79,30.15,10,ENE,11.5,23,0,None,Overcast
2017-12-18,4:51 AM,34,28,30,85,30.14,7,NE,6.9,0,0,None,Overcast
2017-11-23,1:51 AM,34,28,19,54,30.09,10,Variable,6.9,0,0,None,Clear
2017-03-10,7:05 AM,34,28,28.9,82,29.92,0.8,Variable,6.9,0,0,Snow,Light Snow
2017-12-24,10:51 PM,36,28,33.1,89,29.91,7,ENE,11.5,17.3,0.01,None,Overcast
2017-02-26,6:51 AM,36,28,18,48,29.89,10,WNW,11.5,24.2,0,None,Overcast
2017-02-17,11:51 AM,36,28,14,41,29.85,10,NW,11.5,18.4,0,None,Clear
2017-12-25,12:51 AM,36,28,35.1,97,29.8,5,ENE,11.5,18.4,0.02,Rain,Light Rain
2017-01-30,1:51 PM,36,28,9,33,29.76,10,NW,11.5,17.3,0,None,Clear
2017-12-25,6:40 AM,34,28,32,92,29.71,7,West,6.9,0,0.02,Snow,Light Snow
2017-12-25,6:11 AM,34,28,32,92,29.7,3,WNW,6.9,0,0.01,Snow,Light Snow
2017-12-25,5:51 AM,34,28,32,92,29.68,2.5,WNW,6.9,0,0.06,Snow,Light Snow
2017-02-12,4:51 PM,34,28,32,92,29.68,2.5,Variable,6.9,0,0.02,None,Overcast
2017-01-23,11:01 PM,36,28,35.1,97,29.52,3,ENE,11.5,29.9,0.03,Rain,Rain
2017-01-24,2:25 PM,36,28,35.1,97,29.34,1.8,NW,11.5,17.3,0.02,Rain,Rain
2017-11-22,9:51 PM,37,28.1,21,52,30.07,10,NW,15,24.2,0,None,Clear
2017-04-01,3:31 AM,37,28.1,36,96,29.67,2.5,ENE,15,25.3,0,None,Overcast
2017-01-24,3:12 AM,37,28.1,35.1,93,29.37,5,ENE,15,29.9,0.01,None,Overcast
2017-01-24,3:51 AM,37,28.1,35.1,93,29.35,4,ENE,15,21.9,0.02,None,Overcast
2017-03-26,7:49 AM,37.4,28.5,30.2,75,30.46,10,East,15,21.9,0,None,Overcast
2017-03-26,7:51 AM,37,28.5,30.9,79,30.44,10,ENE,13.8,21.9,0,None,Overcast
2017-03-18,8:51 AM,36,28.5,18,48,30.22,10,ENE,10.4,0,0,None,Overcast
2017-03-18,3:16 PM,36,28.5,30.9,82,30.18,8,East,10.4,0,0,None,Overcast
2017-11-22,10:51 PM,36,28.5,19.9,52,30.08,10,WNW,10.4,18.4,0,None,Clear
2017-12-10,9:51 PM,36,28.5,21,55,30.01,10,WSW,10.4,16.1,0,None,Partly Cloudy
2017-12-10,8:51 PM,36,28.5,21,55,30,10,WSW,10.4,19.6,0,None,Clear
2017-03-22,7:51 AM,36,28.5,16,44,30,10,WNW,10.4,32.2,0,None,Clear
2017-12-16,12:51 PM,36,28.5,19.9,52,29.98,10,West,10.4,23,0,None,Scattered Clouds
2017-02-26,9:51 AM,37,28.5,17.1,44,29.98,10,West,13.8,24.2,0,None,Mostly Cloudy
2017-12-08,8:51 PM,36,28.5,17.1,46,29.98,10,West,10.4,0,0,None,Scattered Clouds
2017-12-24,11:51 PM,36,28.5,34,93,29.85,5,East,10.4,0,0,None,Overcast
2017-01-30,3:51 PM,36,28.5,8.1,31,29.79,10,NW,10.4,18.4,0,None,Clear
2017-01-30,2:51 PM,36,28.5,9,33,29.78,10,NW,10.4,0,0,None,Partly Cloudy
2017-04-01,2:51 AM,37,28.5,36,96,29.66,6,ENE,13.8,28.8,0,None,Overcast
2017-01-24,9:51 PM,36,28.5,34,93,29.44,10,NW,10.4,19.6,0.01,None,Overcast
2017-02-15,10:51 PM,36,28.5,24.1,62,29.44,10,WNW,10.4,19.6,0,None,Clear
2017-01-24,4:51 AM,36,28.5,35.1,97,29.37,3,NE,10.4,20.7,0.06,None,Overcast
2017-01-24,9:51 AM,36,28.5,35.1,97,29.36,5,NE,10.4,20.7,0.03,None,Overcast
2017-01-24,2:51 AM,37,28.5,35.1,93,29.35,6,NE,13.8,35.7,0.07,None,Overcast
2017-11-10,1:51 PM,35.1,28.6,7,31,30.25,10,NW,8.1,24.2,0,None,Clear
2017-12-17,11:51 PM,35.1,28.6,24.1,64,30.2,10,East,8.1,0,0,None,Overcast
2017-03-18,4:02 PM,35.1,28.6,32,89,30.17,2.5,ENE,8.1,0,0.01,None,Overcast
2017-03-16,9:51 PM,35.1,28.6,8.1,33,30.07,10,NW,8.1,20.7,0,None,Clear
2017-02-05,8:51 AM,35.1,28.6,17.1,48,30.04,10,WSW,8.1,27.6,0,None,Overcast
2017-12-11,1:51 AM,35.1,28.6,21.9,59,29.99,10,West,8.1,18.4,0,None,Overcast
2017-12-09,9:46 AM,33.8,28.6,23,65,29.96,1.8,NNE,5.8,0,0,Snow,Light Snow
2017-01-30,12:51 PM,35.1,28.6,10.9,37,29.77,10,NW,8.1,0,0,None,Mostly Cloudy
2017-02-12,6:48 PM,33.8,28.6,33.8,100,29.72,4,Variable,5.8,0,0.02,None,Overcast
2017-01-28,6:51 AM,35.1,28.6,19.9,54,29.66,10,WSW,8.1,20.7,0,None,Overcast
2017-01-24,5:51 AM,35.1,28.6,35.1,100,29.37,3,NNE,8.1,21.9,0.04,None,Overcast
2017-01-14,12:51 AM,32,28.7,14,48,30.69,10,Variable,3.5,0,0,None,Clear
2017-03-23,11:51 AM,32,28.7,0,26,30.6,10,Variable,3.5,0,0,None,Clear
2017-01-14,11:51 AM,32,28.7,15.1,50,30.59,10,Variable,3.5,0,0,None,Clear
2017-11-11,10:51 AM,32,28.7,10,40,30.57,10,Variable,3.5,0,0,None,Clear
2017-03-05,6:51 PM,32,28.7,-2.9,22,30.53,10,NE,3.5,0,0,None,Clear
2017-01-15,10:51 PM,32,28.7,19,59,30.41,10,Variable,3.5,0,0,None,Clear
2017-01-14,9:15 PM,32,28.7,28.9,88,30.39,5,Variable,3.5,0,0,None,Overcast
2017-03-13,3:51 PM,33.1,28.7,0,24,30.39,10,West,4.6,0,0,None,Clear
2017-01-14,8:51 PM,32,28.7,28.9,88,30.37,5,WNW,3.5,0,0,None,Overcast
2017-03-13,5:51 PM,33.1,28.7,8.1,35,30.35,10,Variable,4.6,0,0,None,Clear
2017-03-03,6:51 PM,33.1,28.7,12,42,30.3,10,Variable,4.6,0,0,None,Clear
2017-12-17,7:51 AM,32,28.7,21,64,30.28,10,North,3.5,0,0,None,Overcast
2017-12-17,5:51 AM,33.1,28.7,21,61,30.25,10,Variable,4.6,0,0,None,Overcast
2017-02-05,1:51 AM,32,28.7,9,38,30.23,10,Variable,3.5,0,0,None,Clear
2017-02-05,2:51 AM,32,28.7,9,38,30.2,10,Variable,3.5,0,0,None,Clear
2017-02-10,2:51 PM,32,28.7,9,38,30.2,10,Variable,3.5,0,0,None,Clear
2017-11-23,7:51 AM,32,28.7,19,59,30.12,10,Variable,3.5,0,0,None,Clear
2017-11-23,6:51 AM,32,28.7,19,59,30.11,10,Variable,3.5,0,0,None,Clear
2017-02-05,5:51 AM,33.1,28.7,14,46,30.11,10,Variable,4.6,0,0,None,Clear
2017-11-23,5:51 AM,32,28.7,19,59,30.09,10,Variable,3.5,0,0,None,Clear
2017-12-21,3:51 AM,33.1,28.7,17.1,52,30.09,10,West,4.6,0,0,None,Clear
2017-11-23,3:51 AM,33.1,28.7,19,56,30.08,10,Variable,4.6,0,0,None,Clear
2017-01-06,2:51 PM,32,28.7,10,40,30.06,10,Variable,3.5,0,0,None,Overcast
2017-02-11,2:51 AM,33.1,28.7,23,66,30.02,10,SE,4.6,0,0,None,Overcast
2017-02-11,3:51 AM,33.1,28.7,25,72,29.99,10,Variable,4.6,0,0,None,Overcast
2017-02-13,6:51 PM,33.1,28.7,16,50,29.94,10,Variable,4.6,25.3,0,None,Clear
2017-01-30,8:51 PM,32,28.7,9,38,29.93,10,Variable,3.5,0,0,None,Clear
2017-01-31,10:51 PM,32,28.7,28,85,29.84,7,NW,3.5,0,0,None,Overcast
2017-12-09,1:31 PM,32,28.7,30.9,96,29.82,0.2,Variable,3.5,0,0.04,"Fog	",Snow
2017-01-30,8:51 AM,33.1,28.7,12.9,43,29.78,10,Variable,4.6,0,0,None,Overcast
2017-01-30,6:51 AM,32,28.7,17.1,54,29.76,10,Variable,3.5,0,0,None,Mostly Cloudy
2017-01-30,4:51 AM,32,28.7,19,59,29.75,10,ENE,3.5,0,0,None,Overcast
2017-12-16,11:51 PM,34,28.8,21,59,30.2,10,Variable,5.8,0,0,None,Overcast
2017-12-18,4:15 AM,34,28.8,30,85,30.16,8,ENE,5.8,0,0,None,Overcast
2017-03-20,7:51 AM,34,28.8,16,48,30.16,10,Variable,5.8,0,0,None,Clear
2017-03-20,5:51 AM,34,28.8,15.1,46,30.13,10,WNW,5.8,0,0,None,Clear
2017-12-10,10:51 AM,34,28.8,23,64,29.91,6,Variable,5.8,0,0,None,Haze
2017-02-12,6:33 PM,34,28.8,33.1,96,29.71,2.5,Variable,5.8,0,0.01,None,Overcast
2017-02-12,5:35 PM,34,28.8,34,100,29.7,2.5,ENE,5.8,0,0.01,Rain,Light Rain
2017-02-12,5:04 PM,34,28.8,34,100,29.7,3,Variable,5.8,0,0,None,Overcast
2017-02-12,6:51 PM,34,28.8,33.1,96,29.7,4,Variable,5.8,0,0.02,None,Overcast
2017-12-25,5:23 AM,34,28.8,33.1,96,29.67,2.5,Variable,5.8,0,0.03,Snow,Light Snow
2017-02-12,9:51 PM,34,28.8,33.1,96,29.65,10,WNW,5.8,0,0,None,Clear
2017-02-12,2:51 AM,37,28.9,28,70,30.09,9,East,12.7,0,0,None,Mostly Cloudy
2017-02-07,11:51 AM,37,28.9,36,96,29.87,1.8,East,12.7,20.7,0.12,Rain,Rain
2017-04-01,4:51 AM,37,28.9,36,96,29.66,3,NNE,12.7,20.7,0,None,Overcast
2017-01-27,10:51 PM,37,28.9,23,57,29.63,10,WSW,12.7,21.9,0,None,Partly Cloudy
2017-02-13,3:51 AM,37,28.9,26.1,65,29.63,10,WNW,12.7,29.9,0,None,Overcast
2017-02-21,4:51 AM,36,29,10.9,36,30.38,10,ENE,9.2,0,0,None,Clear
2017-03-19,8:51 AM,36,29,25,64,30.18,10,NNE,9.2,23,0,None,Clear
2017-11-10,8:51 AM,36,29,12,37,30.18,10,NW,9.2,25.3,0,None,Clear
2017-03-18,12:51 PM,36,29,27,70,30.17,10,ENE,9.2,0,0,None,Overcast
2017-03-18,1:51 PM,36,29,28.9,76,30.15,10,East,9.2,0,0,None,Overcast
2017-03-20,3:51 AM,36,29,14,41,30.12,10,NNW,9.2,17.3,0,None,Clear
2017-12-11,2:51 AM,36,29,21,55,29.98,10,West,9.2,17.3,0,None,Overcast
2017-02-05,11:51 AM,36,29,19,50,29.94,10,WSW,9.2,0,0,None,Overcast
2017-12-24,11:19 PM,36,29,33.1,89,29.9,6,East,9.2,17.3,0,None,Overcast
2017-03-10,6:51 AM,36,29,27,70,29.9,10,NE,9.2,19.6,0,None,Overcast
2017-01-29,3:51 AM,36,29,21.9,57,29.69,10,WSW,9.2,0,0,None,Clear
2017-01-28,1:51 AM,36,29,19.9,52,29.63,10,WSW,9.2,20.7,0,None,Overcast
2017-01-27,11:51 PM,36,29,21,55,29.63,10,WSW,9.2,21.9,0,None,Clear
2017-02-13,2:43 AM,36,29,32,86,29.62,10,WNW,9.2,20.7,0.02,None,Mostly Cloudy
2017-01-25,12:04 AM,36,29,30,79,29.49,10,WNW,9.2,18.4,0,None,Overcast
2017-01-24,8:51 PM,36,29,34,93,29.44,6,NW,9.2,0,0.09,None,Overcast
2017-02-15,9:51 PM,36,29,25,64,29.43,10,WNW,9.2,17.3,0,None,Clear
2017-01-24,11:40 AM,36,29,35.1,97,29.36,1.8,North,9.2,0,0.03,Rain,Light Rain
2017-01-24,12:29 PM,36,29,35.1,97,29.34,1.2,North,9.2,17.3,0.04,Rain,Rain
2017-01-24,1:22 PM,36,29,35.1,97,29.33,2.5,North,9.2,20.7,0.07,Rain,Rain
2017-01-24,1:30 PM,36,29,35.1,97,29.33,3,North,9.2,20.7,0.08,Rain,Light Rain
2017-01-23,9:51 AM,39.9,29.2,30,68,29.83,10,ENE,25.3,43.7,0,None,Overcast
2017-02-26,4:51 AM,37.9,29.2,19.9,48,29.81,10,NW,15,23,0,None,Mostly Cloudy
2017-02-27,3:51 AM,35.1,29.3,18,50,30.32,10,Variable,6.9,0,0,None,Clear
2017-03-18,5:51 AM,35.1,29.3,18,50,30.2,10,ENE,6.9,0,0,None,Clear
2017-12-16,10:51 PM,35.1,29.3,21.9,59,30.19,10,Variable,6.9,0,0,None,Overcast
2017-03-19,4:27 AM,35.1,29.3,26.1,70,30.17,10,Variable,6.9,16.1,0,None,Overcast
2017-03-19,4:51 AM,35.1,29.3,25,67,30.16,10,Variable,6.9,0,0,None,Overcast
2017-02-02,7:51 PM,37,29.3,19,48,30.15,10,NW,11.5,17.3,0,None,Clear
2017-03-18,4:51 PM,35.1,29.3,33.1,92,30.14,3,ENE,6.9,17.3,0.02,None,Overcast
2017-11-10,7:51 AM,37,29.3,19,48,30.14,10,NW,11.5,26.5,0,None,Clear
2017-03-19,3:51 AM,35.1,29.3,26.1,70,30.14,10,Variable,6.9,0,0,None,Overcast
2017-12-10,4:51 PM,37,29.3,21,52,29.96,10,WSW,11.5,19.6,0,None,Scattered Clouds
2017-03-16,1:51 PM,35.1,29.3,9,34,29.94,10,Variable,6.9,25.3,0,None,Partly Cloudy
2017-12-09,8:51 AM,35.1,29.3,19,52,29.93,7,ENE,6.9,0,0,Snow,Light Snow
2017-02-14,12:51 PM,35.1,29.3,19.9,54,29.86,10,SW,6.9,0,0,None,Clear
2017-01-30,4:51 PM,35.1,29.3,9,34,29.82,10,Variable,6.9,0,0,None,Clear
2017-01-28,8:51 PM,37,29.3,19.9,50,29.75,10,WSW,11.5,17.3,0,None,Overcast
2017-01-30,1:51 AM,35.1,29.3,18,50,29.73,10,Variable,6.9,0,0,None,Overcast
2017-12-25,7:06 AM,35.1,29.3,33.1,92,29.71,10,West,6.9,0,0,None,Overcast
2017-01-28,8:51 AM,35.1,29.3,21,57,29.69,10,Variable,6.9,0,0,None,Overcast
2017-04-01,4:14 AM,37,29.3,36,96,29.68,3,NNE,11.5,21.9,0,None,Overcast
2017-01-28,2:51 PM,37,29.3,21,52,29.67,10,West,11.5,20.7,0,None,Overcast
2017-01-28,1:51 PM,37,29.3,21,52,29.65,10,WNW,11.5,18.4,0,None,Overcast
2017-01-28,3:51 AM,35.1,29.3,19,52,29.63,10,Variable,6.9,23,0,None,Clear
2017-01-25,2:06 AM,37,29.3,28,70,29.54,10,NW,11.5,20.7,0,None,Overcast
2017-12-12,8:02 PM,35.1,29.3,28.9,78,29.5,10,Variable,6.9,0,0,None,Overcast
2017-01-23,3:05 PM,39.9,29.5,30.9,70,29.7,10,ENE,24.2,38,0,None,Overcast
2017-11-11,1:51 PM,36,29.6,8.1,31,30.5,10,ENE,8.1,0,0,None,Clear
2017-03-05,4:51 PM,36,29.6,-5.1,17,30.5,10,NE,8.1,0,0,None,Clear
2017-03-26,5:51 AM,37.9,29.6,33.1,83,30.42,10,ENE,13.8,20.7,0,None,Overcast
2017-02-27,6:51 AM,36,29.6,19,50,30.36,10,WSW,8.1,18.4,0,None,Clear
2017-12-08,4:51 AM,36,29.6,19,50,30.06,10,West,8.1,0,0,None,Clear
2017-12-08,5:51 PM,36,29.6,16,44,30.03,10,West,8.1,0,0,None,Overcast
2017-12-11,9:51 AM,36,29.6,26.1,67,30.03,10,WSW,8.1,0,0,None,Clear
2017-12-24,10:38 PM,36,29.6,32,86,29.95,6,ENE,8.1,20.7,0.01,None,Overcast
2017-02-26,5:51 AM,36,29.6,18,48,29.85,10,NW,8.1,20.7,0,None,Clear
2017-12-12,7:34 PM,36,29.6,30.9,82,29.5,7,WNW,8.1,23,0,Snow,Light Snow
2017-01-24,10:03 PM,36,29.6,34,93,29.47,10,WNW,8.1,0,0,None,Overcast
2017-01-24,3:07 PM,36,29.6,35.1,97,29.35,2.5,NW,8.1,0,0.03,Rain,Light Rain
2017-01-24,1:56 PM,36,29.6,35.1,97,29.34,3,NNW,8.1,0,0.01,Rain,Light Rain
2017-01-24,12:51 PM,36,29.6,35.1,97,29.31,1.2,NNW,8.1,19.6,0.15,Rain,Rain
2017-01-23,8:51 AM,39.9,29.7,30.9,70,29.83,10,ENE,23,33.4,0,None,Overcast
2017-01-23,2:51 PM,39.9,29.7,30.9,70,29.68,10,ENE,23,42.6,0,None,Overcast
2017-11-11,7:51 PM,34,29.8,10.9,38,30.54,10,NE,4.6,0,0,None,Clear
2017-01-10,1:51 PM,34,29.8,24.1,67,30.5,10,South,4.6,0,0,None,Overcast
2017-03-26,8:25 AM,37,29.8,32,82,30.47,10,East,10.4,21.9,0,None,Overcast
2017-02-21,3:51 AM,37,29.8,8.1,30,30.36,10,ENE,10.4,0,0,None,Clear
2017-12-08,6:51 AM,34,29.8,17.1,50,30.06,10,Variable,4.6,0,0,None,Clear
2017-03-16,8:51 PM,37,29.8,8.1,30,30.04,10,WNW,10.4,19.6,0,None,Clear
2017-12-21,12:51 AM,34,29.8,17.1,50,30.04,10,NW,4.6,0,0,None,Clear
2017-12-20,11:51 PM,34,29.8,17.1,50,30.04,10,Variable,4.6,0,0,None,Clear
2017-12-11,5:51 AM,34,29.8,23,64,30,10,Variable,4.6,16.1,0,None,Overcast
2017-02-07,12:51 PM,37,29.8,35.1,93,29.87,5,ENE,10.4,0,0.03,None,Overcast
2017-02-07,5:51 PM,37,29.8,35.1,93,29.78,6,ENE,10.4,0,0,None,Overcast
2017-02-12,5:12 PM,34,29.8,34,100,29.71,3,Variable,4.6,0,0,None,Overcast
2017-02-12,6:03 PM,34,29.8,33.1,96,29.71,3,Variable,4.6,0,0,None,Overcast
2017-01-28,4:51 PM,37,29.8,19.9,50,29.69,10,WNW,10.4,16.1,0,None,Overcast
2017-01-04,9:51 PM,37,29.8,12.9,37,29.68,10,West,10.4,17.3,0,None,Clear
2017-04-01,5:51 AM,37,29.8,35.1,93,29.68,4,NNE,10.4,18.4,0,None,Overcast
2017-04-01,3:59 AM,37,29.8,36,96,29.67,2.5,NE,10.4,19.6,0,None,Overcast
2017-02-12,9:33 PM,34,29.8,33.1,96,29.67,10,WNW,4.6,0,0,None,Scattered Clouds
2017-01-23,5:51 PM,37,29.8,34,89,29.66,4,ENE,10.4,26.5,0.1,Rain,Rain
2017-01-27,9:51 PM,37,29.8,23,57,29.63,10,West,10.4,17.3,0,None,Partly Cloudy
2017-02-09,3:51 AM,37,29.8,26.1,65,29.58,10,NE,10.4,21.9,0,None,Overcast
2017-01-25,12:51 AM,37,29.8,28.9,73,29.49,10,WNW,10.4,24.2,0,None,Mostly Cloudy
2017-03-06,9:51 AM,33.1,30,7,34,30.54,10,Variable,3.5,0,0,None,Clear
2017-01-14,1:51 PM,33.1,30,16,50,30.53,10,Variable,3.5,0,0,None,Overcast
2017-11-12,12:51 AM,33.1,30,17.1,52,30.48,10,ENE,3.5,0,0,None,Clear
2017-03-13,1:51 PM,33.1,30,6.1,32,30.46,10,Variable,3.5,0,0,None,Clear
2017-03-26,8:51 AM,37.9,30,32,79,30.45,10,ENE,12.7,20.7,0,None,Overcast
2017-03-26,5:10 AM,37.9,30,34,86,30.43,10,East,12.7,16.1,0,None,Overcast
2017-03-26,6:51 AM,37.9,30,30.9,76,30.42,10,ENE,12.7,23,0,None,Overcast
2017-01-15,9:51 AM,33.1,30,21,61,30.37,10,Variable,3.5,0,0,None,Clear
2017-12-17,8:51 AM,33.1,30,21,61,30.29,10,Variable,3.5,0,0,None,Overcast
2017-12-17,4:51 AM,33.1,30,19.9,59,30.27,10,Variable,3.5,0,0,None,Overcast
2017-12-17,1:51 AM,33.1,30,19.9,59,30.23,10,Variable,3.5,0,0,None,Overcast
2017-02-05,3:51 AM,33.1,30,10.9,40,30.17,10,Variable,3.5,0,0,None,Clear
2017-11-23,8:51 AM,33.1,30,19,56,30.12,10,WNW,3.5,0,0,None,Clear
2017-03-16,10:51 PM,33.1,30,10,38,30.11,10,NNW,3.5,0,0,None,Clear
2017-02-11,1:51 AM,33.1,30,18,54,30.06,10,Variable,3.5,0,0,None,Overcast
2017-01-06,12:51 PM,33.1,30,14,46,30.04,10,Variable,3.5,0,0,None,Mostly Cloudy
2017-03-16,3:51 PM,37.9,30,10,32,29.93,10,West,12.7,26.5,0,None,Clear
2017-03-31,9:51 PM,37.9,30,37,97,29.76,2.5,ENE,12.7,26.5,0.14,Rain,Light Rain
2017-01-23,12:51 PM,39.9,30,30.9,70,29.74,10,ENE,21.9,42.6,0,None,Overcast
2017-12-25,5:42 AM,33.1,30,32,96,29.68,1.5,Variable,3.5,0,0.06,Snow,Light Snow
2017-04-01,1:51 AM,37.9,30,36,93,29.67,5,ENE,12.7,36.8,0,None,Overcast
2017-02-21,5:51 AM,35.1,30.1,14,42,30.38,10,ENE,5.8,0,0,None,Clear
2017-02-27,5:51 AM,35.1,30.1,19,52,30.37,10,Variable,5.8,0,0,None,Clear
2017-12-17,10:51 AM,35.1,30.1,21.9,59,30.29,10,NNE,5.8,0,0,None,Overcast
2017-03-03,5:51 PM,35.1,30.1,10.9,37,30.27,10,Variable,5.8,25.3,0,None,Scattered Clouds
2017-11-10,11:51 AM,35.1,30.1,7,31,30.23,10,Variable,5.8,31.1,0,None,Clear
2017-12-18,12:51 AM,35.1,30.1,24.1,64,30.19,10,ENE,5.8,0,0,None,Overcast
2017-12-18,1:51 AM,35.1,30.1,25,67,30.19,10,NE,5.8,0,0,None,Overcast
2017-12-18,2:51 AM,35.1,30.1,27,72,30.18,8,ESE,5.8,0,0.01,None,Overcast
2017-12-08,10:51 AM,35.1,30.1,15.1,44,30.09,10,Variable,5.8,0,0,None,Partly Cloudy
2017-12-20,10:51 PM,35.1,30.1,16,46,30.04,10,WNW,5.8,0,0,None,Clear
2017-12-08,9:51 PM,35.1,30.1,17.1,48,29.99,10,WNW,5.8,0,0,None,Mostly Cloudy
2017-12-09,3:51 AM,35.1,30.1,17.1,48,29.97,10,West,5.8,0,0,None,Overcast
2017-12-09,6:51 AM,35.1,30.1,16,46,29.95,10,NE,5.8,0,0,None,Overcast
2017-02-13,3:51 PM,35.1,30.1,21,57,29.84,10,Variable,5.8,32.2,0,None,Partly Cloudy
2017-01-04,10:51 PM,35.1,30.1,10.9,37,29.71,10,Variable,5.8,0,0,None,Clear
2017-01-28,5:51 AM,35.1,30.1,19.9,54,29.64,10,West,5.8,21.9,0,None,Overcast
2017-12-12,7:51 PM,35.1,30.1,30,82,29.48,6,Variable,5.8,24.2,0,Snow,Light Snow
2017-01-23,10:51 AM,39.9,30.2,30,68,29.84,10,ENE,20.7,32.2,0,None,Overcast
2017-02-27,7:51 AM,36,30.3,19.9,52,30.4,10,WSW,6.9,0,0,None,Clear
2017-12-22,3:51 AM,36,30.3,19.9,52,30.29,10,ENE,6.9,0,0,None,Overcast
2017-12-22,5:51 AM,36,30.3,19,50,30.28,10,SE,6.9,0,0,None,Overcast
2017-12-17,8:25 PM,36,30.3,26.1,67,30.27,10,ENE,6.9,0,0,None,Mostly Cloudy
2017-12-22,7:51 AM,36,30.3,19.9,52,30.27,10,Variable,6.9,0,0,None,Overcast
2017-02-26,11:51 PM,36,30.3,16,44,30.27,10,West,6.9,0,0,None,Clear
2017-03-03,12:51 PM,36,30.3,6.1,29,30.21,10,Variable,6.9,16.1,0,None,Mostly Cloudy
2017-02-06,7:51 AM,36,30.3,18,48,30.1,10,WNW,6.9,0,0,None,Clear
2017-12-08,3:51 AM,36,30.3,19.9,52,30.04,10,WNW,6.9,0,0,None,Clear
2017-11-24,4:51 AM,36,30.3,21,55,30.03,10,WNW,6.9,0,0,None,Clear
2017-12-20,9:51 PM,36,30.3,16,44,30.03,10,WNW,6.9,0,0,None,Clear
2017-02-05,10:51 AM,36,30.3,19,50,29.99,10,Variable,6.9,0,0,None,Overcast
2017-03-10,4:51 PM,36,30.3,18,48,29.81,10,WNW,6.9,21.9,0,None,Partly Cloudy
2017-01-28,2:51 AM,36,30.3,19.9,52,29.63,10,Variable,6.9,20.7,0,None,Overcast
2017-01-24,10:51 AM,36,30.3,35.1,97,29.36,6,Variable,6.9,17.3,0,None,Overcast
2017-01-24,2:59 PM,36,30.3,35.1,97,29.35,1.8,Variable,6.9,0,0.02,Rain,Rain
2017-01-24,3:14 PM,36,30.3,35.1,97,29.35,7,NW,6.9,0,0.03,None,Overcast
2017-01-24,2:51 PM,36,30.3,35.1,97,29.32,5,Variable,6.9,0,0.04,None,Overcast
2017-11-11,12:51 PM,37,30.4,8.1,30,30.52,10,ENE,9.2,0,0,None,Clear
2017-03-24,5:51 AM,37,30.4,16,42,30.48,10,WSW,9.2,0,0,None,Mostly Cloudy
2017-03-24,6:51 AM,37,30.4,18,46,30.47,10,SW,9.2,0,0,None,Overcast
2017-02-26,9:51 PM,37,30.4,15.1,41,30.23,10,West,9.2,0,0,None,Clear
2017-03-03,4:51 PM,37,30.4,3.9,25,30.22,10,West,9.2,19.6,0,None,Clear
2017-03-16,7:51 PM,37,30.4,9,31,30.01,10,WNW,9.2,17.3,0,None,Clear
2017-02-26,8:51 AM,37,30.4,18,46,29.96,10,WNW,9.2,25.3,0,None,Overcast
2017-02-07,3:51 PM,37,30.4,35.1,93,29.81,5,East,9.2,17.3,0,None,Overcast
2017-02-07,7:09 PM,37,30.4,36,96,29.78,2.5,ENE,9.2,0,0,None,Overcast
2017-02-07,6:51 PM,37,30.4,36,96,29.76,3,East,9.2,0,0,None,Overcast
2017-02-13,2:07 AM,37,30.4,33.1,86,29.62,6,WNW,9.2,18.4,0,Rain,Light Rain
2017-01-25,2:51 AM,37,30.4,27,67,29.53,10,NW,9.2,0,0,None,Scattered Clouds
2017-01-25,1:51 AM,37,30.4,28,70,29.51,10,WNW,9.2,23,0,None,Mostly Cloudy
2017-03-26,4:01 AM,37.9,30.5,36,93,30.43,4,ENE,11.5,0,0.02,Rain,Light Rain
2017-02-26,7:51 PM,37.9,30.5,16,41,30.19,10,West,11.5,18.4,0,None,Scattered Clouds
2017-12-24,6:22 PM,37.9,30.5,26.1,62,30.12,10,ENE,11.5,0,0,None,Overcast
2017-03-31,5:51 AM,37.9,30.5,37,97,30.1,7,SSE,11.5,17.3,0,None,Overcast
2017-02-02,6:51 AM,37.9,30.5,24.1,57,30.05,10,West,11.5,17.3,0,None,Overcast
2017-12-07,7:51 AM,37.9,30.5,21.9,53,30.01,10,West,11.5,18.4,0,None,Clear
2017-01-18,2:09 AM,37.9,30.5,37.9,100,29.92,2.5,ENE,11.5,17.3,0,None,Overcast
2017-01-23,11:51 AM,39.9,30.5,30.9,70,29.79,10,ENE,19.6,34.5,0,None,Overcast
2017-03-31,10:00 PM,37.9,30.5,37,97,29.77,4,ENE,11.5,27.6,0.01,Rain,Light Rain
2017-01-23,1:51 PM,39.9,30.5,30.9,70,29.7,10,ENE,19.6,39.1,0,None,Overcast
2017-12-25,2:51 AM,37.9,30.5,37,97,29.69,5,East,11.5,16.1,0.02,Rain,Light Rain
2017-01-24,6:51 PM,37.9,30.5,35.1,89,29.39,10,WNW,11.5,19.6,0,None,Overcast
2017-01-02,8:51 PM,39,30.6,37.9,96,30.31,6,ENE,15,23,0,None,Overcast
2017-01-03,1:01 AM,39,30.6,37.9,96,30.24,2.5,ENE,15,20.7,0.01,Rain,Light Rain
2017-03-22,6:51 AM,39,30.6,18,43,29.95,10,WNW,15,24.2,0,None,Clear
2017-03-31,6:13 PM,39,30.6,37.9,96,29.84,2,East,15,19.6,0.06,Rain,Rain
2017-03-31,8:32 PM,39,30.6,37.9,96,29.78,5,East,15,25.3,0.1,Rain,Light Rain
2017-03-31,7:51 PM,39,30.6,37.9,96,29.76,4,ENE,15,28.8,0.14,Rain,Light Rain
2017-03-27,2:02 AM,37.4,30.8,37.4,100,30.28,3,ENE,9.2,0,0,None,Overcast
2017-03-27,4:47 AM,37.4,30.8,37.4,100,30.2,3,NE,9.2,0,0,None,Overcast
2017-01-18,12:46 AM,37.4,30.8,37.4,100,29.94,4,ENE,9.2,0,0.02,None,Overcast
2017-02-07,6:47 PM,37.4,30.8,35.6,93,29.79,3,ENE,9.2,0,0,None,Overcast
2017-03-27,12:51 AM,37.9,30.9,37,97,30.29,3,ENE,10.4,0,0,None,Overcast
2017-12-24,9:51 AM,37.9,30.9,26.1,62,30.23,10,NE,10.4,18.4,0,None,Clear
2017-12-24,8:51 AM,37.9,30.9,28,68,30.21,10,NNE,10.4,17.3,0,None,Clear
2017-12-24,5:51 PM,37.9,30.9,26.1,62,30.1,10,East,10.4,0,0,None,Overcast
2017-12-24,9:51 PM,37.9,30.9,30.9,76,29.97,10,ENE,10.4,0,0,None,Overcast
2017-03-10,5:51 AM,37.9,30.9,24.1,57,29.86,10,NNE,10.4,17.3,0,None,Overcast
2017-02-15,6:51 PM,37.9,30.9,32,79,29.38,10,WNW,10.4,19.6,0,None,Overcast
2017-01-13,7:51 PM,35.1,31,14,42,30.63,10,Variable,4.6,16.1,0,None,Clear
2017-01-10,12:51 PM,34,31,19.9,56,30.53,10,South,3.5,0,0,None,Scattered Clouds
2017-11-11,8:51 PM,34,31,10,37,30.53,10,Variable,3.5,0,0,None,Clear
2017-03-26,10:51 AM,39,31,32,76,30.48,10,ENE,13.8,19.6,0,None,Overcast
2017-01-15,8:51 PM,34,31,19,54,30.4,10,Variable,3.5,0,0,None,Clear
2017-01-15,7:51 PM,35.1,31,19,52,30.38,10,Variable,4.6,0,0,None,Clear
2017-02-21,6:51 AM,35.1,31,17.1,48,30.36,10,Variable,4.6,0,0,None,Clear
2017-01-15,12:51 PM,37,31,19.9,50,30.33,10,NW,8.1,0,0,None,Clear
2017-01-03,12:04 AM,39,31,37.9,96,30.27,3,ENE,13.8,18.4,0.01,Rain,Light Rain
2017-02-26,10:51 PM,37,31,15.1,41,30.25,10,West,8.1,0,0,None,Clear
2017-02-26,8:51 PM,37,31,16,42,30.22,10,WNW,8.1,18.4,0,None,Clear
2017-03-18,6:51 AM,35.1,31,21,57,30.21,10,Variable,4.6,0,0,None,Overcast
2017-03-03,2:51 PM,37,31,1.9,23,30.2,10,NW,8.1,17.3,0,None,Overcast
2017-03-19,9:51 AM,37,31,25,62,30.19,10,ENE,8.1,17.3,0,None,Clear
2017-12-21,8:51 AM,34,31,18,52,30.19,10,Variable,3.5,0,0,None,Clear
2017-02-02,9:51 PM,34,31,19,54,30.18,10,Variable,3.5,0,0,None,Clear
2017-02-02,8:51 PM,35.1,31,19,52,30.17,10,Variable,4.6,0,0,None,Clear
2017-03-20,8:51 AM,35.1,31,17.1,48,30.15,10,Variable,4.6,0,0,None,Clear
2017-12-18,5:51 AM,35.1,31,30.9,85,30.14,9,Variable,4.6,0,0,None,Overcast
2017-03-20,4:51 AM,34,31,16,48,30.12,10,WNW,3.5,0,0,None,Clear
2017-12-08,8:51 AM,34,31,17.1,50,30.1,10,Variable,3.5,0,0,None,Clear
2017-12-08,7:51 AM,34,31,17.1,50,30.08,10,Variable,3.5,0,0,None,Clear
2017-12-11,8:51 AM,34,31,27,75,30.03,10,Variable,3.5,0,0,None,Clear
2017-12-16,2:51 PM,37,31,21.9,54,29.99,10,West,8.1,0,0,None,Overcast
2017-12-08,11:51 PM,35.1,31,16,46,29.96,10,WNW,4.6,0,0,None,Mostly Cloudy
2017-12-09,5:51 AM,35.1,31,16,46,29.94,10,NE,4.6,0,0,None,Overcast
2017-03-31,5:34 PM,39,31,37.9,96,29.84,4,ENE,13.8,19.6,0.07,Rain,Light Rain
2017-02-07,4:51 PM,37,31,35.1,93,29.83,5,NE,8.1,16.1,0,None,Overcast
2017-01-28,7:51 PM,37,31,21,52,29.75,10,West,8.1,0,0,None,Overcast
2017-01-30,2:51 AM,34,31,18,52,29.73,10,Variable,3.5,0,0,None,Overcast
2017-02-07,7:51 PM,37,31,36,96,29.73,1.8,ENE,8.1,0,0,None,Overcast
2017-02-12,6:16 PM,34,31,33.1,96,29.71,2.5,Variable,3.5,0,0.01,None,Overcast
2017-02-12,7:33 PM,34,31,33.1,96,29.71,6,Variable,3.5,0,0,None,Overcast
2017-02-07,8:51 PM,37,31,37,100,29.7,1.2,East,8.1,0,0,None,Overcast
2017-01-28,3:51 PM,37,31,21,52,29.68,10,West,8.1,0,0,None,Overcast
2017-02-12,8:51 PM,34,31,33.1,96,29.67,8,NW,3.5,0,0,None,Mostly Cloudy
2017-01-27,7:51 PM,39,31,24.1,55,29.62,10,WNW,13.8,20.7,0,None,Overcast
2017-02-13,1:51 AM,37,31,33.1,86,29.6,10,WNW,8.1,0,0,None,Overcast
2017-01-25,3:33 AM,37,31,28,70,29.57,10,WNW,8.1,23,0,None,Overcast
2017-01-24,11:34 PM,37,31,30,76,29.47,10,WNW,8.1,23,0.01,None,Overcast
2017-01-24,8:22 PM,37,31,34,89,29.44,8,NW,8.1,0,0.03,None,Overcast
2017-02-15,8:51 PM,37,31,26.1,65,29.42,10,WNW,8.1,0,0,None,Partly Cloudy
2017-02-15,7:07 PM,37,31,32,82,29.41,10,WNW,8.1,0,0,None,Overcast
2017-02-15,6:23 PM,37,31,32,82,29.39,10,WNW,8.1,20.7,0,None,Overcast
2017-12-22,6:51 AM,36,31.1,19.9,52,30.29,10,Variable,5.8,0,0,None,Overcast
2017-12-22,4:51 AM,36,31.1,19,50,30.28,10,NE,5.8,0,0,None,Overcast
2017-12-17,9:51 PM,36,31.1,26.1,67,30.23,10,East,5.8,0,0,None,Overcast
2017-12-20,8:51 PM,36,31.1,16,44,30.03,10,Variable,5.8,0,0,None,Clear
2017-12-10,10:51 PM,36,31.1,21,55,30.01,10,Variable,5.8,16.1,0,None,Mostly Cloudy
2017-12-10,11:51 PM,36,31.1,21,55,30.01,10,Variable,5.8,18.4,0,None,Overcast
2017-01-03,10:51 AM,39.9,31.1,39.9,100,29.95,3,East,17.3,28.8,0.01,Rain,Light Rain
2017-01-29,4:51 AM,36,31.1,21.9,57,29.7,10,Variable,5.8,0,0,None,Partly Cloudy
2017-01-28,12:51 AM,36,31.1,19.9,52,29.63,10,Variable,5.8,17.3,0,None,Overcast
2017-02-13,2:51 AM,36,31.1,32,86,29.61,10,WNW,5.8,19.6,0.02,None,Mostly Cloudy
2017-01-24,4:28 PM,36,31.1,35.1,97,29.37,3,Variable,5.8,0,0.02,Rain,Rain
2017-01-24,3:51 PM,36,31.1,35.1,97,29.34,7,Variable,5.8,0,0.04,Rain,Light Rain
2017-01-24,1:40 PM,36,31.1,35.1,97,29.33,1.8,Variable,5.8,18.4,0.1,Rain,Rain
2017-01-24,1:00 PM,36,31.1,36,100,29.33,3,North,5.8,0,0.02,Rain,Light Rain
2017-01-24,1:51 PM,36,31.1,35.1,97,29.31,2,Variable,5.8,0,0.12,Rain,Light Rain
2017-01-02,6:51 PM,39,31.4,37.9,96,30.37,4,ENE,12.7,19.6,0.03,None,Overcast
2017-01-02,7:51 PM,39,31.4,37.9,96,30.36,6,ENE,12.7,20.7,0,None,Overcast
2017-01-03,12:51 AM,39,31.4,37.9,96,30.22,3,ENE,12.7,19.6,0.03,Rain,Light Rain
2017-01-03,2:51 AM,39,31.4,37.9,96,30.19,4,ENE,12.7,18.4,0.02,None,Overcast
2017-01-03,6:51 AM,39,31.4,37.9,96,30.07,10,ENE,12.7,23,0,None,Overcast
2017-03-31,4:51 PM,39,31.4,37.9,96,29.85,3,ENE,12.7,21.9,0.08,Rain,Light Rain
2017-03-31,7:13 PM,39,31.4,37.9,96,29.82,2.5,ENE,12.7,20.7,0.06,Rain,Rain
2017-03-31,6:51 PM,39,31.4,37.9,96,29.81,1.8,East,12.7,20.7,0.17,Rain,Rain
2017-01-24,4:46 PM,37.4,31.4,35.6,93,29.38,2,WNW,8.1,0,0.07,Rain,Rain
2017-01-13,5:51 PM,37.9,31.5,14,38,30.58,10,WNW,9.2,24.2,0,None,Clear
2017-01-02,1:51 AM,37.9,31.5,28,68,30.44,10,ENE,9.2,0,0,None,Clear
2017-03-26,4:17 AM,37.9,31.5,35.1,89,30.43,9,ENE,9.2,0,0.03,Rain,Light Rain
2017-03-26,5:23 AM,37.9,31.5,34,86,30.43,10,ENE,9.2,18.4,0,None,Overcast
2017-03-26,3:51 AM,37.9,31.5,35.1,89,30.41,2,East,9.2,0,0.09,Rain,Rain
2017-03-27,1:51 AM,37.9,31.5,37,97,30.26,3,ENE,9.2,0,0,None,Overcast
2017-12-24,10:51 AM,37.9,31.5,25,60,30.22,10,North,9.2,0,0,None,Clear
2017-12-24,6:37 PM,37.9,31.5,27,65,30.11,10,ENE,9.2,0,0,None,Overcast
2017-12-24,7:08 PM,37.9,31.5,27,65,30.1,10,East,9.2,0,0,None,Overcast
2017-12-24,6:51 PM,37.9,31.5,27,65,30.08,10,ENE,9.2,0,0,None,Overcast
2017-03-02,9:51 PM,37.9,31.5,9,30,30.07,10,WNW,9.2,19.6,0,None,Clear
2017-12-16,4:51 PM,37.9,31.5,24.1,57,30.02,10,West,9.2,17.3,0,None,Overcast
2017-01-17,11:51 PM,37.9,31.5,37,97,29.96,1.8,NE,9.2,0,0.02,Rain,Light Rain
2017-12-10,3:51 PM,37.9,31.5,21.9,53,29.94,10,West,9.2,21.9,0,None,Overcast
2017-02-11,6:51 AM,37.9,31.5,23,55,29.94,10,WSW,9.2,0,0,None,Overcast
2017-01-18,12:51 AM,37.9,31.5,37,97,29.91,5,East,9.2,0,0.02,None,Overcast
2017-12-25,3:51 AM,37.9,31.5,37,97,29.67,7,NE,9.2,0,0.03,Rain,Light Rain
2017-01-24,6:17 PM,37.9,31.5,36,93,29.41,10,NW,9.2,0,0,None,Overcast
2017-02-15,6:16 PM,37.9,31.5,33.1,83,29.39,10,WNW,9.2,27.6,0,None,Overcast
2017-01-02,7:51 AM,37,31.6,30,76,30.48,10,ENE,6.9,0,0.01,None,Overcast
2017-01-10,4:51 PM,37,31.6,30,76,30.44,10,Variable,6.9,0,0,None,Overcast
2017-12-22,8:51 AM,37,31.6,21,52,30.27,10,NE,6.9,0,0,None,Overcast
2017-03-03,11:51 AM,37,31.6,8.1,30,30.22,10,Variable,6.9,0,0,None,Mostly Cloudy
2017-03-03,1:51 PM,37,31.6,3,24,30.19,10,Variable,6.9,0,0,None,Overcast
2017-03-02,10:51 PM,37,31.6,10.9,34,30.09,10,Variable,6.9,0,0,None,Clear
2017-12-11,10:51 AM,37,31.6,21.9,54,30.03,10,West,6.9,0,0,None,Clear
2017-12-16,3:51 PM,37,31.6,23,57,30,10,West,6.9,17.3,0,None,Overcast
2017-12-10,5:51 PM,37,31.6,21,52,29.98,10,Variable,6.9,0,0,None,Mostly Cloudy
2017-02-11,8:51 AM,37,31.6,25,62,29.95,10,WSW,6.9,0,0,None,Clear
2017-02-01,3:51 AM,37,31.6,27,67,29.86,10,Variable,6.9,0,0,None,Overcast
2017-02-07,1:51 PM,37,31.6,35.1,93,29.85,4,ENE,6.9,17.3,0,None,Overcast
2017-02-07,2:51 PM,37,31.6,35.1,93,29.84,5,ENE,6.9,0,0,None,Overcast
2017-02-14,1:51 PM,37,31.6,21,52,29.84,10,SSW,6.9,0,0,None,Clear
2017-02-07,7:34 PM,37,31.6,36,96,29.77,1.8,Variable,6.9,0,0,None,Overcast
2017-01-28,10:51 PM,37,31.6,21,52,29.73,10,Variable,6.9,0,0,None,Overcast
2017-04-01,6:51 AM,37,31.6,35.1,93,29.71,9,Variable,6.9,0,0,None,Overcast
2017-01-29,6:51 AM,37,31.6,21,52,29.7,10,Variable,6.9,0,0,None,Overcast
2017-04-01,3:51 AM,37,31.6,36,96,29.65,3,Variable,6.9,21.9,0,None,Overcast
2017-02-15,2:51 AM,37,31.6,28.9,73,29.65,10,West,6.9,0,0,None,Clear
2017-01-25,6:15 AM,37,31.6,28,70,29.61,10,WNW,6.9,0,0,None,Mostly Cloudy
2017-01-25,3:51 AM,37,31.6,28,70,29.56,10,WNW,6.9,19.6,0,None,Overcast
2017-01-24,11:02 PM,37,31.6,32,82,29.47,10,Variable,6.9,16.1,0.01,None,Overcast
2017-01-24,11:51 PM,37,31.6,30,76,29.46,10,Variable,6.9,0,0.01,None,Overcast
2017-01-24,10:51 PM,37,31.6,33.1,86,29.45,10,Variable,6.9,18.4,0,None,Overcast
2017-01-24,7:51 PM,37,31.6,34,89,29.42,8,WNW,6.9,0,0.03,Rain,Light Rain
2017-01-24,4:51 PM,37,31.6,36,96,29.36,3,Variable,6.9,0,0.09,Rain,Rain
2017-01-24,1:47 PM,35.6,31.7,35.6,100,29.33,1.8,Variable,4.6,0,0.12,Rain,Light Rain
2017-03-26,3:13 AM,39,31.8,35.1,86,30.44,6,ENE,11.5,17.3,0.01,Rain,Light Rain
2017-01-02,2:19 PM,39,31.8,37,93,30.42,5,East,11.5,0,0.01,Rain,Light Rain
2017-01-02,5:51 PM,39,31.8,37,93,30.38,3,ENE,11.5,0,0.02,Rain,Light Rain
2017-01-02,9:51 PM,39,31.8,37.9,96,30.3,5,ENE,11.5,21.9,0,None,Overcast
2017-01-03,7:51 AM,39,31.8,39,100,30.04,5,East,11.5,21.9,0,None,Overcast
2017-01-03,9:51 AM,39.9,31.8,39,97,29.99,2,ENE,15,23,0,None,Overcast
2017-02-07,10:00 AM,39,31.8,37,93,29.95,2.5,ENE,11.5,0,0,None,Overcast
2017-01-03,11:18 AM,39.9,31.8,39.9,100,29.92,3,ENE,15,24.2,0.02,Rain,Light Rain
2017-01-23,7:51 AM,39.9,31.8,34,79,29.85,10,East,15,32.2,0,None,Overcast
2017-03-31,9:12 PM,39,31.8,37.9,96,29.79,2,ENE,11.5,21.9,0.04,Rain,Heavy Rain
2017-02-26,3:51 AM,39,31.8,24.1,55,29.78,10,NW,11.5,20.7,0,None,Overcast
2017-03-31,8:51 PM,39,31.8,37.9,96,29.76,4,East,11.5,21.9,0.13,Rain,Rain
2017-03-31,3:49 PM,39.2,32,37.4,93,29.91,2.5,East,11.5,19.6,0.06,Rain,Rain
2017-03-31,5:46 PM,39.2,32,37.4,93,29.84,2.5,ENE,11.5,21.9,0.09,Rain,Light Rain
2017-01-13,6:51 PM,36,32.1,14,41,30.6,10,Variable,4.6,0,0,None,Clear
2017-11-11,11:51 AM,36,32.1,10,34,30.54,10,Variable,4.6,0,0,None,Clear
2017-03-05,3:51 PM,36,32.1,-9.9,14,30.5,10,Variable,4.6,0,0,None,Clear
2017-11-11,3:51 PM,36,32.1,9,33,30.5,10,Variable,4.6,0,0,None,Clear
2017-02-21,1:51 AM,37.9,32.1,9,30,30.37,10,NE,8.1,0,0,None,Clear
2017-11-14,6:51 AM,36,32.1,30,79,30.32,9,Variable,4.6,0,0,None,Clear
2017-02-27,2:51 AM,36,32.1,16,44,30.3,10,West,4.6,0,0,None,Clear
2017-12-22,10:02 AM,37.9,32.1,21.9,53,30.29,10,East,8.1,0,0,None,Overcast
2017-12-22,12:51 AM,36,32.1,19.9,52,30.26,10,Variable,4.6,0,0,None,Clear
2017-12-17,8:51 PM,36,32.1,25,64,30.25,10,Variable,4.6,0,0,None,Overcast
2017-03-27,2:51 AM,37.9,32.1,37,97,30.23,3,ENE,8.1,0,0,None,Overcast
2017-03-18,7:51 AM,36,32.1,18,48,30.22,10,Variable,4.6,0,0,None,Overcast
2017-03-18,4:51 AM,36,32.1,19,50,30.19,10,NE,4.6,0,0,None,Clear
2017-03-27,4:51 AM,37.9,32.1,37,97,30.18,3,ENE,8.1,0,0,Rain,Light Rain
2017-12-16,9:51 PM,36,32.1,23,59,30.18,10,Variable,4.6,0,0,None,Overcast
2017-03-27,5:21 AM,37.9,32.1,37,97,30.18,2.5,East,8.1,0,0,None,Overcast
2017-12-24,4:51 PM,37.9,32.1,26.1,62,30.12,10,East,8.1,0,0,None,Scattered Clouds
2017-03-02,11:51 PM,36,32.1,10.9,36,30.09,10,Variable,4.6,0,0,None,Clear
2017-12-16,6:51 PM,37.9,32.1,25,60,30.09,10,WNW,8.1,0,0,None,Overcast
2017-03-31,6:51 AM,37.9,32.1,36,93,30.08,4,SSE,8.1,0,0.01,None,Overcast
2017-11-22,8:51 PM,37.9,32.1,23,55,30.06,10,NW,8.1,20.7,0,None,Scattered Clouds
2017-12-08,11:51 AM,36,32.1,15.1,43,30.05,10,West,4.6,0,0,None,Partly Cloudy
2017-11-24,2:51 AM,36,32.1,21,55,30.04,10,West,4.6,0,0,None,Clear
2017-02-01,11:51 PM,37.9,32.1,26.1,62,30.04,10,WNW,8.1,0,0,None,Clear
2017-12-08,1:51 AM,37.9,32.1,24.1,57,30.04,10,WNW,8.1,0,0,None,Clear
2017-01-03,8:51 AM,39.9,32.1,39,97,30.01,2.5,ENE,13.8,28.8,0,None,Overcast
2017-12-11,12:51 AM,36,32.1,21,55,30,10,Variable,4.6,18.4,0,None,Overcast
2017-01-17,10:42 PM,37.9,32.1,37,97,30,3,East,8.1,0,0,None,Overcast
2017-12-10,6:51 PM,36,32.1,21,55,29.99,10,Variable,4.6,0,0,None,Clear
2017-12-07,5:51 AM,37.9,32.1,21,51,29.99,10,West,8.1,0,0,None,Clear
2017-01-17,10:51 PM,37.9,32.1,37,97,29.97,3,ENE,8.1,0,0,None,Overcast
2017-01-18,12:14 AM,37.9,32.1,37,97,29.96,3,NE,8.1,17.3,0.02,None,Overcast
2017-12-10,11:51 AM,36,32.1,24.1,62,29.91,7,WNW,4.6,18.4,0,None,Clear
2017-01-18,1:51 AM,37.9,32.1,37,97,29.9,3,East,8.1,0,0,None,Overcast
2017-03-10,3:51 PM,36,32.1,21.9,57,29.79,8,Variable,4.6,0,0,None,Mostly Cloudy
2017-04-01,8:51 AM,37.9,32.1,35.1,89,29.76,10,NNE,8.1,0,0,None,Overcast
2017-01-29,9:51 AM,37.9,32.1,21,51,29.73,10,WSW,8.1,16.1,0,None,Clear
2017-02-15,1:51 AM,37.9,32.1,28,68,29.68,10,WSW,8.1,0,0,None,Clear
2017-02-15,4:51 AM,37.9,32.1,30,73,29.59,10,WSW,8.1,0,0,None,Clear
2017-01-24,6:24 PM,37.9,32.1,36,93,29.42,10,NW,8.1,0,0,None,Overcast
2017-01-24,5:46 PM,37.4,32.1,35.6,93,29.4,10,NW,6.9,19.6,0.03,None,Overcast
2017-01-24,5:51 PM,37.9,32.1,36,93,29.38,10,WNW,8.1,0,0.03,None,Overcast
2017-01-24,4:35 PM,36,32.1,35.1,97,29.37,2,Variable,4.6,0,0.04,Rain,Rain
2017-01-24,2:36 PM,36,32.1,35.1,97,29.34,3,Variable,4.6,0,0.04,Rain,Light Rain
2017-11-11,5:51 PM,35.1,32.2,10,35,30.53,10,NE,3.5,0,0,None,Clear
2017-11-11,6:51 PM,35.1,32.2,9,34,30.53,10,Variable,3.5,0,0,None,Clear
2017-03-05,2:51 PM,35.1,32.2,-8,16,30.52,10,Variable,3.5,0,0,None,Clear
2017-11-11,4:51 PM,35.1,32.2,8.1,33,30.52,10,Variable,3.5,0,0,None,Clear
2017-11-11,9:51 PM,35.1,32.2,10.9,37,30.51,10,ESE,3.5,0,0,None,Clear
2017-01-10,2:51 PM,35.1,32.2,27,72,30.47,10,Variable,3.5,0,0,None,Overcast
2017-02-27,12:51 AM,35.1,32.2,16,46,30.29,10,Variable,3.5,0,0,None,Clear
2017-12-17,5:51 PM,35.1,32.2,25,67,30.25,10,Variable,3.5,0,0,None,Clear
2017-12-17,4:51 PM,35.1,32.2,26.1,70,30.24,10,ENE,3.5,0,0,None,Clear
2017-12-18,3:10 AM,35.1,32.2,28,76,30.19,5,Variable,3.5,0,0.01,None,Overcast
2017-12-18,6:51 AM,35.1,32.2,30.9,85,30.13,10,NE,3.5,0,0,None,Overcast
2017-12-08,9:51 AM,35.1,32.2,17.1,48,30.1,10,Variable,3.5,0,0,None,Scattered Clouds
2017-12-08,5:51 AM,35.1,32.2,19,52,30.06,10,West,3.5,0,0,None,Clear
2017-12-11,3:51 AM,35.1,32.2,21.9,59,29.98,10,Variable,3.5,0,0,None,Overcast
2017-12-09,2:51 AM,35.1,32.2,17.1,48,29.96,10,Variable,3.5,0,0,None,Overcast
2017-12-09,7:51 AM,35.1,32.2,17.1,48,29.95,10,Variable,3.5,0,0,None,Overcast
2017-02-01,2:51 AM,35.1,32.2,28,76,29.85,9,Variable,3.5,0,0,None,Mostly Cloudy
2017-02-12,10:51 PM,35.1,32.2,32,89,29.62,10,Variable,3.5,0,0,None,Partly Cloudy
2017-01-02,12:51 PM,39,32.3,36,89,30.43,7,East,10.4,17.3,0.01,Rain,Light Rain
2017-01-02,3:38 PM,39,32.3,37,93,30.42,9,East,10.4,0,0.02,None,Overcast
2017-01-02,2:51 PM,39,32.3,37,93,30.4,5,ENE,10.4,0,0.02,Rain,Light Rain
2017-01-02,6:25 PM,39,32.3,37.9,96,30.4,2.5,ENE,10.4,0,0.02,Rain,Light Rain
2017-01-02,11:51 PM,39,32.3,37,93,30.26,2.5,ENE,10.4,19.6,0.02,Rain,Light Rain
2017-01-03,1:51 AM,39,32.3,37.9,96,30.22,2.5,ENE,10.4,0,0.04,Rain,Light Rain
2017-01-03,5:51 AM,39,32.3,37.9,96,30.11,5,East,10.4,21.9,0,None,Overcast
2017-12-24,1:51 AM,39,32.3,30.9,73,30.04,10,WNW,10.4,19.6,0,None,Clear
2017-12-24,8:51 PM,39,32.3,28,65,30.01,10,East,10.4,19.6,0,None,Overcast
2017-03-16,4:51 PM,39,32.3,10,30,29.94,10,NW,10.4,19.6,0,None,Clear
2017-03-31,5:04 PM,39,32.3,37.9,96,29.86,2,East,10.4,0,0.03,Rain,Rain
2017-03-31,6:29 PM,39,32.3,37.9,96,29.84,2,East,10.4,19.6,0.1,Rain,Rain
2017-03-31,5:51 PM,39,32.3,37.9,96,29.82,3,East,10.4,21.9,0.09,Rain,Light Rain
2017-11-11,2:51 PM,37,32.4,6.1,28,30.5,10,Variable,5.8,0,0,None,Clear
2017-03-24,3:51 AM,37,32.4,15.1,41,30.48,10,West,5.8,0,0,None,Clear
2017-03-24,4:51 AM,37,32.4,16,42,30.47,10,Variable,5.8,0,0,None,Clear
2017-02-21,2:51 AM,37,32.4,9,31,30.36,10,ENE,5.8,0,0,None,Clear
2017-11-28,3:51 AM,37,32.4,23,57,30.35,10,Variable,5.8,0,0,None,Clear
2017-11-15,6:51 AM,37,32.4,28.9,73,30.3,10,Variable,5.8,0,0,None,Clear
2017-12-21,10:51 PM,37,32.4,14,39,30.28,10,NE,5.8,0,0,None,Mostly Cloudy
2017-12-21,11:51 AM,37,32.4,17.1,44,30.2,10,Variable,5.8,0,0,None,Clear
2017-03-20,9:51 AM,37,32.4,17.1,44,30.15,10,Variable,5.8,0,0,None,Clear
2017-12-08,2:51 AM,37,32.4,21.9,54,30.05,10,Variable,5.8,0,0,None,Clear
2017-02-02,2:51 AM,37,32.4,21.9,54,30.05,10,WNW,5.8,0,0,None,Clear
2017-12-07,6:51 AM,37,32.4,21.9,54,30,10,West,5.8,0,0,None,Clear
2017-11-20,4:51 AM,37,32.4,24.1,59,29.93,10,Variable,5.8,18.4,0,None,Mostly Cloudy
2017-01-29,8:51 AM,37,32.4,24.1,59,29.73,10,Variable,5.8,0,0,None,Overcast
2017-01-29,2:51 AM,37,32.4,23,57,29.7,10,Variable,5.8,0,0,None,Clear
2017-02-07,9:51 PM,37,32.4,37,100,29.67,1.5,ESE,5.8,0,0,None,Overcast
2017-02-15,7:16 PM,37,32.4,30.9,79,29.41,10,Variable,5.8,0,0,None,Overcast
2017-01-02,2:46 PM,39.2,32.5,37.4,93,30.42,5,ENE,10.4,16.1,0.02,Rain,Light Rain
2017-01-03,8:18 AM,39.9,32.5,39,97,30.05,4,ENE,12.7,25.3,0,None,Overcast
2017-01-03,11:00 AM,39.9,32.5,39.9,100,29.95,2,ENE,12.7,28.8,0,Rain,Light Rain
2017-03-31,5:57 PM,39.9,32.5,37.9,93,29.84,1.8,ENE,12.7,21.9,0.01,Rain,Heavy Rain
2017-01-23,5:51 AM,41,32.5,35.1,79,29.83,10,ENE,17.3,32.2,0,None,Overcast
2017-02-14,6:51 PM,39.9,32.5,23,51,29.79,10,WSW,12.7,18.4,0,None,Clear
2017-11-19,11:51 PM,39.9,32.5,28.9,65,29.79,10,West,12.7,19.6,0,None,Overcast
2017-01-03,1:51 PM,41,32.5,41,100,29.72,2,ENE,17.3,27.6,0.08,Rain,Rain
2017-04-07,9:51 PM,41,32.5,26.1,55,29.63,10,WNW,17.3,25.3,0,None,Overcast
2017-01-02,5:51 AM,37.9,32.7,24.1,57,30.47,10,ENE,6.9,0,0,None,Clear
2017-01-02,4:51 AM,37.9,32.7,25,60,30.47,10,NE,6.9,0,0,None,Clear
2017-03-26,4:51 AM,37.9,32.7,35.1,89,30.41,8,Variable,6.9,0,0.04,Rain,Light Rain
2017-01-15,2:51 PM,37.9,32.7,19.9,48,30.32,10,West,6.9,0,0,None,Clear
2017-03-27,12:43 AM,37.9,32.7,37,97,30.31,3,ENE,6.9,0,0,None,Overcast
2017-03-27,1:17 AM,37.9,32.7,37,97,30.3,3,Variable,6.9,0,0,None,Overcast
2017-12-21,6:51 PM,37.9,32.7,15.1,39,30.27,10,North,6.9,0,0,None,Overcast
2017-03-27,3:51 AM,37.9,32.7,37,97,30.2,3,ENE,6.9,0,0,None,Overcast
2017-03-27,6:51 AM,37.9,32.7,37.9,100,30.14,2.5,ENE,6.9,0,0.01,Rain,Light Rain
2017-12-24,4:51 AM,37.9,32.7,28,68,30.13,10,WNW,6.9,0,0,None,Clear
2017-12-23,5:37 AM,37.9,32.7,37,97,30.08,2.5,East,6.9,0,0.02,Rain,Light Rain
2017-02-06,5:51 AM,37.9,32.7,19.9,48,30.05,10,WNW,6.9,0,0,None,Clear
2017-12-11,6:51 PM,37.9,32.7,21,51,30.01,10,West,6.9,0,0,None,Clear
2017-02-26,10:51 AM,37.9,32.7,15.1,39,30,10,Variable,6.9,24.2,0,None,Clear
2017-01-17,11:01 PM,37.9,32.7,37,97,30,2.5,East,6.9,0,0,None,Overcast
2017-02-11,10:51 AM,37.9,32.7,24.1,57,29.96,10,WNW,6.9,0,0,None,Clear
2017-01-18,2:20 AM,37.9,32.7,37.9,100,29.93,3,ENE,6.9,0,0,Rain,Light Rain
2017-02-17,9:51 PM,37.9,32.7,15.1,39,29.91,10,West,6.9,0,0,None,Clear
2017-01-18,2:51 AM,37.9,32.7,37.9,100,29.9,4,ENE,6.9,0,0.01,None,Overcast
2017-02-17,12:51 PM,37.9,32.7,15.1,39,29.82,10,Variable,6.9,17.3,0,None,Clear
2017-02-14,2:51 PM,37.9,32.7,21,51,29.81,10,Variable,6.9,0,0,None,Clear
2017-02-15,12:51 AM,37.9,32.7,27,65,29.69,10,WSW,6.9,0,0,None,Clear
2017-01-25,6:51 AM,37.9,32.7,28,68,29.6,10,WNW,6.9,0,0,None,Mostly Cloudy
2017-01-24,7:44 PM,37.9,32.7,35.1,89,29.43,10,Variable,6.9,17.3,0.02,Rain,Light Rain
2017-02-15,7:51 PM,37.9,32.7,28.9,70,29.4,10,WNW,6.9,0,0,None,Overcast
2017-01-02,9:51 AM,39,32.8,34,82,30.5,10,ENE,9.2,0,0.01,None,Overcast
2017-03-26,10:35 AM,39,32.8,33.1,79,30.49,10,East,9.2,0,0,None,Overcast
2017-01-02,11:51 AM,39,32.8,34,82,30.45,10,East,9.2,0,0,Rain,Light Rain
2017-03-26,1:51 PM,39,32.8,32,76,30.45,10,ENE,9.2,0,0,None,Overcast
2017-01-02,1:51 PM,39,32.8,36,89,30.4,5,East,9.2,0,0.02,Rain,Light Rain
2017-01-02,6:34 PM,39,32.8,37.9,96,30.39,3,ENE,9.2,0,0.02,Rain,Light Rain
2017-11-15,7:51 AM,39,32.8,28,65,30.31,10,ENE,9.2,0,0,None,Clear
2017-03-27,1:47 AM,37.4,32.8,37.4,100,30.28,3,Variable,5.8,0,0,None,Overcast
2017-01-03,2:18 AM,39,32.8,37.9,96,30.22,3,ENE,9.2,18.4,0.02,Rain,Light Rain
2017-11-08,12:25 AM,39,32.8,37,93,30.19,10,NE,9.2,17.3,0,None,Overcast
2017-01-03,4:51 AM,39,32.8,37.9,96,30.13,4,ENE,9.2,20.7,0,None,Overcast
2017-12-24,3:51 PM,39,32.8,24.1,55,30.12,10,ENE,9.2,18.4,0,None,Clear
2017-12-23,12:51 AM,39,32.8,36,89,30.11,5,ENE,9.2,0,0,None,Overcast
2017-01-17,8:32 PM,39,32.8,37.9,96,30.05,2.5,East,9.2,0,0.01,Rain,Light Rain
2017-12-23,8:31 AM,39,32.8,37.9,96,29.99,2.5,East,9.2,0,0.02,Rain,Light Rain
2017-11-27,5:51 AM,39,32.8,24.1,55,29.99,10,West,9.2,20.7,0,None,Clear
2017-02-07,9:41 AM,39,32.8,37,93,29.96,3,ENE,9.2,0,0,None,Overcast
2017-02-07,10:09 AM,39,32.8,37,93,29.95,3,East,9.2,0,0,None,Overcast
2017-03-16,5:51 PM,39,32.8,8.1,28,29.94,10,West,9.2,19.6,0,None,Clear
2017-01-18,1:51 PM,39,32.8,37,93,29.94,9,NNW,9.2,0,0,None,Overcast
2017-02-07,9:51 AM,39,32.8,37,93,29.93,3,ENE,9.2,0,0,None,Overcast
2017-03-31,4:02 PM,39,32.8,37,93,29.9,3,East,9.2,21.9,0.02,Rain,Light Rain
2017-11-20,2:51 AM,39,32.8,26.1,60,29.87,10,WNW,9.2,17.3,0,None,Overcast
2017-01-03,11:51 AM,41,32.8,39.9,96,29.86,4,ENE,16.1,28.8,0.04,Rain,Light Rain
2017-01-03,12:41 PM,41,32.8,41,100,29.83,2,East,16.1,27.6,0.05,Rain,Rain
2017-02-17,1:51 PM,39,32.8,14,36,29.81,10,NW,9.2,0,0,None,Clear
2017-03-31,8:16 PM,39,32.8,37.9,96,29.77,2,East,9.2,26.5,0.06,Rain,Heavy Rain
2017-01-29,6:51 PM,39,32.8,16,39,29.73,10,West,9.2,0,0,None,Clear
2017-04-06,2:23 PM,41,32.8,39.9,96,29.47,2.5,ENE,16.1,27.6,0,None,Overcast
2017-11-08,3:51 AM,39.9,32.9,36,86,30.18,10,NE,11.5,18.4,0,None,Overcast
2017-03-31,11:36 AM,39.9,32.9,39,97,30.03,1.5,ESE,11.5,18.4,0.03,Rain,Light Rain
2017-03-02,7:51 PM,39.9,32.9,9,28,30.02,10,WNW,11.5,25.3,0,None,Clear
2017-11-17,6:51 AM,39.9,32.9,24.1,53,30.02,10,WNW,11.5,31.1,0,None,Partly Cloudy
2017-11-17,5:51 AM,39.9,32.9,25,55,30.01,10,NW,11.5,25.3,0,None,Clear
2017-01-03,10:25 AM,39.9,32.9,39.9,100,29.99,3,ENE,11.5,19.6,0,Rain,Light Rain
2017-03-31,1:51 PM,39.9,32.9,37.9,93,29.95,3,ESE,11.5,19.6,0.04,Rain,Light Rain
2017-01-27,5:51 PM,39.9,32.9,23,51,29.6,10,WNW,11.5,21.9,0,None,Overcast
2017-01-23,6:51 AM,41,33.1,34,76,29.82,10,East,15,28.8,0,None,Overcast
2017-01-23,4:51 AM,41,33.1,37,86,29.82,10,ENE,15,32.2,0,None,Overcast
2017-01-23,3:51 AM,42.1,33.1,37.9,85,29.82,10,ENE,20.7,33.4,0,None,Overcast
2017-01-03,1:43 PM,41,33.1,41,100,29.76,2,ENE,15,24.2,0.06,Rain,Rain
2017-04-07,11:51 PM,41,33.1,26.1,55,29.67,10,West,15,23,0,None,Overcast
2017-04-06,2:51 PM,42.1,33.1,41,96,29.4,4,ENE,20.7,27.6,0,Rain,Light Rain
2017-01-02,8:51 AM,37,33.3,33.1,86,30.49,7,Variable,4.6,0,0.02,None,Overcast
2017-01-16,10:51 AM,36,33.3,21,55,30.46,10,Variable,3.5,0,0,None,Clear
2017-01-10,3:51 PM,36,33.3,28.9,76,30.45,10,Variable,3.5,0,0,None,Overcast
2017-11-28,7:51 AM,37,33.3,25,62,30.43,10,Variable,4.6,0,0,None,Clear
2017-11-28,5:51 AM,36,33.3,26.1,67,30.4,10,Variable,3.5,0,0,None,Clear
2017-02-21,7:51 AM,36,33.3,19,50,30.39,10,ENE,3.5,0,0,None,Clear
2017-01-15,6:51 PM,36,33.3,19.9,52,30.38,10,WNW,3.5,0,0,None,Clear
2017-11-28,4:51 AM,37,33.3,21,52,30.37,10,Variable,4.6,0,0,None,Clear
2017-01-15,4:51 PM,37,33.3,19.9,50,30.34,10,WNW,4.6,0,0,None,Clear
2017-11-14,5:51 AM,36,33.3,30,79,30.31,10,Variable,3.5,0,0,None,Clear
2017-11-14,4:51 AM,37,33.3,30,76,30.3,10,Variable,4.6,0,0,None,Clear
2017-12-22,1:51 AM,36,33.3,18,48,30.29,10,Variable,3.5,0,0,None,Clear
2017-12-21,9:51 PM,37,33.3,15.1,41,30.28,10,NE,4.6,0,0,None,Clear
2017-03-17,11:51 AM,37,33.3,15.1,41,30.26,10,WNW,4.6,0,0,None,Clear
2017-12-17,3:51 PM,37,33.3,25,62,30.24,10,NE,4.6,0,0,None,Clear
2017-12-17,2:51 PM,37,33.3,24.1,59,30.23,10,NE,4.6,0,0,None,Clear
2017-12-16,8:51 PM,37,33.3,24.1,59,30.15,10,Variable,4.6,0,0,None,Overcast
2017-12-16,7:51 PM,37,33.3,25,62,30.14,10,WNW,4.6,0,0,None,Overcast
2017-12-18,7:51 AM,36,33.3,32,86,30.12,10,ENE,3.5,0,0,None,Overcast
2017-02-02,6:51 PM,37,33.3,19.9,50,30.12,10,Variable,4.6,0,0,None,Clear
2017-02-06,6:51 AM,37,33.3,19.9,50,30.08,10,Variable,4.6,0,0,None,Mostly Cloudy
2017-11-18,12:51 AM,37,33.3,17.1,44,30.04,10,West,4.6,0,0,None,Clear
2017-11-24,1:51 AM,36,33.3,21,55,30.03,10,Variable,3.5,0,0,None,Clear
2017-11-24,3:51 AM,36,33.3,21,55,30.03,10,West,3.5,0,0,None,Clear
2017-11-24,12:51 AM,37,33.3,21,52,30.03,10,WNW,4.6,0,0,None,Clear
2017-12-08,2:51 PM,37,33.3,14,39,30.02,10,Variable,4.6,0,0,None,Clear
2017-12-08,7:51 PM,36,33.3,16,44,30.01,10,Variable,3.5,0,0,None,Overcast
2017-12-10,7:51 PM,36,33.3,21.9,57,30,10,Variable,3.5,16.1,0,None,Clear
2017-12-16,1:51 PM,36,33.3,21,55,29.98,10,Variable,3.5,19.6,0,None,Overcast
2017-02-17,11:51 PM,37,33.3,15.1,41,29.89,10,WNW,4.6,0,0,None,Clear
2017-02-18,12:51 AM,37,33.3,15.1,41,29.89,10,WNW,4.6,0,0,None,Clear
2017-01-29,10:51 PM,36,33.3,19,50,29.73,10,Variable,3.5,0,0,None,Clear
2017-04-01,7:51 AM,37,33.3,35.1,93,29.73,10,Variable,4.6,0,0,None,Overcast
2017-01-29,9:51 PM,37,33.3,18,46,29.72,10,Variable,4.6,0,0,None,Clear
2017-01-29,5:51 AM,36,33.3,21.9,57,29.7,10,Variable,3.5,0,0,None,Mostly Cloudy
2017-01-29,1:51 AM,37,33.3,21.9,54,29.7,10,Variable,4.6,0,0,None,Clear
2017-01-25,5:51 AM,37,33.3,28,70,29.58,10,Variable,4.6,16.1,0,None,Mostly Cloudy
2017-01-25,4:51 AM,37,33.3,28.9,73,29.57,10,Variable,4.6,0,0,None,Overcast
2017-01-24,4:58 PM,37,33.3,36,96,29.39,4,Variable,4.6,0,0.02,Rain,Light Rain
2017-01-24,12:18 PM,36,33.3,35.1,97,29.34,2.5,Variable,3.5,19.6,0.01,Rain,Light Rain
2017-01-02,3:02 PM,39,33.4,37,93,30.43,5,ENE,8.1,0,0.01,Rain,Light Rain
2017-01-02,4:51 PM,39,33.4,37,93,30.39,4,East,8.1,0,0.02,Rain,Light Rain
2017-03-26,8:51 PM,39,33.4,37,93,30.37,4,ESE,8.1,0,0,None,Overcast
2017-01-02,10:51 PM,39,33.4,37.9,96,30.3,5,ENE,8.1,0,0,None,Overcast
2017-03-30,7:51 AM,39.9,33.4,21,47,30.27,10,NE,10.4,0,0,None,Clear
2017-11-08,12:35 AM,39,33.4,36,89,30.19,10,NE,8.1,19.6,0,None,Overcast
2017-11-08,12:51 AM,39,33.4,37,93,30.17,10,NE,8.1,20.7,0,None,Overcast
2017-01-03,3:51 AM,39,33.4,37.9,96,30.16,6,ENE,8.1,17.3,0.01,None,Overcast
2017-03-27,7:43 AM,39,33.4,37.9,96,30.14,1.5,ESE,8.1,0,0,Rain,Light Rain
2017-01-17,2:07 PM,39,33.4,37,93,30.13,2.5,ESE,8.1,0,0,None,Overcast
2017-01-17,3:02 PM,39,33.4,37,93,30.12,3,ESE,8.1,0,0,None,Overcast
2017-12-24,3:51 AM,39,33.4,28,65,30.12,10,WNW,8.1,0,0,None,Clear
2017-12-24,7:51 PM,39,33.4,27,62,30.06,10,ENE,8.1,0,0,None,Overcast
2017-03-02,8:51 PM,39,33.4,8.1,28,30.05,10,WNW,8.1,16.1,0,None,Clear
2017-12-23,7:51 AM,39,33.4,37,93,30.01,4,ENE,8.1,0,0.02,Rain,Light Rain
2017-01-17,9:51 PM,39,33.4,37,93,30,5,ENE,8.1,0,0.02,None,Overcast
2017-12-11,3:51 PM,39,33.4,19.9,46,29.99,10,WNW,8.1,0,0,None,Clear
2017-12-23,9:58 AM,39,33.4,37.9,96,29.97,3,ENE,8.1,0,0,Rain,Light Rain
2017-12-23,9:51 AM,39,33.4,37.9,96,29.95,2,ENE,8.1,0,0.07,Rain,Light Rain
2017-02-07,8:32 AM,39,33.4,37.9,96,29.95,2,NE,8.1,0,0.04,Rain,Light Rain
2017-02-07,8:51 AM,39,33.4,37.9,96,29.94,2,NE,8.1,0,0.05,None,Overcast
2017-12-11,11:51 PM,39,33.4,21.9,50,29.94,10,South,8.1,0,0,None,Mostly Cloudy
2017-12-23,10:25 AM,39,33.4,37.9,96,29.93,2,ENE,8.1,0,0.01,Rain,Light Rain
2017-03-22,5:51 AM,39.9,33.4,18,41,29.93,10,NW,10.4,21.9,0,None,Clear
2017-03-31,3:51 PM,39.9,33.4,37.9,93,29.89,2.5,ESE,10.4,19.6,0.06,Rain,Rain
2017-02-01,4:51 AM,39.9,33.4,26.1,58,29.86,10,WSW,10.4,17.3,0,None,Clear
2017-03-31,6:19 PM,39,33.4,37.9,96,29.84,1.5,East,8.1,19.6,0.07,Rain,Rain
2017-03-31,7:26 PM,39,33.4,37.9,96,29.81,3,East,8.1,19.6,0.1,Rain,Rain
2017-04-08,2:51 AM,39.9,33.4,27,60,29.7,10,NW,10.4,20.7,0,None,Overcast
2017-01-25,8:51 AM,39,33.4,28,65,29.64,10,WNW,8.1,0,0,None,Clear
2017-03-24,7:51 AM,37.9,33.5,21,51,30.46,10,Variable,5.8,18.4,0,None,Overcast
2017-03-26,9:51 AM,37.9,33.5,33.1,83,30.46,10,East,5.8,0,0,None,Overcast
2017-01-02,2:51 AM,37.9,33.5,27,65,30.44,10,Variable,5.8,0,0,None,Clear
2017-11-14,7:51 AM,37.9,33.5,30.9,76,30.34,10,North,5.8,0,0,None,Clear
2017-11-15,3:51 AM,37.9,33.5,28.9,70,30.3,10,NNE,5.8,0,0,None,Clear
2017-11-15,2:51 AM,37.9,33.5,28.9,70,30.3,10,Variable,5.8,0,0,None,Mostly Cloudy
2017-11-15,5:51 AM,37.9,33.5,30.9,76,30.29,10,Variable,5.8,0,0,None,Clear
2017-03-27,4:29 AM,37.9,33.5,37,97,30.2,2.5,ENE,5.8,0,0,None,Overcast
2017-12-21,1:51 PM,37.9,33.5,16,41,30.19,10,Variable,5.8,0,0,None,Clear
2017-03-27,5:51 AM,37.9,33.5,37.9,100,30.16,2.5,East,5.8,0,0,None,Overcast
2017-03-20,12:51 AM,37.9,33.5,15.1,39,30.14,10,NW,5.8,0,0,None,Clear
2017-12-23,5:51 AM,37.9,33.5,37,97,30.06,2.5,Variable,5.8,0,0.03,Rain,Light Rain
2017-11-24,8:51 AM,37.9,33.5,21.9,53,30.05,10,WNW,5.8,0,0,None,Clear
2017-12-11,7:51 PM,37.9,33.5,21,51,30.01,10,West,5.8,0,0,None,Mostly Cloudy
2017-12-20,6:51 PM,37.9,33.5,16,41,30,10,Variable,5.8,19.6,0,None,Clear
2017-02-11,4:51 AM,37.9,33.5,23,55,29.97,10,Variable,5.8,0,0,None,Overcast
2017-02-11,9:51 AM,37.9,33.5,23,55,29.95,10,West,5.8,0,0,None,Clear
2017-01-18,1:12 AM,37.9,33.5,37,97,29.94,4,Variable,5.8,0,0,None,Overcast
2017-02-07,6:42 AM,37.9,33.5,37,97,29.93,3,ENE,5.8,0,0.06,Rain,Light Rain
2017-02-17,10:51 PM,37.9,33.5,15.1,39,29.9,10,West,5.8,0,0,None,Clear
2017-02-18,6:51 AM,37.9,33.5,19,47,29.85,10,Variable,5.8,0,0,None,Clear
2017-01-03,12:51 PM,41,33.5,41,100,29.8,2.5,ENE,13.8,25.3,0.07,Rain,Rain
2017-02-07,11:23 PM,37.9,33.5,37.9,100,29.64,0.8,ENE,5.8,0,0,None,Mist
2017-01-25,7:51 AM,37.9,33.5,28,68,29.62,10,West,5.8,0,0,None,Clear
2017-02-15,3:51 AM,37.9,33.5,30,73,29.61,10,WSW,5.8,0,0,None,Clear
2017-02-07,11:51 PM,37.9,33.5,37.9,100,29.6,0.5,ENE,5.8,0,0,Fog,Fog
2017-02-13,12:51 AM,37.9,33.5,34,86,29.58,10,West,5.8,0,0,None,Overcast
2017-04-06,1:18 PM,41,33.5,39.9,96,29.55,1.8,ENE,13.8,23,0.03,None,Overcast
2017-01-24,7:06 PM,37.9,33.5,35.1,89,29.42,10,Variable,5.8,20.7,0,Rain,Light Rain
2017-04-06,3:28 PM,42.1,33.6,41,96,29.34,1.2,ENE,18.4,29.9,0.01,None,Overcast
2017-03-26,2:42 PM,39.9,33.9,33.1,77,30.45,10,East,9.2,0,0,None,Overcast
2017-01-02,3:51 PM,39.9,33.9,37,89,30.4,7,NE,9.2,17.3,0.02,None,Overcast
2017-11-08,5:51 AM,39.9,33.9,34,79,30.22,10,ENE,9.2,0,0,None,Overcast
2017-03-30,2:51 AM,39.9,33.9,21,47,30.21,10,NNE,9.2,17.3,0,None,Clear
2017-03-30,1:51 AM,41,33.9,21.9,47,30.21,10,NE,12.7,17.3,0,None,Clear
2017-11-07,11:40 PM,39.9,33.9,37.9,93,30.19,10,NE,9.2,16.1,0.02,None,Overcast
2017-11-08,2:58 AM,39.9,33.9,36,86,30.19,10,NE,9.2,19.6,0,None,Overcast
2017-12-24,2:51 PM,39.9,33.9,26.1,58,30.14,10,ENE,9.2,0,0,None,Clear
2017-02-26,5:51 PM,39.9,33.9,14,35,30.12,10,West,9.2,0,0,None,Scattered Clouds
2017-11-17,8:51 AM,39.9,33.9,25,55,30.06,10,NW,9.2,24.2,0,None,Partly Cloudy
2017-11-20,9:51 AM,39.9,33.9,24.1,53,30.04,10,West,9.2,0,0,None,Mostly Cloudy
2017-11-22,6:51 PM,41,33.9,25,53,30.02,10,WNW,12.7,28.8,0,None,Overcast
2017-12-06,9:51 AM,41,33.9,19,41,30.01,10,WNW,12.7,20.7,0,None,Clear
2017-12-24,12:51 AM,39.9,33.9,32,73,29.99,10,WNW,9.2,18.4,0,None,Clear
2017-12-20,5:51 PM,39.9,33.9,15.1,36,29.98,10,WNW,9.2,0,0,None,Clear
2017-11-26,9:51 PM,39.9,33.9,24.1,53,29.98,10,WSW,9.2,0,0,None,Clear
2017-11-26,11:51 PM,39.9,33.9,24.1,53,29.96,10,Variable,9.2,0,0,None,Clear
2017-02-17,6:51 PM,39.9,33.9,15.1,36,29.87,10,WNW,9.2,0,0,None,Clear
2017-01-23,5:30 AM,41,33.9,36,82,29.84,10,East,12.7,28.8,0,None,Overcast
2017-01-03,1:06 PM,41,33.9,41,100,29.8,3,ENE,12.7,25.3,0.02,Rain,Light Rain
2017-01-03,2:05 PM,41,33.9,41,100,29.73,4,ENE,12.7,29.9,0.01,Rain,Light Rain
2017-01-03,3:11 PM,42.1,33.9,41,96,29.7,2,ENE,17.3,25.3,0.01,Rain,Light Rain
2017-04-08,3:51 AM,41,33.9,25,53,29.7,10,WNW,12.7,25.3,0,None,Overcast
2017-04-08,12:51 AM,39.9,33.9,27,60,29.68,10,West,9.2,19.6,0,None,Overcast
2017-04-07,10:51 PM,41,33.9,26.1,55,29.65,10,WNW,12.7,27.6,0,None,Overcast
2017-01-27,6:51 AM,41,33.9,25,53,29.64,10,West,12.7,26.5,0,None,Overcast
2017-01-03,4:41 PM,42.1,33.9,42.1,100,29.62,5,ENE,17.3,27.6,0.11,Rain,Light Rain
2017-01-04,7:51 PM,41,33.9,12.9,32,29.62,10,WNW,12.7,29.9,0,None,Clear
2017-02-15,5:51 PM,41,33.9,30.9,67,29.35,10,West,12.7,21.9,0,None,Overcast
2017-04-06,3:21 PM,42.1,33.9,41,96,29.35,2,ENE,17.3,28.8,0.01,None,Overcast
2017-01-02,6:51 AM,39,34,24.1,55,30.47,10,Variable,6.9,0,0,None,Mostly Cloudy
2017-01-02,3:51 AM,39,34,24.1,55,30.45,10,East,6.9,0,0,None,Clear
2017-03-06,5:51 PM,39,34,21.9,50,30.43,10,South,6.9,0,0,None,Overcast
2017-11-28,8:51 AM,39,34,25,57,30.43,10,Variable,6.9,0,0,None,Clear
2017-02-21,12:51 AM,39,34,9,29,30.36,10,Variable,6.9,0,0,None,Clear
2017-03-03,3:51 PM,39,34,6.1,26,30.21,10,Variable,6.9,19.6,0,None,Mostly Cloudy
2017-02-26,6:51 PM,39,34,17.1,41,30.16,10,West,6.9,0,0,None,Overcast
2017-12-23,2:51 AM,39,34,37,93,30.11,4,NE,6.9,0,0,None,Overcast
2017-01-17,3:37 PM,39,34,37,93,30.11,3,SE,6.9,0,0.01,None,Overcast
2017-01-17,6:19 PM,39,34,37,93,30.1,2.5,Variable,6.9,0,0.02,Rain,Rain
2017-03-31,8:38 AM,39,34,37.9,96,30.09,2,Variable,6.9,0,0.02,Rain,Light Rain
2017-01-17,7:01 PM,39,34,37,93,30.08,2,ENE,6.9,0,0.02,Rain,Rain
2017-01-17,7:17 PM,39,34,37,93,30.07,2.5,Variable,6.9,0,0.06,Rain,Light Rain
2017-03-31,8:51 AM,39,34,37.9,96,30.06,3,SE,6.9,0,0.02,Rain,Light Rain
2017-12-16,5:51 PM,39,34,24.1,55,30.05,10,Variable,6.9,17.3,0,None,Overcast
2017-01-17,7:51 PM,39,34,37.9,96,30.04,2,Variable,6.9,0,0.07,Rain,Light Rain
2017-01-17,10:16 PM,39,34,37.9,96,30.01,2.5,Variable,6.9,0,0,Rain,Light Rain
2017-12-23,8:40 AM,39,34,37.9,96,30,2,Variable,6.9,0,0.03,Rain,Light Rain
2017-02-07,11:03 AM,39,34,37,93,29.97,1.8,ENE,6.9,0,0.03,Rain,Rain
2017-01-18,9:51 AM,39,34,37.9,96,29.94,4,NE,6.9,0,0,None,Overcast
2017-12-23,10:19 AM,39,34,37.9,96,29.93,1.5,ENE,6.9,0,0.01,Rain,Light Rain
2017-02-07,6:29 AM,39,34,37,93,29.93,2,NE,6.9,0,0.03,Rain,Rain
2017-02-17,8:51 PM,39,34,15.1,38,29.89,10,West,6.9,0,0,None,Clear
2017-03-31,4:38 PM,39,34,37.9,96,29.88,2.5,Variable,6.9,17.3,0.06,Rain,Rain
2017-02-14,3:51 PM,39,34,21,49,29.81,10,Variable,6.9,0,0,None,Clear
2017-02-14,5:51 PM,39,34,21.9,50,29.78,10,West,6.9,0,0,None,Clear
2017-01-29,7:51 PM,39,34,16,39,29.73,10,WSW,6.9,0,0,None,Mostly Cloudy
2017-01-28,11:51 AM,39,34,19,45,29.68,10,West,6.9,18.4,0,None,Overcast
2017-01-23,2:51 AM,42.1,34.2,39,89,29.81,10,East,16.1,32.2,0,None,Overcast
2017-01-03,2:37 PM,42.1,34.2,41,96,29.72,2,ENE,16.1,26.5,0.03,Rain,Light Rain
2017-01-03,2:51 PM,42.1,34.2,41,96,29.69,3,ENE,16.1,25.3,0.03,Rain,Light Rain
2017-01-16,8:51 PM,41,34.3,24.1,51,30.33,10,WSW,11.5,16.1,0,None,Overcast
2017-11-08,8:51 AM,41,34.3,33.1,73,30.27,10,ENE,11.5,17.3,0,None,Overcast
2017-11-08,4:51 AM,41,34.3,35.1,79,30.2,10,ENE,11.5,18.4,0,None,Overcast
2017-03-28,7:29 PM,41,34.3,39,93,29.92,2.5,ENE,11.5,0,0.16,Rain,Rain
2017-02-17,2:51 PM,41,34.3,14,33,29.81,10,WNW,11.5,19.6,0,None,Clear
2017-04-06,7:51 AM,41,34.3,39,93,29.78,6,ENE,11.5,18.4,0.01,Rain,Light Rain
2017-04-06,10:20 AM,41,34.3,39.9,96,29.72,2,East,11.5,0,0.01,Rain,Light Rain
2017-01-27,3:51 AM,41,34.3,27,57,29.62,10,West,11.5,27.6,0,None,Clear
2017-04-06,1:51 PM,41,34.3,41,100,29.49,1.8,East,11.5,26.5,0.05,Rain,Light Rain
2017-03-23,1:51 PM,37.9,34.4,0,20,30.56,10,Variable,4.6,0,0,None,Clear
2017-01-10,6:51 PM,37.9,34.4,32,79,30.38,10,Variable,4.6,0,0,None,Overcast
2017-11-30,5:51 AM,37.9,34.4,25,60,30.34,10,NE,4.6,0,0,None,Clear
2017-11-14,2:51 AM,37.9,34.4,30,73,30.3,10,Variable,4.6,0,0,None,Clear
2017-11-15,4:51 AM,37.9,34.4,30,73,30.3,10,Variable,4.6,0,0,None,Clear
2017-12-22,9:51 AM,37.9,34.4,21.9,53,30.27,10,Variable,4.6,0,0,None,Overcast
2017-03-30,6:51 AM,37.9,34.4,21.9,53,30.26,10,NNE,4.6,0,0,None,Clear
2017-12-21,7:51 PM,37.9,34.4,14,38,30.26,10,North,4.6,0,0,None,Clear
2017-03-31,3:39 AM,37.9,34.4,36,93,30.16,2.5,Variable,4.6,0,0.08,Rain,Rain
2017-03-31,4:12 AM,37.9,34.4,36,93,30.14,4,Variable,4.6,0,0.04,Rain,Light Rain
2017-02-12,1:51 AM,37.9,34.4,28,68,30.12,9,ENE,4.6,0,0,None,Clear
2017-12-18,8:51 AM,37.9,34.4,33.1,83,30.11,10,North,4.6,0,0,None,Overcast
2017-03-31,4:51 AM,37.9,34.4,36,93,30.11,8,South,4.6,0,0.07,None,Overcast
2017-12-23,5:59 AM,37.9,34.4,37,97,30.08,3,ENE,4.6,0,0,Rain,Light Rain
2017-12-23,5:22 AM,37.9,34.4,37,97,30.08,2.5,Variable,4.6,0,0.01,Rain,Light Rain
2017-12-23,5:29 AM,37.9,34.4,37,97,30.08,3,Variable,4.6,0,0.01,Rain,Light Rain
2017-11-17,11:51 PM,37.9,34.4,16,41,30.07,10,Variable,4.6,0,0,None,Clear
2017-12-23,4:51 AM,37.9,34.4,37,97,30.06,3,Variable,4.6,0,0.01,Rain,Light Rain
2017-12-08,1:51 PM,37.9,34.4,15.1,39,30.04,10,Variable,4.6,0,0,None,Partly Cloudy
2017-01-17,11:59 PM,37.9,34.4,37,97,29.98,2,Variable,4.6,0,0.01,Rain,Light Rain
2017-03-16,6:51 PM,37.9,34.4,9,30,29.98,10,Variable,4.6,19.6,0,None,Clear
2017-12-07,4:51 AM,37.9,34.4,21,51,29.98,10,Variable,4.6,0,0,None,Clear
2017-12-10,1:51 PM,37.9,34.4,23,55,29.91,10,Variable,4.6,17.3,0,None,Unknown
2017-11-19,10:51 PM,37.9,34.4,33.1,83,29.78,10,Variable,4.6,0,0,None,Overcast
2017-01-28,12:51 PM,37.9,34.4,19.9,48,29.66,10,Variable,4.6,19.6,0,None,Overcast
2017-02-07,10:51 PM,37.9,34.4,37.9,100,29.65,1.2,ENE,4.6,0,0,None,Overcast
2017-03-24,1:51 AM,37,34.5,18,46,30.51,10,SSW,3.5,0,0,None,Clear
2017-01-02,10:51 AM,39.9,34.5,34,79,30.49,10,ENE,8.1,0,0,Rain,Light Rain
2017-03-24,8:51 AM,39.9,34.5,21.9,49,30.44,10,South,8.1,0,0,None,Overcast
2017-03-26,2:51 PM,39.9,34.5,33.1,77,30.43,10,ENE,8.1,0,0,None,Overcast
2017-01-02,12:51 AM,39.9,34.5,23,51,30.42,10,ENE,8.1,0,0,None,Clear
2017-11-28,6:51 AM,37,34.5,25,62,30.41,10,Variable,3.5,0,0,None,Clear
2017-03-26,8:07 PM,39.9,34.5,36,86,30.39,6,SE,8.1,17.3,0,None,Overcast
2017-01-15,1:51 PM,37,34.5,19.9,50,30.32,10,Variable,3.5,0,0,None,Clear
2017-12-21,8:51 PM,37,34.5,14,39,30.28,10,Variable,3.5,0,0,None,Clear
2017-03-19,10:51 AM,39.9,34.5,26.1,58,30.2,10,NE,8.1,0,0,None,Mostly Cloudy
2017-11-07,10:51 PM,39.9,34.5,37.9,93,30.17,7,NNE,8.1,17.3,0.05,Rain,Light Rain
2017-03-20,1:51 AM,37,34.5,15.1,41,30.14,10,Variable,3.5,0,0,None,Clear
2017-03-20,2:51 AM,37,34.5,15.1,41,30.13,10,Variable,3.5,0,0,None,Clear
2017-12-23,1:23 AM,39.9,34.5,37,89,30.11,6,NE,8.1,0,0,None,Overcast
2017-03-31,9:28 AM,39.9,34.5,37.9,93,30.07,3,ESE,8.1,0,0.02,Rain,Light Rain
2017-03-31,9:51 AM,39.9,34.5,39,97,30.04,3,ESE,8.1,0,0.03,Rain,Light Rain
2017-11-22,7:51 PM,39.9,34.5,24.1,53,30.04,10,NW,8.1,21.9,0,None,Mostly Cloudy
2017-11-18,1:51 AM,37,34.5,18,46,30.04,10,Variable,3.5,0,0,None,Clear
2017-02-02,12:51 AM,37,34.5,27,67,30.04,10,WNW,3.5,0,0,None,Clear
2017-11-23,11:51 PM,37,34.5,21,52,30.04,10,WNW,3.5,0,0,None,Clear
2017-01-18,6:51 PM,39.9,34.5,37,89,30.04,8,North,8.1,0,0,None,Overcast
2017-02-01,10:51 PM,39.9,34.5,26.1,58,30.04,10,WNW,8.1,0,0,None,Clear
2017-12-08,4:51 PM,37,34.5,15.1,41,30.03,10,West,3.5,0,0,None,Clear
2017-01-18,9:51 PM,39.9,34.5,36,86,30.03,10,NNW,8.1,0,0,None,Overcast
2017-03-31,12:14 PM,39.9,34.5,39,97,30.02,2.5,East,8.1,18.4,0.03,Rain,Light Rain
2017-02-26,11:51 AM,39.9,34.5,16,38,30.02,10,WNW,8.1,18.4,0,None,Mostly Cloudy
2017-02-26,12:51 PM,39.9,34.5,14,35,30.01,10,WNW,8.1,19.6,0,None,Clear
2017-11-23,7:51 PM,39.9,34.5,19.9,45,30.01,10,West,8.1,0,0,None,Clear
2017-11-27,3:51 AM,39.9,34.5,23,51,29.96,10,West,8.1,18.4,0,None,Clear
2017-11-27,2:51 AM,39.9,34.5,24.1,53,29.95,10,West,8.1,0,0,None,Clear
2017-01-18,6:51 AM,39.9,34.5,39,97,29.9,7,ENE,8.1,0,0,None,Overcast
2017-01-18,5:51 AM,39.9,34.5,39,97,29.9,10,NE,8.1,0,0,None,Overcast
2017-01-18,11:51 AM,39.9,34.5,37.9,93,29.9,8,NNE,8.1,0,0,None,Overcast
2017-02-18,2:51 AM,37,34.5,14,39,29.88,10,Variable,3.5,0,0,None,Clear
2017-02-18,4:51 AM,37,34.5,18,46,29.87,10,Variable,3.5,0,0,None,Clear
2017-11-20,1:51 AM,39.9,34.5,26.1,58,29.84,10,West,8.1,18.4,0,None,Overcast
2017-01-28,6:51 PM,37,34.5,21,52,29.72,10,West,3.5,0,0,None,Overcast
2017-01-28,5:51 PM,37,34.5,21,52,29.7,10,Variable,3.5,16.1,0,None,Overcast
2017-04-08,1:51 AM,39.9,34.5,27,60,29.69,10,West,8.1,18.4,0,None,Overcast
2017-01-03,3:39 PM,42.1,34.5,42.1,100,29.68,2.5,ENE,15,23,0.05,Rain,Light Rain
2017-02-09,2:51 AM,39.9,34.5,28,63,29.6,10,ENE,8.1,0,0,None,Overcast
2017-04-06,3:51 PM,42.1,34.5,41,96,29.31,1.5,ENE,15,27.6,0.07,Rain,Rain
2017-04-06,4:27 PM,42.1,34.5,41,96,29.28,2.5,ENE,15,24.2,0.08,Rain,Rain
2017-03-30,8:51 AM,41,34.7,21,45,30.26,10,NNE,10.4,17.3,0,None,Clear
2017-03-31,10:49 AM,41,34.7,39.2,93,30.05,3,SSE,10.4,16.1,0.02,Rain,Light Rain
2017-02-01,9:51 PM,41,34.7,28,60,30.04,10,WNW,10.4,0,0,None,Partly Cloudy
2017-01-20,2:51 AM,41,34.7,30.9,67,30.03,10,East,10.4,0,0,None,Overcast
2017-12-07,12:51 AM,41,34.7,19.9,43,29.99,10,WSW,10.4,17.3,0,None,Overcast
2017-11-17,4:51 AM,41,34.7,25,53,29.99,10,NW,10.4,25.3,0,None,Mostly Cloudy
2017-03-31,12:51 PM,41,34.7,39,93,29.98,5,East,10.4,18.4,0.07,Rain,Light Rain
2017-03-28,8:02 PM,41,34.7,39.9,96,29.94,2.5,NE,10.4,0,0.05,Rain,Rain
2017-03-28,6:58 PM,41,34.7,39,93,29.93,5,ENE,10.4,0,0.01,Rain,Light Rain
2017-02-05,4:51 PM,41,34.7,17.1,38,29.85,10,West,10.4,19.6,0,None,Scattered Clouds
2017-04-06,6:51 AM,41,34.7,39,93,29.83,10,East,10.4,24.2,0.01,None,Overcast
2017-04-06,7:22 AM,41,34.7,39,93,29.82,10,East,10.4,21.9,0,None,Overcast
2017-04-08,5:51 AM,41,34.7,21,45,29.73,10,NW,10.4,20.7,0,None,Scattered Clouds
2017-01-29,11:51 AM,41,34.7,12.9,32,29.71,10,NW,10.4,18.4,0,None,Clear
2017-04-06,10:51 AM,41,34.7,39.9,96,29.68,2,East,10.4,19.6,0.03,Rain,Light Rain
2017-01-27,9:51 AM,41,34.7,23,49,29.66,10,West,10.4,25.3,0,None,Overcast
2017-01-27,2:51 AM,41,34.7,27,57,29.61,10,West,10.4,20.7,0,None,Mostly Cloudy
2017-03-26,11:51 AM,39,34.8,33.1,79,30.48,10,East,5.8,0,0,None,Overcast
2017-03-26,12:51 PM,39,34.8,33.1,79,30.46,10,Variable,5.8,0,0,None,Overcast
2017-02-27,8:51 AM,39,34.8,21.9,50,30.41,10,Variable,5.8,0,0,None,Clear
2017-02-21,8:51 AM,39,34.8,19,45,30.38,10,ENE,5.8,0,0,None,Clear
2017-03-26,11:10 PM,39,34.8,37.9,96,30.36,2.5,ENE,5.8,0,0,None,Overcast
2017-03-26,11:44 PM,39,34.8,37.9,96,30.35,2.5,ENE,5.8,0,0,None,Overcast
2017-03-26,10:51 PM,39,34.8,37.9,96,30.34,3,East,5.8,0,0,None,Overcast
2017-11-30,6:51 AM,39,34.8,24.1,55,30.33,10,ENE,5.8,0,0,None,Clear
2017-03-17,11:51 PM,39,34.8,17.1,41,30.24,10,West,5.8,0,0,None,Clear
2017-12-21,4:51 PM,39,34.8,16,39,30.23,10,Variable,5.8,0,0,None,Clear
2017-03-17,10:51 PM,39,34.8,17.1,41,30.23,10,WSW,5.8,0,0,None,Clear
2017-12-21,3:51 PM,39,34.8,16,39,30.22,10,NW,5.8,0,0,None,Clear
2017-12-21,2:51 PM,39,34.8,16,39,30.19,10,West,5.8,0,0,None,Clear
2017-11-08,1:51 AM,39,34.8,36,89,30.17,10,Variable,5.8,17.3,0,None,Overcast
2017-03-31,2:51 AM,39,34.8,36,89,30.12,5,South,5.8,0,0.07,Rain,Light Rain
2017-03-27,7:51 AM,39,34.8,37.9,96,30.12,1.5,Variable,5.8,0,0,Rain,Light Rain
2017-01-17,1:51 PM,39,34.8,36,89,30.12,3,ESE,5.8,0,0.03,None,Overcast
2017-01-17,6:09 PM,39,34.8,37,93,30.1,3,Variable,5.8,0,0.01,Rain,Light Rain
2017-02-12,12:51 AM,39,34.8,28.9,67,30.1,9,ESE,5.8,0,0,None,Clear
2017-01-17,2:51 PM,39,34.8,37.9,96,30.1,2,Variable,5.8,0,0,None,Overcast
2017-03-31,8:23 AM,39,34.8,37.9,96,30.09,4,Variable,5.8,0,0.01,Rain,Light Rain
2017-12-23,3:51 AM,39,34.8,36,89,30.09,4,ENE,5.8,0,0,None,Overcast
2017-01-17,7:09 PM,39,34.8,37,93,30.08,1.8,East,5.8,0,0.05,Rain,Rain
2017-01-17,5:51 PM,39,34.8,37.9,96,30.08,3,ENE,5.8,0,0.02,Rain,Light Rain
2017-11-23,11:51 AM,39,34.8,19,45,30.07,10,Variable,5.8,0,0,None,Clear
2017-01-17,9:01 PM,39,34.8,37.9,96,30.05,3,ENE,5.8,0,0.01,Rain,Light Rain
2017-01-17,8:44 PM,39,34.8,37.9,96,30.04,3,Variable,5.8,0,0.02,Rain,Light Rain
2017-11-27,12:51 AM,39,34.8,25,57,29.96,10,Variable,5.8,0,0,None,Clear
2017-02-07,8:42 AM,39,34.8,37.9,96,29.95,1.8,ENE,5.8,0,0.04,Rain,Light Rain
2017-02-07,6:59 AM,39,34.8,37,93,29.94,2.5,East,5.8,0,0,Rain,Light Rain
2017-02-05,1:51 PM,39,34.8,19,45,29.86,10,WSW,5.8,0,0,None,Overcast
2017-02-14,11:51 PM,39,34.8,27,62,29.73,10,Variable,5.8,0,0,None,Clear
2017-02-08,12:51 AM,39,34.8,39,100,29.57,1,East,5.8,0,0,None,Mist
2017-02-15,8:51 AM,39,34.8,32,76,29.49,8,ENE,5.8,0,0,None,Overcast
2017-03-26,12:51 AM,42.1,34.9,34,73,30.4,10,East,13.8,21.9,0,None,Overcast
2017-12-07,10:51 AM,42.1,34.9,15.1,34,30.02,10,West,13.8,26.5,0,None,Clear
2017-12-06,8:51 AM,42.1,34.9,18,38,29.99,10,West,13.8,23,0,None,Clear
2017-01-23,2:19 AM,42.1,34.9,39,89,29.84,9,ENE,13.8,29.9,0,None,Overcast
2017-01-03,4:33 PM,42.1,34.9,42.1,100,29.63,2.5,ENE,13.8,28.8,0.11,Rain,Light Rain
2017-04-06,4:17 PM,42.1,34.9,42.1,100,29.31,3,ENE,13.8,0,0.07,Rain,Light Rain
2017-01-17,3:48 PM,39.2,35,37.4,93,30.11,3,ESE,5.8,0,0.01,None,Overcast
2017-01-13,4:51 PM,39.9,35.1,14,35,30.54,10,Variable,6.9,0,0,None,Clear
2017-03-23,2:51 PM,39.9,35.1,0,19,30.53,10,Variable,6.9,0,0,None,Clear
2017-03-26,2:51 AM,39.9,35.1,35.1,83,30.42,6,Variable,6.9,0,0.01,Rain,Light Rain
2017-01-16,12:51 PM,39.9,35.1,21,47,30.4,10,West,6.9,0,0,None,Clear
2017-03-26,8:42 PM,39.9,35.1,37,89,30.39,5,ENE,6.9,0,0,None,Overcast
2017-11-30,7:51 AM,39.9,35.1,27,60,30.32,10,ENE,6.9,0,0,None,Clear
2017-11-15,1:51 AM,39.9,35.1,30,68,30.29,10,Variable,6.9,0,0,None,Overcast
2017-01-17,12:51 AM,39.9,35.1,25,55,30.27,10,West,6.9,19.6,0,None,Overcast
2017-11-08,2:39 AM,39.9,35.1,36,86,30.19,10,ENE,6.9,0,0,None,Overcast
2017-11-07,11:51 PM,39.9,35.1,37.9,93,30.17,10,Variable,6.9,17.3,0.02,None,Overcast
2017-11-08,2:51 AM,39.9,35.1,36,86,30.17,10,NE,6.9,0,0,None,Overcast
2017-12-24,12:51 PM,39.9,35.1,25,55,30.17,10,Variable,6.9,0,0,None,Clear
2017-12-24,1:51 PM,39.9,35.1,25,55,30.16,10,Variable,6.9,0,0,None,Clear
2017-12-22,11:51 PM,39.9,35.1,36,86,30.14,6,ENE,6.9,0,0,None,Mostly Cloudy
2017-01-17,3:51 PM,39.9,35.1,37,89,30.09,3,East,6.9,0,0.01,None,Overcast
2017-01-17,4:51 PM,39.9,35.1,37,89,30.09,4,East,6.9,0,0,None,Overcast
2017-11-17,8:51 PM,39.9,35.1,15.1,36,30.08,10,NW,6.9,0,0,None,Clear
2017-03-31,9:22 AM,39.9,35.1,37.9,93,30.07,1.8,East,6.9,18.4,0.02,Rain,Rain
2017-03-31,9:15 AM,39.9,35.1,39,97,30.07,2,Variable,6.9,0,0.01,Rain,Rain
2017-11-23,12:51 PM,39.9,35.1,17.1,40,30.05,10,WNW,6.9,0,0,None,Clear
2017-03-31,11:51 AM,39.9,35.1,39,97,30.01,3,Variable,6.9,19.6,0.05,Rain,Light Rain
2017-12-06,10:51 PM,39.9,35.1,18,41,30,10,Variable,6.9,18.4,0,None,Clear
2017-02-06,3:51 AM,39.9,35.1,21,47,30,10,NW,6.9,0,0,None,Overcast
2017-12-07,1:51 AM,39.9,35.1,19.9,45,29.99,10,Variable,6.9,0,0,None,Scattered Clouds
2017-01-18,2:38 PM,39.9,35.1,37,89,29.98,10,Variable,6.9,0,0,None,Overcast
2017-01-18,2:51 PM,39.9,35.1,37,89,29.95,10,NNE,6.9,0,0,None,Overcast
2017-01-18,8:51 AM,39.9,35.1,39,97,29.93,5,NE,6.9,0,0,None,Overcast
2017-12-23,10:51 AM,39.9,35.1,39,97,29.87,1.2,ENE,6.9,0,0.04,Rain,Light Rain
2017-01-18,4:51 AM,39.9,35.1,39,97,29.87,10,ENE,6.9,0,0,None,Overcast
2017-11-20,12:51 AM,39.9,35.1,27,60,29.81,10,West,6.9,18.4,0,None,Mostly Cloudy
2017-12-23,12:15 PM,39.9,35.1,39,97,29.8,2.5,ENE,6.9,0,0.02,Rain,Light Rain
2017-12-23,12:32 PM,39.9,35.1,39,97,29.79,2.5,East,6.9,0,0.05,Rain,Light Rain
2017-01-27,6:51 PM,39.9,35.1,21.9,49,29.6,10,Variable,6.9,0,0,None,Overcast
2017-03-26,5:51 PM,41,35.2,34,76,30.38,10,East,9.2,0,0,None,Overcast
2017-02-20,10:51 PM,41,35.2,15.1,35,30.35,10,NE,9.2,0,0,None,Clear
2017-01-16,9:51 PM,41,35.2,24.1,51,30.32,10,West,9.2,17.3,0,None,Overcast
2017-03-31,12:32 PM,41,35.2,39,93,30.01,4,SE,9.2,19.6,0.06,Rain,Light Rain
2017-12-06,4:51 PM,42.1,35.2,16,35,29.98,10,West,12.7,20.7,0,None,Clear
2017-12-23,11:51 PM,41,35.2,33.1,73,29.95,10,WNW,9.2,16.1,0,None,Partly Cloudy
2017-12-20,4:51 PM,41,35.2,15.1,35,29.95,10,WNW,9.2,16.1,0,None,Clear
2017-02-06,1:51 AM,41,35.2,21.9,47,29.94,10,WNW,9.2,0,0,None,Mostly Cloudy
2017-03-28,7:10 PM,41,35.2,39.9,96,29.93,1.8,ENE,9.2,0,0.05,Rain,Heavy Rain
2017-03-28,6:33 PM,41,35.2,39,93,29.92,1.8,NE,9.2,0,0,Rain,Rain
2017-03-28,6:51 PM,41,35.2,39.9,96,29.91,2.5,ENE,9.2,0,0.05,Rain,Rain
2017-03-28,7:51 PM,41,35.2,39.9,96,29.91,4,NE,9.2,0,0.22,Rain,Rain
2017-02-05,5:51 PM,41,35.2,17.1,38,29.86,10,WSW,9.2,21.9,0,None,Scattered Clouds
2017-02-26,2:51 AM,41,35.2,30,65,29.75,10,WNW,9.2,19.6,0,None,Overcast
2017-04-08,4:51 AM,41,35.2,24.1,51,29.71,10,WNW,9.2,18.4,0,None,Overcast
2017-01-03,3:20 PM,42.1,35.2,41,96,29.69,1.8,East,12.7,27.6,0.03,Rain,Light Rain
2017-01-29,12:51 PM,42.1,35.2,12,29,29.68,10,WNW,12.7,19.6,0,None,Clear
2017-01-03,3:51 PM,42.1,35.2,41,96,29.65,1.5,ENE,12.7,25.3,0.08,Rain,Rain
2017-04-06,12:14 PM,41,35.2,39.9,96,29.63,1.8,East,9.2,16.1,0.01,Rain,Light Rain
2017-01-27,4:51 PM,41,35.2,23,49,29.59,10,WNW,9.2,23,0,None,Overcast
2017-04-06,12:51 PM,41,35.2,41,100,29.56,2,East,9.2,19.6,0.04,Rain,Light Rain
2017-04-06,2:33 PM,42.1,35.2,41,96,29.45,3,ENE,12.7,26.5,0,None,Overcast
2017-01-23,12:51 AM,43,35.4,39.9,89,29.81,10,East,16.1,23,0,None,Overcast
2017-03-23,11:51 PM,37.9,35.5,19.9,48,30.53,10,South,3.5,0,0,None,Clear
2017-01-16,11:51 AM,37.9,35.5,21,51,30.43,10,Variable,3.5,0,0,None,Clear
2017-11-28,2:51 AM,37.9,35.5,23,55,30.34,10,NE,3.5,0,0,None,Clear
2017-01-15,3:51 PM,37.9,35.5,19.9,48,30.33,10,WNW,3.5,0,0,None,Clear
2017-11-14,3:51 AM,37.9,35.5,30,73,30.3,10,Variable,3.5,0,0,None,Clear
2017-03-30,5:51 AM,37.9,35.5,21.9,53,30.25,10,NW,3.5,0,0,None,Clear
2017-12-21,5:51 PM,37.9,35.5,15.1,39,30.24,10,Variable,3.5,0,0,None,Clear
2017-12-24,5:51 AM,37.9,35.5,27,65,30.15,10,NW,3.5,0,0,None,Clear
2017-02-02,7:51 AM,37.9,35.5,25,60,30.07,10,Variable,3.5,0,0,None,Overcast
2017-12-24,2:51 AM,37.9,35.5,30,73,30.06,10,Variable,3.5,0,0,None,Clear
2017-12-23,6:51 AM,37.9,35.5,37,97,30.04,3,ENE,3.5,0,0.01,Rain,Light Rain
2017-11-23,9:51 PM,37.9,35.5,19.9,48,30.04,10,Variable,3.5,0,0,None,Clear
2017-12-11,5:51 PM,37.9,35.5,21,51,30.01,10,Variable,3.5,0,0,None,Clear
2017-02-18,5:51 AM,37.9,35.5,17.1,43,29.86,10,WSW,3.5,0,0,None,Clear
2017-12-25,4:58 AM,37.9,35.5,37,97,29.66,4,Variable,3.5,0,0.01,Rain,Light Rain
2017-02-08,2:03 AM,37.9,35.5,37.9,100,29.58,0.8,NNE,3.5,0,0,None,Overcast
2017-02-08,1:51 AM,37.9,35.5,37.9,100,29.56,1.2,North,3.5,0,0,None,Overcast
2017-03-24,2:51 AM,39,35.7,12,33,30.52,10,WSW,4.6,0,0,None,Clear
2017-02-20,11:51 PM,39,35.7,10.9,32,30.36,10,Variable,4.6,16.1,0,None,Clear
2017-11-30,3:51 AM,39,35.7,25,57,30.33,10,NNE,4.6,0,0,None,Clear
2017-03-26,11:51 PM,39,35.7,37.9,96,30.32,2.5,ENE,4.6,0,0,None,Overcast
2017-11-28,12:51 AM,39,35.7,21.9,50,30.3,10,Variable,4.6,0,0,None,Clear
2017-01-17,1:24 PM,39,35.7,37,93,30.15,2.5,Variable,4.6,0,0.03,Rain,Light Rain
2017-03-27,6:59 AM,39,35.7,37.9,96,30.15,3,Variable,4.6,0,0,Rain,Light Rain
2017-03-27,8:51 AM,39,35.7,39,100,30.11,0.5,Variable,4.6,0,0.02,"Fog	",Rain
2017-12-23,1:12 AM,39,35.7,36,89,30.1,6,Variable,4.6,0,0,None,Overcast
2017-01-17,6:42 PM,39,35.7,37,93,30.08,3,ESE,4.6,0,0.05,Rain,Light Rain
2017-02-02,4:51 PM,39,35.7,21,49,30.08,10,Variable,4.6,0,0,None,Overcast
2017-03-31,7:51 AM,39,35.7,37,93,30.07,4,Variable,4.6,0,0.01,Rain,Light Rain
2017-01-17,6:51 PM,39,35.7,37,93,30.06,3,Variable,4.6,0,0.05,Rain,Light Rain
2017-01-17,8:51 PM,39,35.7,37.9,96,30.02,2.5,Variable,4.6,0,0.02,Rain,Light Rain
2017-12-11,11:51 AM,39,35.7,21,49,30.01,10,Variable,4.6,0,0,None,Clear
2017-12-23,9:14 AM,39,35.7,37.9,96,29.98,3,Variable,4.6,0,0.01,None,Overcast
2017-12-07,3:51 AM,39,35.7,19.9,46,29.98,10,Variable,4.6,0,0,None,Clear
2017-02-07,10:51 AM,39,35.7,37,93,29.96,2.5,ENE,4.6,0,0,Rain,Light Rain
2017-12-11,10:51 PM,39,35.7,23,53,29.96,10,Variable,4.6,0,0,None,Overcast
2017-11-27,4:51 AM,39,35.7,24.1,55,29.96,10,West,4.6,0,0,None,Clear
2017-02-07,7:06 AM,39,35.7,37.9,96,29.95,3,ENE,4.6,0,0,Rain,Light Rain
2017-12-23,10:12 AM,39,35.7,37.9,96,29.95,2,ENE,4.6,0,0,Rain,Light Rain
2017-01-18,3:30 AM,39,35.7,37.9,96,29.94,6,Variable,4.6,0,0,None,Overcast
2017-02-07,7:51 AM,39,35.7,37,93,29.93,2.5,Variable,4.6,0,0.01,Rain,Light Rain
2017-01-18,4:01 AM,39,35.7,37.9,96,29.93,4,NE,4.6,0,0,None,Overcast
2017-12-12,12:51 AM,39,35.7,25,57,29.9,10,Variable,4.6,0,0,None,Overcast
2017-02-14,10:51 PM,39,35.7,28,65,29.74,10,Variable,4.6,0,0,None,Clear
2017-04-06,12:04 PM,42.1,35.7,39.9,92,29.65,2,ENE,11.5,19.6,0.01,None,Overcast
2017-01-03,6:51 PM,43,35.7,43,100,29.56,2.5,ENE,15,0,0.03,None,Overcast
2017-12-12,5:51 PM,42.1,35.7,32,67,29.44,10,West,11.5,23,0,None,Overcast
2017-04-06,4:10 PM,42.1,35.7,42.1,100,29.31,1.8,NE,11.5,24.2,0.05,Rain,Rain
2017-03-23,3:51 PM,41,35.8,-2,16,30.52,10,WNW,8.1,16.1,0,None,Clear
2017-03-06,11:51 AM,39.9,35.8,3,21,30.51,10,WNW,5.8,0,0,None,Clear
2017-03-06,6:51 PM,39.9,35.8,21.9,49,30.44,10,Variable,5.8,0,0,None,Overcast
2017-01-01,11:51 PM,41,35.8,19.9,43,30.42,10,ENE,8.1,0,0,None,Clear
2017-03-26,3:51 PM,41,35.8,33.1,73,30.4,10,ENE,8.1,0,0,None,Overcast
2017-03-26,6:51 PM,39.9,35.8,35.1,83,30.37,10,Variable,5.8,0,0,None,Overcast
2017-03-26,7:51 PM,41,35.8,35.1,79,30.36,9,ENE,8.1,0,0,None,Overcast
2017-11-30,2:51 AM,39.9,35.8,25,55,30.33,10,Variable,5.8,0,0,None,Clear
2017-11-30,8:51 AM,41,35.8,28,60,30.31,10,East,8.1,0,0,None,Clear
2017-11-30,1:51 AM,41,35.8,25,53,30.31,10,NE,8.1,0,0,None,Clear
2017-11-08,7:51 AM,39.9,35.8,33.1,77,30.27,10,Variable,5.8,0,0,None,Overcast
2017-03-17,12:51 PM,39.9,35.8,14,35,30.23,10,Variable,5.8,0,0,None,Clear
2017-01-17,3:51 AM,39.9,35.8,27,60,30.23,9,WSW,5.8,0,0,None,Overcast
2017-01-17,5:51 AM,39.9,35.8,27,60,30.22,9,Variable,5.8,0,0,None,Mostly Cloudy
2017-01-17,4:51 AM,39.9,35.8,27,60,30.22,9,West,5.8,0,0,None,Mostly Cloudy
2017-03-17,9:51 PM,41,35.8,16,36,30.22,10,WSW,8.1,0,0,None,Clear
2017-12-24,11:51 AM,39.9,35.8,25,55,30.19,10,Variable,5.8,0,0,None,Clear
2017-11-07,9:51 PM,39.9,35.8,37.9,93,30.18,5,Variable,5.8,0,0.06,Rain,Light Rain
2017-02-06,10:51 AM,39.9,35.8,17.1,40,30.14,10,Variable,5.8,0,0,None,Clear
2017-11-07,4:51 PM,41,35.8,37.9,89,30.13,3,NE,8.1,0,0.12,Rain,Rain
2017-03-20,10:51 AM,39.9,35.8,17.1,40,30.13,10,Variable,5.8,0,0,None,Clear
2017-01-17,3:20 PM,39.9,35.8,37,89,30.11,2.5,ENE,5.8,0,0,Rain,Light Rain
2017-04-02,5:51 AM,41,35.8,30.9,67,30.09,10,NW,8.1,0,0,None,Clear
2017-02-26,2:51 PM,41,35.8,12.9,32,30.03,10,NW,8.1,18.4,0,None,Clear
2017-01-20,3:51 AM,39.9,35.8,30,68,30.02,10,ENE,5.8,0,0,None,Overcast
2017-11-27,6:51 AM,39.9,35.8,24.1,53,30.01,10,Variable,5.8,16.1,0,None,Clear
2017-11-23,5:51 PM,41,35.8,19,41,30.01,10,WNW,8.1,0,0,None,Clear
2017-01-20,7:51 AM,39.9,35.8,30.9,70,30,10,ENE,5.8,0,0,None,Overcast
2017-03-02,6:51 PM,41,35.8,10.9,29,29.99,10,NW,8.1,18.4,0,None,Clear
2017-01-18,4:51 PM,39.9,35.8,37,89,29.99,10,Variable,5.8,0,0,None,Overcast
2017-02-06,2:51 AM,41,35.8,19.9,43,29.97,10,WNW,8.1,17.3,0,None,Overcast
2017-03-31,2:51 PM,39.9,35.8,37.9,93,29.93,3,Variable,5.8,23,0.06,Rain,Rain
2017-01-18,7:51 AM,39.9,35.8,39,97,29.92,6,ENE,5.8,0,0,None,Overcast
2017-01-21,4:51 AM,41,35.8,41,100,29.89,5,WSW,8.1,0,0,None,Overcast
2017-02-05,3:51 PM,41,35.8,17.1,38,29.84,10,WSW,8.1,0,0,None,Overcast
2017-04-06,8:32 AM,41,35.8,39,93,29.78,2.5,East,8.1,18.4,0,None,Overcast
2017-04-08,7:51 AM,41,35.8,23,49,29.78,10,West,8.1,0,0,None,Mostly Cloudy
2017-04-08,6:51 AM,39.9,35.8,21,47,29.76,10,Variable,5.8,0,0,None,Partly Cloudy
2017-01-29,10:51 AM,39.9,35.8,16,38,29.73,10,Variable,5.8,17.3,0,None,Clear
2017-04-06,9:51 AM,41,35.8,39.9,96,29.72,5,ESE,8.1,0,0.01,Rain,Light Rain
2017-02-09,1:51 AM,41,35.8,28,60,29.65,10,ENE,8.1,0,0,None,Overcast
2017-01-27,1:51 AM,41,35.8,27,57,29.61,10,West,8.1,0,0,None,Clear
2017-01-27,12:51 AM,41,35.8,27,57,29.58,10,West,8.1,0,0,None,Clear
2017-02-08,5:51 AM,39.9,35.8,39.9,100,29.55,3,WNW,5.8,0,0,None,Mostly Cloudy
2017-01-18,7:49 PM,39.2,35.9,35.6,87,30.05,10,NE,4.6,0,0,None,Overcast
2017-03-31,11:49 AM,39.2,35.9,37.4,93,30.03,2.5,Variable,4.6,19.6,0.05,Rain,Light Rain
2017-02-08,3:46 AM,39.2,35.9,39.2,100,29.56,2,ENE,4.6,0,0.02,Rain,Light Rain
2017-03-22,4:51 AM,43,36,23,45,29.9,10,NW,13.8,23,0,None,Clear
2017-01-23,1:35 AM,43,36,39,86,29.85,10,ENE,13.8,28.8,0,None,Overcast
2017-03-26,12:39 AM,42.1,36.1,35.1,76,30.42,10,ENE,10.4,20.7,0,None,Overcast
2017-02-26,3:51 PM,42.1,36.1,14,32,30.05,10,WNW,10.4,0,0,None,Partly Cloudy
2017-03-02,5:51 PM,42.1,36.1,12,29,29.95,10,WNW,10.4,18.4,0,None,Clear
2017-02-01,8:51 AM,42.1,36.1,25,51,29.93,10,West,10.4,17.3,0,None,Clear
2017-01-23,3:26 AM,42.1,36.1,37.9,85,29.85,10,East,10.4,26.5,0,None,Overcast
2017-01-29,1:51 PM,42.1,36.1,10.9,28,29.66,10,WNW,10.4,18.4,0,None,Clear
2017-04-06,11:51 AM,42.1,36.1,41,96,29.63,1.5,East,10.4,18.4,0.04,Rain,Light Rain
2017-04-06,12:29 PM,42.1,36.1,41,96,29.61,3,East,10.4,17.3,0.03,Rain,Light Rain
2017-02-15,4:51 PM,44.1,36.2,30,58,29.32,10,West,18.4,28.8,0,None,Overcast
2017-03-26,4:41 PM,41,36.4,33.1,73,30.42,10,ENE,6.9,0,0,None,Overcast
2017-11-14,11:51 PM,41,36.4,30,65,30.3,10,Variable,6.9,0,0,None,Overcast
2017-11-14,10:51 PM,41,36.4,30.9,67,30.29,10,ENE,6.9,0,0,None,Overcast
2017-03-17,1:51 PM,41,36.4,12,31,30.21,10,Variable,6.9,19.6,0,None,Clear
2017-11-07,8:05 PM,41,36.4,39,93,30.19,6,NE,6.9,17.3,0.01,Rain,Light Rain
2017-11-07,7:51 PM,41,36.4,39,93,30.17,8,NE,6.9,0,0.07,Rain,Light Rain
2017-11-07,8:51 PM,41,36.4,39,93,30.17,5,Variable,6.9,0,0.07,Rain,Light Rain
2017-02-02,10:51 AM,41,36.4,19,41,30.06,10,Variable,6.9,17.3,0,None,Clear
2017-12-07,9:51 AM,41,36.4,18,40,30.03,10,WNW,6.9,0,0,None,Clear
2017-02-02,12:51 PM,43,36.4,15.1,32,30.02,10,WNW,12.7,24.2,0,None,Mostly Cloudy
2017-12-18,12:51 PM,41,36.4,33.1,73,30.02,8,WNW,6.9,0,0,None,Overcast
2017-12-07,9:51 PM,41,36.4,21.9,47,30.01,10,Variable,6.9,0,0,None,Overcast
2017-11-26,8:51 PM,41,36.4,23,49,30,10,West,6.9,0,0,None,Clear
2017-12-07,11:51 AM,43,36.4,17.1,35,29.99,10,West,12.7,23,0,None,Clear
2017-01-20,8:40 PM,41,36.4,39,93,29.95,8,South,6.9,0,0,None,Overcast
2017-03-28,7:38 PM,41,36.4,39.9,96,29.92,3,Variable,6.9,0,0.19,Rain,Rain
2017-01-23,1:14 AM,43,36.4,39.9,89,29.84,10,East,12.7,24.2,0,None,Overcast
2017-02-17,3:51 PM,41,36.4,14,33,29.81,10,WNW,6.9,0,0,None,Clear
2017-11-19,9:51 PM,43,36.4,28.9,58,29.75,10,WNW,12.7,20.7,0,None,Mostly Cloudy
2017-02-26,1:51 AM,41,36.4,30.9,67,29.72,10,Variable,6.9,18.4,0,None,Overcast
2017-01-03,4:51 PM,43,36.4,42.1,97,29.6,10,ENE,12.7,26.5,0.11,None,Overcast
2017-04-07,7:51 PM,43,36.4,30,60,29.55,10,WNW,12.7,20.7,0,None,Mostly Cloudy
2017-01-04,6:51 PM,44.1,36.5,19,37,29.58,10,West,17.3,31.1,0,None,Clear
2017-03-26,1:51 AM,42.1,36.6,33.1,70,30.4,10,East,9.2,19.6,0,None,Overcast
2017-02-20,9:51 PM,42.1,36.6,15.1,34,30.33,10,NNE,9.2,17.3,0,None,Clear
2017-03-30,12:51 AM,42.1,36.6,21.9,45,30.23,10,NNE,9.2,19.6,0,None,Clear
2017-11-17,2:51 AM,42.1,36.6,28.9,60,29.94,10,WNW,9.2,20.7,0,None,Scattered Clouds
2017-02-05,9:51 PM,42.1,36.6,21,43,29.9,10,WSW,9.2,23,0,None,Overcast
2017-04-06,6:20 AM,42.1,36.6,39.9,92,29.86,8,East,9.2,21.9,0.01,Rain,Light Rain
2017-02-18,8:51 AM,42.1,36.6,19,40,29.85,10,WSW,9.2,16.1,0,None,Clear
2017-04-08,8:51 AM,42.1,36.6,21.9,45,29.8,10,WNW,9.2,0,0,None,Scattered Clouds
2017-04-06,11:27 AM,42.1,36.6,39.9,92,29.68,1.5,East,9.2,18.4,0.03,Rain,Light Rain
2017-01-25,9:51 AM,42.1,36.6,28,58,29.66,10,WNW,9.2,20.7,0,None,Clear
2017-03-02,8:51 AM,45,36.6,19.9,37,29.65,10,West,21.9,36.8,0,None,Clear
2017-01-27,1:51 PM,42.1,36.6,21.9,45,29.58,10,WNW,9.2,26.5,0,None,Overcast
2017-03-06,7:51 PM,39.9,36.7,23,51,30.44,10,South,4.6,0,0,None,Overcast
2017-12-04,5:51 AM,39.9,36.7,37.9,93,30.36,5,NE,4.6,0,0,None,Clear
2017-01-10,7:51 PM,39.9,36.7,34,79,30.36,10,South,4.6,0,0,None,Overcast
2017-01-16,11:51 PM,39.9,36.7,25,55,30.28,10,Variable,4.6,0,0,None,Overcast
2017-01-17,1:51 AM,39.9,36.7,26.1,58,30.25,10,Variable,4.6,0,0,None,Overcast
2017-01-17,2:51 AM,39.9,36.7,26.1,58,30.25,10,Variable,4.6,0,0,None,Overcast
2017-01-17,12:32 PM,39.9,36.7,37.9,93,30.18,1.8,SE,4.6,0,0.02,Rain,Light Rain
2017-12-23,12:23 AM,39.9,36.7,37,89,30.16,6,ENE,4.6,0,0,None,Overcast
2017-03-31,1:51 AM,39.9,36.7,36,86,30.15,7,SSE,4.6,0,0.03,Rain,Light Rain
2017-12-23,1:51 AM,39.9,36.7,37,89,30.11,6,ESE,4.6,0,0,None,Overcast
2017-01-18,7:38 PM,39.9,36.7,36,86,30.06,10,Variable,4.6,0,0,None,Overcast
2017-01-18,8:13 PM,39.9,36.7,36,86,30.04,10,NNE,4.6,0,0,None,Mostly Cloudy
2017-01-18,5:51 PM,39.9,36.7,36,86,30.02,10,Variable,4.6,0,0,None,Overcast
2017-01-20,4:51 AM,39.9,36.7,30.9,70,30.01,10,NE,4.6,0,0,None,Overcast
2017-12-06,9:51 PM,39.9,36.7,18,41,30.01,10,Variable,4.6,0,0,None,Clear
2017-01-20,6:51 AM,39.9,36.7,30.9,70,30,10,ENE,4.6,0,0,None,Overcast
2017-12-11,12:51 PM,39.9,36.7,21,47,29.99,10,NW,4.6,0,0,None,Clear
2017-12-11,2:51 PM,39.9,36.7,19,43,29.99,10,WNW,4.6,0,0,None,Clear
2017-01-18,2:00 PM,39.9,36.7,37.9,93,29.97,10,Variable,4.6,0,0,None,Overcast
2017-11-27,1:51 AM,39.9,36.7,24.1,53,29.97,10,West,4.6,0,0,None,Clear
2017-01-20,5:38 PM,39.9,36.7,37.9,93,29.95,6,South,4.6,0,0.03,Rain,Light Rain
2017-01-18,1:25 PM,39.9,36.7,37,89,29.95,10,Variable,4.6,0,0,None,Overcast
2017-01-18,12:51 PM,39.9,36.7,37.9,93,29.91,10,NNE,4.6,0,0,None,Overcast
2017-02-05,6:51 PM,39.9,36.7,18,41,29.88,10,Variable,4.6,0,0,None,Clear
2017-12-23,11:18 AM,39.9,36.7,39,97,29.86,3,East,4.6,0,0.03,Rain,Light Rain
2017-12-23,11:33 AM,39.9,36.7,39,97,29.85,2.5,Variable,4.6,0,0.05,Rain,Light Rain
2017-02-14,4:51 PM,39.9,36.7,21.9,49,29.78,10,WSW,4.6,0,0,None,Clear
2017-02-14,9:51 PM,39.9,36.7,28.9,65,29.76,10,Variable,4.6,0,0,None,Clear
2017-02-15,9:51 AM,39.9,36.7,32,73,29.47,7,WNW,4.6,0,0,None,Mostly Cloudy
2017-11-12,9:51 AM,39,36.8,14,36,30.48,10,West,3.5,0,0,None,Scattered Clouds
2017-02-20,8:51 PM,43,36.8,12,28,30.33,10,NE,11.5,19.6,0,None,Clear
2017-12-02,4:51 AM,39,36.8,28.9,67,30.3,10,Variable,3.5,0,0,None,Clear
2017-11-09,5:51 AM,39,36.8,36,89,30.24,10,North,3.5,0,0,None,Clear
2017-03-29,10:51 PM,44.1,36.8,23,43,30.23,10,NNE,16.1,23,0,None,Clear
2017-03-30,4:51 AM,39,36.8,21.9,50,30.23,10,NW,3.5,0,0,None,Clear
2017-01-17,1:13 PM,39,36.8,37.9,96,30.15,1.8,Variable,3.5,0,0.02,Rain,Light Rain
2017-01-17,2:33 PM,39,36.8,37,93,30.15,1.8,Variable,3.5,0,0,Rain,Light Rain
2017-03-19,11:51 PM,39,36.8,15.1,38,30.15,10,NW,3.5,0,0,None,Clear
2017-01-17,6:02 PM,39,36.8,37,93,30.1,2.5,Variable,3.5,0,0.01,Rain,Light Rain
2017-02-11,11:51 PM,39,36.8,28,65,30.1,10,East,3.5,0,0,None,Clear
2017-11-23,8:51 PM,39,36.8,21,49,30.02,10,Variable,3.5,0,0,None,Clear
2017-12-23,9:29 AM,39,36.8,37.9,96,29.99,1.8,Variable,3.5,0,0.01,Rain,Rain
2017-12-11,9:51 PM,39,36.8,21.9,50,29.98,10,Variable,3.5,0,0,None,Overcast
2017-11-22,4:51 PM,44.1,36.8,28,53,29.97,10,NW,16.1,27.6,0,None,Partly Cloudy
2017-02-07,2:51 AM,39,36.8,33.1,79,29.96,7,ENE,3.5,0,0,None,Clear
2017-02-07,8:03 AM,39,36.8,37.9,96,29.95,1.5,Variable,3.5,0,0.01,Rain,Light Rain
2017-02-07,3:51 AM,39,36.8,34,82,29.94,7,NE,3.5,0,0,None,Partly Cloudy
2017-02-07,4:51 AM,39,36.8,34,82,29.93,6,NE,3.5,0,0,None,Haze
2017-02-07,6:51 AM,39,36.8,37,93,29.92,3,South,3.5,0,0.06,Rain,Light Rain
2017-01-18,3:51 AM,39,36.8,39,100,29.91,2,Variable,3.5,0,0.04,Rain,Light Rain
2017-02-18,7:51 AM,39,36.8,18,43,29.85,10,WSW,3.5,0,0,None,Clear
2017-04-01,12:51 PM,44.1,36.8,34,68,29.83,10,North,16.1,23,0,None,Overcast
2017-01-29,8:51 PM,39,36.8,17.1,41,29.73,10,West,3.5,0,0,None,Overcast
2017-01-29,5:51 PM,39,36.8,15.1,38,29.71,10,Variable,3.5,0,0,None,Scattered Clouds
2017-01-27,8:51 PM,39,36.8,23,53,29.63,10,Variable,3.5,18.4,0,None,Overcast
2017-01-27,11:51 AM,43,36.8,19.9,40,29.62,10,West,11.5,23,0,None,Overcast
2017-01-27,12:51 PM,43,36.8,19,38,29.59,10,West,11.5,24.2,0,None,Overcast
2017-02-08,3:19 AM,39,36.8,39,100,29.58,2.5,NNW,3.5,0,0.01,Rain,Light Rain
2017-01-18,5:47 PM,39.2,37,35.6,87,30.04,10,Variable,3.5,0,0,None,Overcast
2017-01-18,3:49 AM,39.2,37,39.2,100,29.93,2,Variable,3.5,0,0.03,Rain,Light Rain
2017-02-08,2:46 AM,39.2,37,39.2,100,29.58,2,NNE,3.5,0,0,None,Mostly Cloudy
2017-04-06,4:00 PM,42.8,37,41,93,29.31,3,NE,10.4,26.5,0,Rain,Light Rain
2017-01-13,3:51 PM,42.1,37.1,14,32,30.5,10,WNW,8.1,21.9,0,None,Clear
2017-03-06,8:51 PM,41,37.1,21.9,47,30.43,10,South,5.8,0,0,None,Overcast
2017-03-26,1:21 AM,42.1,37.1,34,73,30.42,10,ENE,8.1,18.4,0,None,Overcast
2017-03-26,4:51 PM,41,37.1,33.1,73,30.4,10,ENE,5.8,0,0,None,Overcast
2017-11-14,9:09 AM,41,37.1,33.1,73,30.36,10,Variable,5.8,0,0,None,Mostly Cloudy
2017-01-16,3:51 PM,42.1,37.1,21.9,45,30.35,10,WSW,8.1,0,0,None,Clear
2017-11-14,8:51 AM,41,37.1,32,70,30.34,10,Variable,5.8,0,0,None,Clear
2017-11-15,8:51 AM,41,37.1,30,65,30.31,10,East,5.8,0,0,None,Clear
2017-01-10,8:51 PM,41,37.1,35.1,79,30.31,10,SSE,5.8,0,0,None,Overcast
2017-01-16,10:51 PM,41,37.1,24.1,51,30.31,10,Variable,5.8,0,0,None,Overcast
2017-11-30,12:51 AM,42.1,37.1,25,51,30.3,10,ENE,8.1,0,0,None,Clear
2017-11-27,10:51 PM,41,37.1,21.9,47,30.29,10,Variable,5.8,0,0,None,Clear
2017-03-30,9:51 AM,42.1,37.1,21.9,45,30.27,10,North,8.1,0,0,None,Clear
2017-11-27,9:51 PM,41,37.1,21.9,47,30.25,10,Variable,5.8,0,0,None,Clear
2017-03-19,11:51 AM,42.1,37.1,25,51,30.19,10,ENE,8.1,0,0,None,Clear
2017-12-22,9:51 PM,42.1,37.1,37,82,30.15,10,ENE,8.1,0,0,None,Mostly Cloudy
2017-04-02,4:51 AM,41,37.1,30.9,67,30.07,10,NW,5.8,0,0,None,Mostly Cloudy
2017-02-26,1:51 PM,41,37.1,14,33,30.02,10,Variable,5.8,0,0,None,Mostly Cloudy
2017-11-23,6:51 PM,41,37.1,19,41,30.02,10,West,5.8,0,0,None,Clear
2017-01-20,8:51 AM,41,37.1,30.9,67,30.01,10,Variable,5.8,0,0,None,Overcast
2017-12-06,7:51 PM,41,37.1,18,40,30.01,10,Variable,5.8,0,0,None,Clear
2017-12-06,12:51 PM,41,37.1,16,36,29.96,10,Variable,5.8,0,0,None,Clear
2017-01-18,3:51 PM,41,37.1,36,82,29.95,10,NE,5.8,0,0,None,Overcast
2017-01-20,4:41 PM,41,37.1,39,93,29.94,3,SSE,5.8,0,0.03,Rain,Light Rain
2017-03-28,8:09 PM,41,37.1,39.9,96,29.94,3,Variable,5.8,0,0.08,Rain,Rain
2017-01-20,8:51 PM,41,37.1,39,93,29.93,9,South,5.8,0,0,None,Overcast
2017-01-21,2:22 AM,42.1,37.1,39.9,92,29.93,5,West,8.1,0,0,None,Overcast
2017-02-05,11:51 PM,42.1,37.1,21.9,45,29.92,10,West,8.1,0,0,None,Overcast
2017-02-01,6:51 AM,42.1,37.1,26.1,53,29.9,10,WSW,8.1,0,0,None,Overcast
2017-03-28,5:51 PM,42.1,37.1,39.9,92,29.89,8,ENE,8.1,0,0,None,Overcast
2017-03-28,4:51 PM,42.1,37.1,39.9,92,29.88,10,ENE,8.1,0,0,None,Overcast
2017-03-10,4:51 AM,42.1,37.1,21,43,29.87,10,NE,8.1,0,0,None,Overcast
2017-12-23,1:02 PM,41,37.1,39.9,96,29.75,4,ESE,5.8,0,0.01,Rain,Light Rain
2017-01-29,2:51 PM,42.1,37.1,10.9,28,29.67,10,WNW,8.1,0,0,None,Clear
2017-01-27,7:51 AM,41,37.1,24.1,51,29.65,10,West,5.8,23,0,None,Overcast
2017-01-27,10:51 AM,42.1,37.1,23,47,29.65,10,WNW,8.1,26.5,0,None,Overcast
2017-01-27,4:51 AM,42.1,37.1,26.1,53,29.62,10,West,8.1,0,0,None,Mostly Cloudy
2017-01-04,1:44 AM,41,37.1,39,93,29.48,10,Variable,5.8,0,0,None,Overcast
2017-01-04,12:39 AM,41,37.1,39.9,96,29.48,7,WNW,5.8,0,0,None,Overcast
2017-01-04,1:51 AM,41,37.1,39,93,29.46,10,WNW,5.8,0,0,None,Overcast
2017-01-04,5:51 AM,42.1,37.1,39,89,29.46,9,WSW,8.1,0,0,None,Overcast
2017-01-04,2:51 AM,41,37.1,39.9,96,29.44,10,WNW,5.8,0,0,None,Overcast
2017-11-10,5:51 AM,43,37.2,30.9,62,30.03,10,WNW,10.4,20.7,0,None,Mostly Cloudy
2017-03-28,11:00 AM,43,37.2,42.1,97,29.99,1,ENE,10.4,0,0.01,Rain,Light Rain
2017-12-20,3:51 PM,43,37.2,15.1,32,29.93,10,WNW,10.4,17.3,0,None,Clear
2017-11-17,1:51 AM,43,37.2,30,60,29.93,10,WNW,10.4,19.6,0,None,Clear
2017-03-02,4:51 PM,43,37.2,12.9,30,29.91,10,WNW,10.4,21.9,0,None,Clear
2017-11-17,12:51 AM,43,37.2,32,65,29.91,10,WNW,10.4,23,0,None,Clear
2017-12-20,7:51 AM,43,37.2,17.1,35,29.88,10,WNW,10.4,20.7,0,None,Clear
2017-03-28,3:51 PM,43,37.2,41,93,29.87,10,East,10.4,0,0.01,None,Overcast
2017-01-03,6:00 PM,43,37.2,42.1,97,29.62,2,ENE,10.4,0,0,Rain,Light Rain
2017-01-03,5:51 PM,43,37.2,42.1,97,29.6,3,East,10.4,19.6,0,None,Overcast
2017-01-26,11:51 PM,43,37.2,27,53,29.57,10,West,10.4,20.7,0,None,Partly Cloudy
2017-05-13,8:04 PM,45,37.4,44.1,97,29.82,4,NE,18.4,26.5,0.01,Rain,Light Rain
2017-03-02,9:51 AM,45,37.4,17.1,33,29.68,10,WNW,18.4,36.8,0,None,Clear
2017-01-26,8:51 PM,44.1,37.4,28,53,29.49,10,WNW,13.8,21.9,0,None,Partly Cloudy
2017-11-26,9:51 AM,45,37.6,27,49,29.96,10,NW,17.3,25.3,0,None,Scattered Clouds
2017-11-12,11:51 AM,42.1,37.7,19,40,30.45,10,WNW,6.9,0,0,None,Scattered Clouds
2017-03-25,11:51 PM,43,37.7,36,76,30.4,10,ENE,9.2,0,0,None,Overcast
2017-03-07,1:51 AM,42.1,37.7,30.9,65,30.39,10,South,6.9,0,0,None,Overcast
2017-11-14,8:51 PM,42.1,37.7,33.1,70,30.31,10,NE,6.9,0,0,None,Overcast
2017-12-01,11:51 PM,42.1,37.7,28,58,30.28,10,East,6.9,0,0,None,Clear
2017-01-11,6:51 AM,43,37.7,37.9,82,30.25,10,WSW,9.2,17.3,0,None,Partly Cloudy
2017-02-21,6:51 PM,42.1,37.7,32,67,30.2,10,South,6.9,0,0,None,Clear
2017-11-20,11:51 PM,42.1,37.7,24.1,49,30.13,10,WSW,6.9,0,0,None,Clear
2017-11-17,7:51 PM,42.1,37.7,15.1,34,30.08,10,Variable,6.9,0,0,None,Clear
2017-02-06,7:51 PM,42.1,37.7,33.1,70,30.06,9,SSE,6.9,0,0,None,Clear
2017-01-20,12:51 AM,42.1,37.7,33.1,70,30.03,10,East,6.9,0,0,None,Overcast
2017-01-19,10:32 PM,42.1,37.7,32,67,30.03,10,NNE,6.9,0,0,None,Mostly Cloudy
2017-11-20,10:51 AM,42.1,37.7,21.9,45,30.03,10,WNW,6.9,0,0,None,Mostly Cloudy
2017-12-06,6:51 PM,42.1,37.7,17.1,37,30,10,Variable,6.9,0,0,None,Clear
2017-12-06,3:51 PM,43,37.7,15.1,32,29.96,10,West,9.2,17.3,0,None,Clear
2017-03-28,11:37 AM,43,37.7,42.1,97,29.95,3,ENE,9.2,0,0.03,Rain,Light Rain
2017-11-17,3:51 AM,42.1,37.7,27,55,29.95,10,Variable,6.9,19.6,0,None,Overcast
2017-12-06,1:51 PM,42.1,37.7,17.1,37,29.94,10,Variable,6.9,20.7,0,None,Clear
2017-01-21,12:15 AM,42.1,37.7,41,96,29.94,5,WSW,6.9,0,0,None,Overcast
2017-02-06,12:51 AM,42.1,37.7,21.9,45,29.93,10,West,6.9,0,0,None,Mostly Cloudy
2017-01-21,12:51 AM,42.1,37.7,39.9,92,29.92,5,Variable,6.9,0,0,None,Overcast
2017-04-06,4:51 AM,43,37.7,39.9,89,29.91,10,East,9.2,16.1,0,None,Overcast
2017-01-21,7:26 AM,42.1,37.7,41,96,29.91,6,West,6.9,0,0,None,Overcast
2017-01-21,2:51 AM,42.1,37.7,39.9,92,29.9,5,West,6.9,0,0,None,Overcast
2017-12-20,1:51 PM,43,37.7,18,37,29.9,10,NW,9.2,0,0,None,Clear
2017-01-21,6:51 AM,42.1,37.7,39.9,92,29.88,6,Variable,6.9,0,0,None,Overcast
2017-04-01,1:51 PM,44.1,37.7,34,68,29.83,10,NE,12.7,19.6,0,None,Overcast
2017-01-23,1:51 AM,43,37.7,39.9,89,29.83,10,East,9.2,21.9,0,None,Overcast
2017-01-22,11:51 PM,44.1,37.7,39.9,85,29.82,10,ENE,12.7,23,0,None,Overcast
2017-04-08,9:51 AM,43,37.7,21,42,29.81,10,WNW,9.2,23,0,None,Partly Cloudy
2017-02-09,12:51 AM,43,37.7,28.9,58,29.66,10,East,9.2,0,0,None,Overcast
2017-01-04,6:51 AM,43,37.7,39.9,89,29.47,7,WSW,9.2,0,0,None,Overcast
2017-03-23,8:51 PM,39.9,37.8,-2,17,30.53,10,NW,3.5,0,0,None,Clear
2017-03-23,7:51 PM,39.9,37.8,-2,17,30.51,10,Variable,3.5,0,0,None,Clear
2017-11-12,10:51 AM,39.9,37.8,15.1,36,30.48,10,West,3.5,0,0,None,Mostly Cloudy
2017-03-06,4:51 PM,39.9,37.8,18,41,30.44,10,Variable,3.5,0,0,None,Overcast
2017-12-04,6:51 AM,39.9,37.8,37.9,93,30.39,7,NNE,3.5,0,0,None,Clear
2017-12-02,5:51 AM,39.9,37.8,28,63,30.3,10,North,3.5,0,0,None,Clear
2017-11-15,12:51 AM,39.9,37.8,30,68,30.3,10,Variable,3.5,0,0,None,Overcast
2017-11-13,10:51 PM,39.9,37.8,30.9,70,30.3,10,Variable,3.5,0,0,None,Clear
2017-11-27,11:51 PM,39.9,37.8,21.9,49,30.3,10,Variable,3.5,0,0,None,Clear
2017-11-14,12:51 AM,39.9,37.8,30,68,30.29,10,Variable,3.5,0,0,None,Clear
2017-11-08,6:28 AM,39.9,37.8,34,79,30.26,10,Variable,3.5,0,0,None,Overcast
2017-11-09,4:51 AM,39.9,37.8,36,86,30.24,10,NE,3.5,0,0,None,Clear
2017-01-17,7:11 AM,39.9,37.8,27,60,30.23,9,Variable,3.5,0,0,None,Overcast
2017-01-17,9:51 AM,39.9,37.8,33.1,77,30.22,4,NW,3.5,0,0,Rain,Light Rain
2017-03-30,3:51 AM,39.9,37.8,21,47,30.22,10,Variable,3.5,0,0,None,Clear
2017-01-17,11:51 AM,39.9,37.8,37,89,30.17,2,Variable,3.5,0,0.04,Rain,Light Rain
2017-12-22,11:16 PM,39.9,37.8,36,86,30.17,7,Variable,3.5,0,0,None,Overcast
2017-03-19,10:51 PM,39.9,37.8,14,35,30.16,10,Variable,3.5,0,0,None,Clear
2017-01-17,12:51 PM,39.9,37.8,37.9,93,30.14,1.5,Variable,3.5,0,0.04,Rain,Light Rain
2017-03-27,9:51 AM,39.9,37.8,39.9,100,30.1,5,NNE,3.5,0,0.17,Fog,Fog
2017-02-11,10:51 PM,39.9,37.8,28,63,30.07,10,Variable,3.5,0,0,None,Clear
2017-01-18,8:26 PM,39.9,37.8,36,86,30.05,10,Variable,3.5,0,0,None,Mostly Cloudy
2017-01-18,7:51 PM,39.9,37.8,36,86,30.03,10,NE,3.5,0,0,None,Overcast
2017-01-19,6:51 AM,39.9,37.8,36,86,30.02,10,Variable,3.5,0,0,None,Clear
2017-12-06,8:51 PM,39.9,37.8,18,41,30.01,10,Variable,3.5,0,0,None,Clear
2017-01-20,5:51 AM,39.9,37.8,30.9,70,30,10,East,3.5,0,0,None,Overcast
2017-02-07,5:51 AM,39.9,37.8,35.1,83,29.94,6,Variable,3.5,0,0,None,Haze
2017-01-20,6:51 PM,39.9,37.8,39,97,29.93,6,Variable,3.5,0,0.02,None,Overcast
2017-12-23,11:51 AM,39.9,37.8,39,97,29.81,4,East,3.5,0,0.07,Rain,Light Rain
2017-02-14,8:51 PM,39.9,37.8,27,60,29.78,10,Variable,3.5,0,0,None,Clear
2017-02-08,4:44 AM,39.9,37.8,39.9,100,29.55,2.5,NNE,3.5,0,0,None,Mostly Cloudy
2017-02-08,4:51 AM,39.9,37.8,39.9,100,29.53,3,NNE,3.5,0,0,None,Mostly Cloudy
2017-01-04,1:07 AM,39.9,37.8,39.9,100,29.49,8,West,3.5,0,0,None,Overcast
2017-01-22,10:51 PM,45,37.9,39.9,82,29.81,10,ENE,16.1,28.8,0,None,Overcast
2017-11-28,9:51 AM,41,38,24.1,51,30.45,10,Variable,4.6,0,0,None,Clear
2017-01-01,10:51 PM,41,38,19,41,30.44,10,ENE,4.6,0,0,None,Clear
2017-01-01,7:51 PM,41,38,19.9,43,30.38,10,ENE,4.6,0,0,None,Clear
2017-01-16,5:51 PM,41,38,24.1,51,30.35,10,WSW,4.6,0,0,None,Clear
2017-11-13,7:51 AM,41,38,37,86,30.34,4,NE,4.6,0,0.02,Rain,Light Rain
2017-01-16,4:51 PM,41,38,23,49,30.34,10,Variable,4.6,0,0,None,Clear
2017-01-16,6:51 PM,41,38,24.1,51,30.34,10,West,4.6,0,0,None,Clear
2017-12-02,2:51 AM,41,38,27,57,30.31,10,NNE,4.6,0,0,None,Clear
2017-03-17,8:51 PM,41,38,12.9,32,30.21,10,Variable,4.6,0,0,None,Clear
2017-11-07,6:49 PM,41,38,39.2,93,30.2,4,Variable,4.6,0,0.16,Rain,Rain
2017-11-07,5:51 PM,41,38,39,93,30.15,6,Variable,4.6,0,0.14,Rain,Light Rain
2017-12-22,10:51 PM,41,38,37,86,30.15,7,ENE,4.6,0,0,None,Overcast
2017-04-02,6:51 AM,41,38,30.9,67,30.12,10,Variable,4.6,0,0,None,Clear
2017-02-26,4:51 PM,41,38,14,33,30.08,10,Variable,4.6,0,0,None,Partly Cloudy
2017-03-31,10:11 AM,41,38,39,93,30.06,2,SE,4.6,0,0,Rain,Light Rain
2017-03-31,11:05 AM,41,38,39,93,30.04,2.5,Variable,4.6,0,0,Rain,Light Rain
2017-03-31,10:51 AM,41,38,39,93,30.02,3,Variable,4.6,16.1,0.02,Rain,Light Rain
2017-01-19,5:51 AM,41,38,36,82,30.01,10,West,4.6,0,0,None,Partly Cloudy
2017-02-07,1:51 AM,41,38,33.1,73,29.97,9,ENE,4.6,0,0,None,Clear
2017-02-11,11:51 AM,41,38,21,45,29.93,10,WSW,4.6,0,0,None,Clear
2017-01-20,10:51 PM,41,38,39.9,96,29.92,5,South,4.6,0,0,None,Overcast
2017-12-12,1:51 AM,41,38,27,57,29.87,10,Variable,4.6,0,0,None,Scattered Clouds
2017-12-23,12:51 PM,41,38,39.9,96,29.74,2,East,4.6,0,0.08,Rain,Light Rain
2017-01-27,8:51 AM,41,38,24.1,51,29.66,10,Variable,4.6,20.7,0,None,Overcast
2017-01-27,5:51 AM,41,38,26.1,55,29.63,10,Variable,4.6,18.4,0,None,Overcast
2017-01-03,10:26 PM,41,38,41,100,29.52,3,WNW,4.6,0,0,Rain,Light Rain
2017-03-25,8:19 PM,44.1,38.1,39,82,30.36,10,NE,11.5,18.4,0,None,Overcast
2017-02-02,2:51 PM,44.1,38.1,16,32,30.02,10,WNW,11.5,18.4,0,None,Mostly Cloudy
2017-03-10,2:51 AM,44.1,38.1,21,40,29.91,10,NNE,11.5,17.3,0,None,Mostly Cloudy
2017-01-26,9:51 PM,44.1,38.1,28,53,29.52,10,West,11.5,31.1,0,None,Clear
2017-11-14,5:31 PM,43,38.2,34,71,30.32,10,NE,8.1,0,0,None,Overcast
2017-03-29,11:51 PM,43,38.2,21.9,43,30.23,10,NNE,8.1,0,0,None,Clear
2017-02-21,11:51 PM,43,38.2,32,65,30.12,10,WSW,8.1,21.9,0,None,Clear
2017-11-21,12:51 AM,43,38.2,24.1,47,30.12,10,WSW,8.1,23,0,None,Clear
2017-11-17,6:51 PM,43,38.2,17.1,35,30.08,10,WNW,8.1,0,0,None,Clear
2017-02-01,6:51 PM,43,38.2,28,56,29.99,10,WNW,8.1,19.6,0,None,Overcast
2017-03-28,2:43 PM,43,38.2,42.1,97,29.93,3,NE,8.1,0,0.07,Rain,Light Rain
2017-12-20,9:51 AM,43,38.2,17.1,35,29.93,10,West,8.1,23,0,None,Overcast
2017-12-20,8:51 AM,43,38.2,17.1,35,29.9,10,NW,8.1,21.9,0,None,Clear
2017-02-18,9:51 AM,43,38.2,21.9,43,29.85,10,WSW,8.1,18.4,0,None,Clear
2017-11-25,6:51 AM,43,38.2,30,60,29.83,10,WSW,8.1,0,0,None,Clear
2017-04-01,11:51 AM,43,38.2,34,71,29.82,10,North,8.1,24.2,0,None,Overcast
2017-01-26,10:51 PM,43,38.2,28,56,29.55,10,West,8.1,25.3,0,None,Partly Cloudy
2017-12-12,4:51 PM,43,38.2,33.1,68,29.42,10,WNW,8.1,0,0,None,Overcast
2017-03-23,4:51 PM,42.1,38.4,-2,16,30.51,10,Variable,5.8,0,0,None,Clear
2017-03-23,5:51 PM,42.1,38.4,-2.9,15,30.5,10,Variable,5.8,0,0,None,Clear
2017-01-01,8:51 PM,42.1,38.4,18,38,30.4,10,NE,5.8,0,0,None,Clear
2017-11-13,8:51 PM,42.1,38.4,34,73,30.32,10,Variable,5.8,0,0,None,Clear
2017-12-02,12:51 AM,42.1,38.4,28,58,30.27,10,ENE,5.8,0,0,None,Clear
2017-11-09,3:51 AM,42.1,38.4,36,79,30.22,10,Variable,5.8,0,0,None,Clear
2017-02-21,7:51 PM,42.1,38.4,32,67,30.2,10,South,5.8,0,0,None,Clear
2017-11-21,4:51 AM,42.1,38.4,28.9,60,30.11,10,Variable,5.8,0,0,None,Clear
2017-02-06,5:51 PM,42.1,38.4,28.9,60,30.07,10,South,5.8,0,0,None,Clear
2017-01-19,8:28 AM,42.1,38.4,36,79,30.07,10,WNW,5.8,0,0,None,Mostly Cloudy
2017-02-02,3:51 PM,42.1,38.4,14,32,30.05,10,Variable,5.8,21.9,0,None,Mostly Cloudy
2017-04-02,3:51 AM,42.1,38.4,30.9,65,30.05,10,WNW,5.8,0,0,None,Partly Cloudy
2017-01-20,9:51 AM,42.1,38.4,32,67,30.01,10,NE,5.8,0,0,None,Overcast
2017-03-28,7:04 AM,42.1,38.4,41,96,29.98,6,ENE,5.8,0,0,None,Overcast
2017-02-01,9:51 AM,42.1,38.4,25,51,29.94,10,West,5.8,0,0,None,Clear
2017-03-28,8:51 PM,42.1,38.4,41,96,29.93,6,Variable,5.8,0,0.11,Rain,Light Rain
2017-01-21,1:51 AM,42.1,38.4,39.9,92,29.92,5,WSW,5.8,16.1,0,None,Overcast
2017-03-10,3:51 AM,42.1,38.4,21.9,45,29.89,10,Variable,5.8,17.3,0,None,Overcast
2017-12-12,2:51 AM,42.1,38.4,30.9,65,29.83,10,SSE,5.8,0,0,None,Overcast
2017-01-27,2:51 PM,42.1,38.4,21,43,29.57,10,WNW,5.8,0,0,None,Overcast
2017-12-12,5:38 PM,42.1,38.4,33.1,70,29.46,10,Variable,5.8,19.6,0,None,Overcast
2017-01-11,5:51 AM,45,38.5,39.9,82,30.21,10,WSW,13.8,20.7,0,None,Overcast
2017-03-19,1:51 PM,45,38.5,23,42,30.16,10,NNE,13.8,19.6,0,None,Clear
2017-03-02,11:51 AM,45,38.5,16,31,29.75,10,West,13.8,31.1,0,None,Clear
2017-03-25,11:09 PM,44.1,38.6,37.9,79,30.41,10,ENE,10.4,0,0,None,Overcast
2017-03-19,12:51 PM,44.1,38.6,24.1,45,30.18,10,NE,10.4,23,0,None,Clear
2017-03-20,11:51 AM,44.1,38.6,12.9,28,30.1,10,North,10.4,17.3,0,None,Clear
2017-04-02,1:51 AM,44.1,38.6,33.1,65,30.05,10,NW,10.4,18.4,0,None,Overcast
2017-12-07,12:51 PM,44.1,38.6,19,37,29.96,10,West,10.4,19.6,0,None,Clear
2017-01-01,3:51 AM,44.1,38.6,25,47,29.93,10,WSW,10.4,18.4,0,None,Partly Cloudy
2017-04-07,10:51 AM,44.1,38.6,36,73,29.37,10,WSW,10.4,17.3,0,None,Overcast
2017-11-29,11:51 PM,43,38.8,25,49,30.32,10,ENE,6.9,0,0,None,Clear
2017-11-14,5:51 PM,43,38.8,34,71,30.3,10,ENE,6.9,0,0,None,Overcast
2017-11-15,9:51 AM,43,38.8,32,65,30.29,10,East,6.9,0,0,None,Clear
2017-01-11,3:03 AM,43,38.8,41,93,30.2,2.5,Variable,6.9,0,0.04,Rain,Rain
2017-01-11,1:51 AM,43,38.8,39,86,30.2,3,WSW,6.9,0,0.03,Rain,Rain
2017-11-07,6:51 AM,43,38.8,32,65,30.19,10,NE,6.9,0,0,None,Clear
2017-02-22,12:51 AM,43,38.8,33.1,68,30.09,10,Variable,6.9,0,0,None,Clear
2017-11-17,10:51 AM,43,38.8,23,45,30.07,10,Variable,6.9,21.9,0,None,Clear
2017-01-19,6:51 PM,43,38.8,32,65,30.04,10,Variable,6.9,0,0,None,Overcast
2017-11-22,5:51 PM,43,38.8,26.1,51,30,10,Variable,6.9,24.2,0,None,Mostly Cloudy
2017-03-28,5:29 AM,43,38.8,42.1,97,29.97,2.5,East,6.9,0,0.05,Rain,Rain
2017-03-28,5:04 AM,43,38.8,42.1,97,29.97,2.5,ENE,6.9,0,0.02,Rain,Light Rain
2017-03-28,4:51 AM,43,38.8,42.1,97,29.97,1.8,NE,6.9,0,0.02,Rain,Heavy Rain
2017-03-28,11:22 AM,43,38.8,42.1,97,29.97,2,Variable,6.9,0,0.03,Rain,Light Rain
2017-03-28,5:39 AM,43,38.8,42.1,97,29.96,4,East,6.9,0,0.05,Rain,Light Rain
2017-03-28,1:37 PM,43,38.8,42.1,97,29.96,4,ENE,6.9,0,0.03,Rain,Light Rain
2017-03-28,2:16 PM,43,38.8,42.1,97,29.96,2.5,NNE,6.9,0,0.03,Rain,Rain
2017-03-28,7:51 AM,43,38.8,42.1,97,29.96,5,Variable,6.9,0,0,None,Overcast
2017-12-23,10:51 PM,43,38.8,36,76,29.92,10,WNW,6.9,0,0,None,Partly Cloudy
2017-03-28,11:51 AM,43,38.8,42.1,97,29.91,3,Variable,6.9,0,0.04,Rain,Light Rain
2017-01-21,11:51 AM,43,38.8,41,93,29.87,6,WNW,6.9,0,0,None,Overcast
2017-04-06,5:51 AM,43,38.8,39,86,29.86,10,Variable,6.9,18.4,0,None,Overcast
2017-12-12,3:51 AM,43,38.8,33.1,68,29.79,10,South,6.9,0,0,None,Mostly Cloudy
2017-04-07,8:51 PM,43,38.8,27,53,29.59,10,WNW,6.9,28.8,0,None,Overcast
2017-01-03,7:31 PM,43,38.8,43,100,29.55,3,ENE,6.9,0,0,None,Overcast
2017-04-01,2:51 PM,45,38.9,33.1,63,29.85,10,North,12.7,18.4,0,None,Overcast
2017-03-02,10:51 AM,45,38.9,17.1,33,29.72,10,WNW,12.7,35.7,0,None,Clear
2017-02-25,11:14 PM,45,38.9,36,71,29.65,10,NW,12.7,21.9,0,None,Scattered Clouds
2017-01-04,5:51 PM,45,38.9,23,42,29.55,10,West,12.7,28.8,0,None,Clear
2017-04-07,6:51 PM,45,38.9,28.9,53,29.51,10,WNW,12.7,28.8,0,None,Overcast
2017-12-04,7:51 AM,41,39,37.9,89,30.41,5,Variable,3.5,0,0,None,Clear
2017-01-16,1:51 PM,41,39,21,45,30.37,10,Variable,3.5,0,0,None,Clear
2017-12-04,4:51 AM,41,39,39,93,30.35,4,NNE,3.5,0,0,None,Clear
2017-01-16,7:51 PM,41,39,24.1,51,30.34,10,Variable,3.5,0,0,None,Mostly Cloudy
2017-11-13,9:51 PM,41,39,32,70,30.32,10,Variable,3.5,0,0,None,Clear
2017-11-14,9:51 PM,41,39,33.1,73,30.3,10,Variable,3.5,0,0,None,Mostly Cloudy
2017-11-07,6:51 PM,41,39,39,93,30.17,4,Variable,3.5,0,0.17,Rain,Rain
2017-03-19,9:51 PM,41,39,12.9,32,30.16,10,Variable,3.5,0,0,None,Clear
2017-12-18,10:51 AM,41,39,34,76,30.08,10,Variable,3.5,0,0,None,Overcast
2017-02-11,9:51 PM,41,39,28,60,30.06,10,ESE,3.5,0,0,None,Clear
2017-01-19,7:51 AM,41,39,36,82,30.04,10,Variable,3.5,0,0,None,Clear
2017-12-11,1:51 PM,41,39,19.9,43,29.98,10,Variable,3.5,0,0,None,Clear
2017-11-26,7:51 PM,41,39,23,49,29.98,10,West,3.5,0,0,None,Clear
2017-01-20,6:30 PM,41,39,37.9,89,29.95,7,Variable,3.5,0,0.02,Rain,Light Rain
2017-01-20,9:19 PM,41,39,39,93,29.95,7,Variable,3.5,0,0,None,Overcast
2017-01-20,10:17 PM,41,39,39.9,96,29.94,4,South,3.5,0,0,None,Overcast
2017-01-20,10:25 PM,41,39,39.9,96,29.94,4,South,3.5,0,0,None,Overcast
2017-01-20,11:48 PM,41,39,39.2,93,29.94,5,Variable,3.5,0,0,None,Overcast
2017-01-20,4:51 PM,41,39,37.9,89,29.92,4,South,3.5,0,0.04,Rain,Light Rain
2017-01-20,7:51 PM,41,39,39,93,29.92,9,Variable,3.5,0,0,None,Overcast
2017-03-02,3:51 PM,44.1,39,14,30,29.87,10,WNW,9.2,28.8,0,None,Clear
2017-12-20,6:51 AM,44.1,39,21,40,29.86,10,NW,9.2,20.7,0,None,Clear
2017-02-25,11:51 PM,44.1,39,34,68,29.66,10,WNW,9.2,17.3,0,None,Mostly Cloudy
2017-03-02,7:51 AM,46,39,21.9,39,29.61,10,West,17.3,42.6,0,None,Clear
2017-01-03,9:43 PM,41,39,41,100,29.52,2.5,Variable,3.5,0,0,None,Overcast
2017-01-03,11:35 PM,41,39,39.9,96,29.5,7,Variable,3.5,0,0.02,Rain,Light Rain
2017-01-03,10:51 PM,41,39,41,100,29.49,4,Variable,3.5,0,0.01,Rain,Light Rain
2017-01-03,11:51 PM,41,39,41,100,29.49,10,Variable,3.5,0,0.03,None,Overcast
2017-01-04,2:27 AM,41,39,39,93,29.47,10,WNW,3.5,0,0,None,Overcast
2017-01-04,12:51 AM,41,39,39.9,96,29.46,6,WNW,3.5,0,0,None,Overcast
2017-01-01,9:51 PM,42.1,39.2,18,38,30.43,10,NE,4.6,0,0,None,Clear
2017-03-06,10:51 PM,42.1,39.2,23,47,30.42,10,South,4.6,0,0,None,Overcast
2017-03-06,9:51 PM,42.1,39.2,21.9,45,30.42,10,SSE,4.6,0,0,None,Overcast
2017-03-07,12:51 AM,42.1,39.2,27,55,30.41,10,SSE,4.6,0,0,None,Overcast
2017-11-13,9:51 AM,42.1,39.2,37,82,30.35,5,Variable,4.6,0,0.01,Rain,Light Rain
2017-11-13,8:51 AM,42.1,39.2,37,82,30.34,6,Variable,4.6,0,0.02,None,Haze
2017-11-13,10:51 AM,42.1,39.2,39,89,30.33,5,ENE,4.6,0,0.01,Rain,Light Rain
2017-11-30,9:51 AM,42.1,39.2,27,55,30.31,10,Variable,4.6,0,0,None,Clear
2017-11-09,1:51 AM,42.1,39.2,35.1,76,30.24,10,NNE,4.6,0,0,None,Clear
2017-01-11,2:00 AM,42.1,39.2,39.9,92,30.22,2.5,SW,4.6,0,0.02,Rain,Rain
2017-11-09,2:51 AM,42.1,39.2,36,79,30.22,10,NE,4.6,0,0,None,Clear
2017-04-02,7:51 AM,42.1,39.2,30.9,65,30.14,10,Variable,4.6,0,0,None,Clear
2017-11-20,10:51 PM,42.1,39.2,24.1,49,30.13,10,Variable,4.6,0,0,None,Clear
2017-12-18,11:51 AM,42.1,39.2,34,73,30.04,9,WNW,4.6,0,0,None,Scattered Clouds
2017-02-01,8:51 PM,42.1,39.2,27,55,30.02,10,Variable,4.6,0,0,None,Overcast
2017-02-06,11:51 PM,42.1,39.2,34,73,30.01,8,NNE,4.6,0,0,None,Clear
2017-01-19,9:51 PM,42.1,39.2,32,67,30.01,10,Variable,4.6,0,0,None,Partly Cloudy
2017-12-07,7:51 PM,42.1,39.2,19.9,41,30,10,Variable,4.6,16.1,0,None,Mostly Cloudy
2017-02-07,12:51 AM,42.1,39.2,34,73,29.99,8,NE,4.6,0,0,None,Clear
2017-12-07,6:51 PM,42.1,39.2,19.9,41,29.99,10,Variable,4.6,0,0,None,Partly Cloudy
2017-12-06,5:51 PM,42.1,39.2,18,38,29.99,10,Variable,4.6,0,0,None,Clear
2017-11-26,6:51 PM,42.1,39.2,23,47,29.98,10,Variable,4.6,0,0,None,Clear
2017-01-20,3:59 PM,42.1,39.2,37.9,85,29.95,6,South,4.6,0,0,Rain,Light Rain
2017-02-05,10:51 PM,42.1,39.2,21,43,29.91,10,Variable,4.6,0,0,None,Overcast
2017-01-21,3:51 AM,42.1,39.2,39.9,92,29.89,4,West,4.6,0,0,None,Overcast
2017-12-23,1:27 PM,42.1,39.2,41,96,29.71,4,ENE,4.6,0,0.02,Rain,Light Rain
2017-01-29,3:51 PM,42.1,39.2,14,32,29.69,10,West,4.6,0,0,None,Scattered Clouds
2017-12-23,1:51 PM,42.1,39.2,41,96,29.68,3,ENE,4.6,0,0.02,None,Overcast
2017-01-04,4:51 AM,42.1,39.2,39,89,29.44,10,West,4.6,0,0,None,Overcast
2017-01-04,3:51 AM,42.1,39.2,39,89,29.44,10,WSW,4.6,0,0,None,Overcast
2017-02-20,8:51 AM,45,39.3,30,56,30.17,10,WNW,11.5,0,0,None,Clear
2017-01-01,10:51 AM,45,39.3,23,42,30.16,10,NW,11.5,18.4,0,None,Clear
2017-11-10,4:24 AM,46,39.3,39.9,79,30,10,WNW,16.1,25.3,0,None,Overcast
2017-04-07,9:51 AM,46,39.3,32,58,29.35,10,WSW,16.1,26.5,0,None,Overcast
2017-02-27,9:51 AM,43,39.5,21.9,43,30.43,10,Variable,5.8,0,0,None,Clear
2017-12-01,10:51 PM,43,39.5,28,56,30.29,10,Variable,5.8,0,0,None,Clear
2017-12-01,8:51 PM,44.1,39.5,28.9,55,30.28,10,North,8.1,0,0,None,Clear
2017-01-10,9:51 PM,44.1,39.5,37,76,30.27,10,South,8.1,23,0,None,Overcast
2017-11-08,9:51 AM,43,39.5,34,71,30.27,10,Variable,5.8,0,0,None,Overcast
2017-03-17,2:51 PM,44.1,39.5,12,27,30.18,10,WSW,8.1,0,0,None,Clear
2017-11-07,3:51 AM,43,39.5,33.1,68,30.16,10,North,5.8,0,0,None,Clear
2017-03-19,7:51 PM,43,39.5,12.9,30,30.14,10,Variable,5.8,0,0,None,Clear
2017-11-21,7:51 AM,44.1,39.5,30,58,30.13,10,SW,8.1,18.4,0,None,Clear
2017-11-21,1:51 AM,43,39.5,25,49,30.12,10,Variable,5.8,0,0,None,Clear
2017-11-17,5:51 PM,44.1,39.5,15.1,31,30.08,10,WNW,8.1,0,0,None,Clear
2017-02-22,2:51 AM,43,39.5,34,71,30.07,10,Variable,5.8,0,0,None,Clear
2017-04-02,1:37 AM,44.1,39.5,34,68,30.07,10,NW,8.1,0,0,None,Overcast
2017-11-27,8:51 AM,43,39.5,26.1,51,30.05,10,Variable,5.8,0,0,None,Clear
2017-03-29,7:51 AM,44.1,39.5,37.9,79,30.04,10,North,8.1,0,0,None,Mostly Cloudy
2017-01-01,7:51 AM,44.1,39.5,26.1,49,30.04,10,West,8.1,0,0,None,Clear
2017-02-02,11:51 AM,43,39.5,16,34,30.03,10,Variable,5.8,17.3,0,None,Scattered Clouds
2017-03-29,6:51 AM,44.1,39.5,37.9,79,30.03,10,NNW,8.1,0,0,None,Overcast
2017-01-19,4:51 PM,44.1,39.5,33.1,65,30,10,NW,8.1,0,0,None,Overcast
2017-01-19,3:51 PM,44.1,39.5,33.1,65,29.99,10,NW,8.1,0,0,None,Overcast
2017-03-28,5:17 AM,43,39.5,42.1,97,29.97,3,ENE,5.8,0,0.03,Rain,Light Rain
2017-03-28,1:28 PM,43,39.5,42.1,97,29.97,2.5,ESE,5.8,0,0.03,Rain,Light Rain
2017-03-28,6:28 AM,43,39.5,42.1,97,29.97,5,ENE,5.8,0,0,None,Overcast
2017-12-06,2:51 PM,43,39.5,16,34,29.96,10,West,5.8,0,0,None,Clear
2017-03-28,5:51 AM,43,39.5,42.1,97,29.95,4,East,5.8,0,0.05,None,Overcast
2017-03-28,6:51 AM,43,39.5,41,93,29.95,5,ENE,5.8,0,0,None,Overcast
2017-03-28,8:51 AM,44.1,39.5,42.1,93,29.95,5,ENE,8.1,0,0,None,Overcast
2017-03-28,1:51 PM,43,39.5,42.1,97,29.94,5,Variable,5.8,0,0.03,Rain,Light Rain
2017-02-01,10:51 AM,43,39.5,23,45,29.94,10,Variable,5.8,23,0,None,Clear
2017-03-28,12:51 PM,43,39.5,42.1,97,29.93,4,ENE,5.8,0,0.02,Rain,Light Rain
2017-01-21,10:51 AM,43,39.5,41,93,29.88,5,West,5.8,0,0,None,Overcast
2017-02-26,12:51 AM,43,39.5,32,65,29.7,10,Variable,5.8,19.6,0,None,Mostly Cloudy
2017-02-08,11:51 PM,44.1,39.5,30,58,29.7,10,ENE,8.1,0,0,None,Overcast
2017-01-25,10:51 AM,44.1,39.5,28.9,55,29.66,10,West,8.1,20.7,0,None,Clear
2017-12-12,5:12 PM,43,39.5,33.1,68,29.45,10,Variable,5.8,21.9,0,None,Overcast
2017-03-02,12:51 PM,46,39.6,16,30,29.77,10,NW,15,29.9,0,None,Clear
2017-11-19,3:51 PM,46,39.6,26.1,46,29.6,10,NW,15,27.6,0,None,Clear
2017-04-19,6:32 AM,45,39.7,37,74,30.54,10,SE,10.4,18.4,0,None,Mostly Cloudy
2017-03-25,8:47 PM,44.6,39.7,39.2,81,30.38,10,NE,9.2,0,0,None,Overcast
2017-11-20,4:51 PM,45,39.7,23,42,30.07,10,West,10.4,20.7,0,None,Clear
2017-11-20,11:51 AM,45,39.7,21.9,40,30.02,10,West,10.4,21.9,0,None,Mostly Cloudy
2017-11-20,12:51 PM,45,39.7,19.9,37,30.01,10,WNW,10.4,25.3,0,None,Mostly Cloudy
2017-12-06,7:51 AM,45,39.7,23,42,29.96,10,West,10.4,0,0,None,Scattered Clouds
2017-01-22,10:27 PM,45,39.7,41,86,29.83,10,ENE,10.4,21.9,0,None,Overcast
2017-03-02,2:51 PM,45,39.7,15.1,30,29.83,10,NW,10.4,28.8,0,None,Clear
2017-05-13,8:31 PM,45,39.7,44.1,97,29.82,3,NE,10.4,23,0.05,Rain,Light Rain
2017-01-04,9:06 AM,45,39.7,41,86,29.52,6,WSW,10.4,19.6,0,None,Mostly Cloudy
2017-02-20,6:51 PM,46,39.9,12,25,30.3,10,NE,13.8,19.6,0,None,Clear
2017-01-25,1:51 PM,46,39.9,30.9,56,29.65,10,West,13.8,21.9,0,None,Partly Cloudy
2017-01-26,4:51 PM,46,39.9,25,44,29.42,10,WNW,13.8,26.5,0,None,Partly Cloudy
2017-04-07,7:51 AM,46,39.9,34,63,29.33,10,WSW,13.8,21.9,0,None,Overcast
2017-10-30,8:21 AM,46,39.9,42.1,86,29.31,10,WNW,13.8,28.8,0.03,None,Overcast
2017-04-19,5:51 AM,45,40.1,37,74,30.51,10,SSE,9.2,0,0,None,Mostly Cloudy
2017-03-25,10:51 PM,44.1,40.1,39,82,30.38,10,Variable,6.9,0,0,None,Overcast
2017-11-14,5:08 PM,44.1,40.1,34,68,30.31,10,Variable,6.9,0,0,None,Overcast
2017-02-20,7:51 PM,45,40.1,10,24,30.31,10,NE,9.2,0,0,None,Clear
2017-11-15,10:51 AM,44.1,40.1,34,68,30.27,10,ENE,6.9,0,0,None,Partly Cloudy
2017-12-01,7:51 PM,44.1,40.1,28.9,55,30.27,10,Variable,6.9,0,0,None,Clear
2017-01-10,11:01 PM,44.1,40.1,37,76,30.25,10,Variable,6.9,0,0,None,Overcast
2017-12-01,6:51 PM,45,40.1,28.9,53,30.25,10,NNW,9.2,0,0,None,Clear
2017-02-21,2:51 PM,44.1,40.1,30,58,30.24,10,Variable,6.9,17.3,0,None,Clear
2017-01-10,10:51 PM,44.1,40.1,37,76,30.23,10,South,6.9,0,0,None,Overcast
2017-11-07,3:51 PM,45,40.1,36,71,30.15,10,NE,9.2,0,0,Rain,Light Rain
2017-12-22,8:51 PM,44.1,40.1,39,82,30.14,10,NE,6.9,0,0,None,Clear
2017-11-20,5:51 PM,44.1,40.1,24.1,45,30.09,10,Variable,6.9,0,0,None,Clear
2017-03-28,4:49 AM,42.8,40.1,42.8,100,29.98,2,NE,4.6,0,0.01,Rain,Heavy Rain
2017-11-26,10:51 AM,44.1,40.1,24.1,45,29.97,10,Variable,6.9,27.6,0,None,Partly Cloudy
2017-03-28,2:51 AM,44.1,40.1,43,96,29.96,4,ENE,6.9,0,0.02,None,Overcast
2017-11-26,4:51 PM,44.1,40.1,23,43,29.96,10,West,6.9,0,0,None,Clear
2017-12-07,1:51 PM,44.1,40.1,17.1,34,29.95,10,Variable,6.9,19.6,0,None,Clear
2017-12-07,2:51 PM,44.1,40.1,18,35,29.95,10,Variable,6.9,19.6,0,None,Clear
2017-11-26,8:51 AM,44.1,40.1,32,63,29.95,10,Variable,6.9,0,0,None,Mostly Cloudy
2017-03-28,12:58 PM,44.1,40.1,42.1,93,29.94,4,ENE,6.9,0,0,Rain,Light Rain
2017-02-01,4:51 PM,44.1,40.1,28,53,29.94,10,Variable,6.9,0,0,None,Partly Cloudy
2017-11-24,11:51 PM,44.1,40.1,26.1,49,29.93,10,West,6.9,0,0,None,Clear
2017-04-06,3:51 AM,45,40.1,39,80,29.92,10,ESE,9.2,17.3,0,None,Overcast
2017-12-20,10:51 AM,44.1,40.1,18,35,29.92,10,West,6.9,19.6,0,None,Overcast
2017-01-21,7:34 PM,44.1,40.1,44.1,100,29.84,3,WSW,6.9,0,0,None,Overcast
2017-01-21,9:55 PM,44.1,40.1,44.1,100,29.82,2.5,West,6.9,0,0,None,Mostly Cloudy
2017-11-19,8:51 PM,45,40.1,26.1,48,29.73,10,West,9.2,0,0,None,Overcast
2017-11-19,6:51 PM,45,40.1,24.1,44,29.69,10,WNW,9.2,0,0,None,Scattered Clouds
2017-12-12,3:51 PM,44.1,40.1,34,68,29.42,10,West,6.9,0,0,None,Overcast
2017-03-24,9:51 AM,42.1,40.2,24.1,49,30.44,10,Variable,3.5,0,0,None,Overcast
2017-03-06,11:51 PM,42.1,40.2,25,51,30.41,10,Variable,3.5,0,0,None,Overcast
2017-01-13,8:51 AM,46,40.2,30.9,56,30.37,10,WNW,12.7,21.9,0,None,Clear
2017-11-08,11:51 PM,42.1,40.2,36,79,30.25,10,ENE,3.5,0,0,None,Clear
2017-02-21,5:51 PM,42.1,40.2,30.9,65,30.21,10,Variable,3.5,0,0,None,Clear
2017-03-19,8:51 PM,42.1,40.2,12.9,31,30.16,10,Variable,3.5,0,0,None,Clear
2017-02-06,8:51 PM,42.1,40.2,34,73,30.05,8,South,3.5,0,0,None,Clear
2017-01-20,1:51 AM,42.1,40.2,32,67,30.03,10,Variable,3.5,0,0,None,Overcast
2017-11-10,4:46 AM,44.6,40.2,33.8,66,30.01,10,NW,8.1,19.6,0,None,Overcast
2017-11-23,3:51 PM,42.1,40.2,17.1,37,30.01,10,Variable,3.5,0,0,None,Clear
2017-12-07,5:51 PM,42.1,40.2,19.9,41,29.97,10,Variable,3.5,0,0,None,Clear
2017-11-26,11:51 AM,46,40.2,24.1,42,29.95,10,WNW,12.7,20.7,0,None,Clear
2017-01-20,3:51 PM,42.1,40.2,37,82,29.93,7,Variable,3.5,0,0.01,None,Overcast
2017-01-21,7:10 AM,42.1,40.2,41,96,29.91,6,Variable,3.5,0,0,None,Overcast
2017-01-21,8:37 AM,42.1,40.2,39.9,92,29.9,6,SW,3.5,0,0,None,Overcast
2017-02-11,12:51 PM,42.1,40.2,21.9,45,29.9,10,Variable,3.5,0,0,None,Clear
2017-01-21,5:51 AM,42.1,40.2,41,96,29.88,5,Variable,3.5,0,0,None,Overcast
2017-01-21,7:51 AM,42.1,40.2,41,96,29.88,5,Variable,3.5,0,0,None,Overcast
2017-01-03,9:17 PM,42.1,40.2,42.1,100,29.52,1.8,North,3.5,0,0,None,Overcast
2017-01-03,8:18 PM,42.1,40.2,42.1,100,29.52,2.5,Variable,3.5,0,0,None,Overcast
2017-01-04,3:38 AM,42.1,40.2,39.9,92,29.46,10,Variable,3.5,0,0,None,Overcast
2017-01-16,2:51 PM,43,40.3,21,42,30.35,10,Variable,4.6,0,0,None,Clear
2017-12-02,8:51 AM,43,40.3,30,60,30.31,10,NE,4.6,0,0,None,Clear
2017-11-13,6:51 PM,43,40.3,34,71,30.31,10,Variable,4.6,0,0,None,Clear
2017-11-14,6:51 PM,43,40.3,34,71,30.3,10,Variable,4.6,0,0,None,Overcast
2017-11-14,7:51 PM,43,40.3,34,71,30.3,10,Variable,4.6,0,0,None,Overcast
2017-11-09,12:51 AM,43,40.3,34,71,30.24,10,NNE,4.6,0,0,None,Clear
2017-01-11,2:07 AM,43,40.3,39.9,89,30.21,3,Variable,4.6,0,0.04,Rain,Rain
2017-12-03,2:51 AM,43,40.3,35.1,74,30.2,10,ENE,4.6,0,0,None,Scattered Clouds
2017-02-21,8:51 PM,43,40.3,32,65,30.19,10,Variable,4.6,0,0,None,Clear
2017-11-07,5:51 AM,43,40.3,32,65,30.18,10,Variable,4.6,0,0,None,Clear
2017-11-07,4:51 AM,43,40.3,33.1,68,30.17,10,Variable,4.6,0,0,None,Clear
2017-11-21,3:51 AM,43,40.3,28.9,58,30.12,10,WSW,4.6,0,0,None,Clear
2017-11-20,8:51 PM,43,40.3,23,45,30.11,10,Variable,4.6,0,0,None,Clear
2017-02-22,3:51 AM,43,40.3,34,71,30.07,10,Variable,4.6,0,0,None,Overcast
2017-01-19,9:51 AM,43,40.3,36,76,30.06,10,Variable,4.6,0,0,None,Clear
2017-02-11,8:51 PM,43,40.3,25,49,30.05,10,NNE,4.6,0,0,None,Clear
2017-01-19,7:51 PM,43,40.3,32,65,30.04,10,West,4.6,0,0,None,Overcast
2017-03-28,9:51 AM,43,40.3,42.1,97,29.97,5,East,4.6,0,0,None,Overcast
2017-03-28,9:37 PM,43,40.3,42.1,97,29.96,4,NE,4.6,0,0.04,Rain,Light Rain
2017-03-28,10:05 PM,43,40.3,42.1,97,29.95,6,NE,4.6,0,0.01,None,Overcast
2017-03-28,9:51 PM,43,40.3,42.1,97,29.94,5,NE,4.6,0,0.04,Rain,Light Rain
2017-03-21,4:51 AM,43,40.3,23,45,29.93,10,Variable,4.6,0,0,None,Mostly Cloudy
2017-03-21,7:51 AM,43,40.3,23,45,29.93,10,West,4.6,0,0,None,Overcast
2017-03-28,2:51 PM,43,40.3,42.1,97,29.91,3,Variable,4.6,0,0.07,Rain,Light Rain
2017-12-20,2:51 PM,43,40.3,17.1,35,29.91,10,Variable,4.6,0,0,None,Clear
2017-11-25,3:51 AM,43,40.3,30,60,29.87,10,Variable,4.6,0,0,None,Clear
2017-11-25,4:51 AM,43,40.3,30,60,29.85,10,West,4.6,0,0,None,Clear
2017-01-22,12:51 AM,43,40.3,43,100,29.77,1.5,West,4.6,0,0,None,Overcast
2017-01-22,8:03 AM,43,40.3,43,100,29.75,0.8,ENE,4.6,0,0,None,Mist
2017-01-22,7:51 AM,43,40.3,43,100,29.73,1,NE,4.6,0,0,None,Overcast
2017-01-03,8:51 PM,43,40.3,42.1,97,29.5,2,Variable,4.6,0,0,None,Overcast
2017-01-04,7:51 AM,43,40.3,41,93,29.48,5,Variable,4.6,0,0,None,Overcast
2017-02-15,10:51 AM,43,40.3,30,60,29.45,9,West,4.6,0,0,None,Overcast
2017-01-13,1:51 PM,45,40.6,21,39,30.45,10,NNW,8.1,0,0,None,Clear
2017-01-13,9:51 AM,45,40.6,28,52,30.4,10,NW,8.1,25.3,0,None,Clear
2017-03-24,11:51 AM,45,40.6,21,39,30.38,10,WSW,8.1,18.4,0,None,Overcast
2017-03-25,9:51 PM,45,40.6,41,86,30.36,10,ENE,8.1,0,0,None,Overcast
2017-11-07,8:51 AM,46,40.6,32,58,30.21,10,ENE,11.5,0,0,None,Clear
2017-11-07,7:51 AM,45,40.6,33.1,63,30.2,10,NE,8.1,0,0,None,Clear
2017-01-11,4:11 AM,45,40.6,42.1,90,30.19,10,WSW,8.1,20.7,0,None,Overcast
2017-11-20,1:51 PM,45,40.6,21,39,30.02,10,West,8.1,23,0,None,Clear
2017-01-19,1:51 PM,45,40.6,34,65,29.99,10,NW,8.1,0,0,None,Overcast
2017-04-06,3:13 AM,45,40.6,39,80,29.95,10,SE,8.1,17.3,0,None,Overcast
2017-11-26,2:51 PM,45,40.6,23,42,29.94,10,WNW,8.1,0,0,None,Clear
2017-04-01,4:51 PM,46,40.6,34,63,29.9,10,NNE,11.5,19.6,0,None,Overcast
2017-11-16,9:51 PM,46,40.6,33.1,61,29.89,10,WNW,11.5,19.6,0,None,Mostly Cloudy
2017-05-08,5:51 AM,45,40.6,35.1,68,29.84,10,WNW,8.1,0,0,None,Partly Cloudy
2017-05-13,9:16 PM,45,40.6,44.1,97,29.83,2.5,NE,8.1,18.4,0.04,Rain,Rain
2017-05-13,7:51 PM,46,40.6,44.1,93,29.81,2,NE,11.5,23,0.06,Rain,Light Rain
2017-01-22,4:14 PM,46,40.6,44.1,93,29.74,1.8,ENE,11.5,0,0.01,Rain,Light Rain
2017-02-08,10:51 PM,45,40.6,30,56,29.7,10,ENE,8.1,0,0,None,Partly Cloudy
2017-01-22,12:51 PM,45,40.6,42.1,90,29.7,6,NE,8.1,0,0,None,Overcast
2017-01-22,2:51 PM,46,40.6,42.1,86,29.69,6,ENE,11.5,17.3,0,None,Overcast
2017-11-19,5:51 PM,45,40.6,25,46,29.67,10,WNW,8.1,0,0,None,Overcast
2017-10-30,7:51 AM,46,40.6,42.1,86,29.24,4,WNW,11.5,34.5,0.05,Rain,Light Rain
2017-11-28,10:51 AM,44.1,40.8,25,47,30.44,10,Variable,5.8,0,0,None,Clear
2017-03-07,3:51 AM,44.1,40.8,35.1,71,30.36,10,SSE,5.8,0,0,None,Overcast
2017-03-25,8:51 PM,44.1,40.8,39.9,85,30.36,10,Variable,5.8,0,0,None,Overcast
2017-03-07,5:51 AM,44.1,40.8,37.9,79,30.35,10,Variable,5.8,0,0,None,Overcast
2017-11-13,5:51 AM,44.1,40.8,32,63,30.33,10,ENE,5.8,0,0,None,Mostly Cloudy
2017-11-14,5:18 PM,44.1,40.8,34,68,30.32,10,Variable,5.8,0,0,None,Overcast
2017-01-11,9:51 AM,44.1,40.8,36,73,30.32,10,Variable,5.8,0,0,None,Clear
2017-11-29,10:51 PM,44.1,40.8,26.1,49,30.32,10,Variable,5.8,0,0,None,Clear
2017-11-13,11:51 AM,44.1,40.8,39.9,85,30.3,5,Variable,5.8,0,0.01,None,Overcast
2017-01-11,3:20 AM,44.1,40.8,42.1,93,30.19,4,Variable,5.8,18.4,0.09,Rain,Rain
2017-03-30,10:51 PM,44.1,40.8,30.9,60,30.13,10,South,5.8,0,0,None,Overcast
2017-01-01,8:51 AM,44.1,40.8,26.1,49,30.09,10,Variable,5.8,18.4,0,None,Clear
2017-02-22,1:51 AM,44.1,40.8,34,68,30.07,10,Variable,5.8,0,0,None,Overcast
2017-12-07,3:51 PM,44.1,40.8,16,32,29.96,10,Variable,5.8,18.4,0,None,Clear
2017-03-28,10:41 PM,44.1,40.8,43,96,29.95,7,NE,5.8,0,0.01,Rain,Light Rain
2017-03-28,11:06 PM,44.1,40.8,43,96,29.95,7,NNE,5.8,0,0,None,Overcast
2017-03-21,8:51 AM,44.1,40.8,21,40,29.93,10,WNW,5.8,0,0,None,Overcast
2017-11-25,1:51 AM,44.1,40.8,30.9,60,29.9,10,Variable,5.8,0,0,None,Clear
2017-11-16,10:51 PM,44.1,40.8,35.1,71,29.89,10,WNW,5.8,0,0,None,Scattered Clouds
2017-03-22,3:51 AM,44.1,40.8,23,43,29.88,10,Variable,5.8,0,0,None,Clear
2017-12-12,3:43 PM,44.1,40.8,33.1,65,29.44,10,WNW,5.8,0,0,None,Overcast
2017-04-19,3:03 AM,46,41,37.9,73,30.54,10,SE,10.4,0,0,None,Mostly Cloudy
2017-03-19,2:51 PM,46,41,19.9,35,30.14,10,North,10.4,17.3,0,None,Clear
2017-03-19,5:51 PM,46,41,10.9,24,30.11,10,NNE,10.4,19.6,0,None,Clear
2017-03-19,4:51 PM,46,41,12.9,26,30.11,10,North,10.4,25.3,0,None,Clear
2017-12-18,6:51 PM,46,41,34,63,29.96,9,WSW,10.4,19.6,0,None,Overcast
2017-05-13,9:37 PM,46,41,44.1,93,29.82,2,NE,10.4,18.4,0.08,Rain,Heavy Rain
2017-01-22,9:51 PM,46,41,41,83,29.79,10,ENE,10.4,21.9,0,None,Overcast
2017-01-22,3:51 PM,46,41,44.1,93,29.71,1.8,ENE,10.4,0,0,Rain,Light Rain
2017-01-25,2:51 PM,46,41,30.9,56,29.67,10,NW,10.4,19.6,0,None,Partly Cloudy
2017-04-07,6:51 AM,46,41,34,63,29.32,10,West,10.4,19.6,0,None,Overcast
2017-01-13,10:51 AM,45,41.2,25,46,30.42,10,Variable,6.9,19.6,0,None,Clear
2017-11-12,2:51 PM,45,41.2,23,42,30.4,10,West,6.9,0,0,None,Clear
2017-03-07,6:51 AM,45,41.2,39,80,30.35,10,Variable,6.9,17.3,0,None,Overcast
2017-03-28,1:27 AM,45,41.2,44.1,97,30,2.5,ENE,6.9,0,0.02,Rain,Light Rain
2017-03-20,11:51 PM,45,41.2,21.9,40,29.99,10,WNW,6.9,0,0,None,Overcast
2017-01-20,1:40 PM,45,41.2,33.1,63,29.95,10,South,6.9,0,0,None,Scattered Clouds
2017-11-26,3:51 PM,45,41.2,23,42,29.95,10,Variable,6.9,0,0,None,Clear
2017-11-26,1:51 PM,45,41.2,24.1,44,29.94,10,WNW,6.9,20.7,0,None,Clear
2017-01-01,4:51 AM,45,41.2,24.1,44,29.94,10,WSW,6.9,0,0,None,Mostly Cloudy
2017-03-10,1:51 AM,45,41.2,19,36,29.92,10,Variable,6.9,0,0,None,Mostly Cloudy
2017-11-26,7:51 AM,45,41.2,30.9,58,29.92,10,West,6.9,0,0,None,Scattered Clouds
2017-05-08,4:51 AM,45,41.2,35.1,68,29.83,10,Variable,6.9,0,0,None,Mostly Cloudy
2017-05-13,8:51 PM,45,41.2,44.1,97,29.8,3,Variable,6.9,18.4,0.08,Rain,Rain
2017-12-23,8:51 PM,45,41.2,39.9,82,29.79,10,Variable,6.9,19.6,0,Rain,Light Rain
2017-12-12,5:13 AM,45,41.2,36,71,29.74,10,South,6.9,0,0,None,Overcast
2017-01-04,8:59 AM,45,41.2,41,86,29.51,6,Variable,6.9,0,0,None,Mostly Cloudy
2017-01-26,6:51 PM,45,41.2,27,49,29.47,10,Variable,6.9,23,0,None,Overcast
2017-03-06,12:51 PM,43,41.3,5,21,30.47,10,South,3.5,0,0,None,Clear
2017-11-12,8:51 PM,43,41.3,28.9,58,30.41,10,NW,3.5,0,0,None,Clear
2017-11-12,5:51 PM,43,41.3,25,49,30.4,10,Variable,3.5,0,0,None,Clear
2017-11-12,11:51 PM,43,41.3,28.9,58,30.39,10,NNE,3.5,0,0,None,Partly Cloudy
2017-01-01,6:51 PM,43,41.3,19,38,30.35,10,ENE,3.5,0,0,None,Clear
2017-10-17,6:51 AM,43,41.3,34,71,30.32,10,Variable,3.5,0,0,None,Clear
2017-10-17,5:51 AM,43,41.3,33.1,68,30.29,10,NE,3.5,0,0,None,Clear
2017-11-08,10:51 PM,43,41.3,36,76,30.25,10,NE,3.5,0,0,None,Clear
2017-11-09,7:51 AM,43,41.3,37.9,82,30.24,10,Variable,3.5,0,0,None,Mostly Cloudy
2017-11-27,8:51 PM,43,41.3,23,45,30.23,10,Variable,3.5,0,0,None,Clear
2017-12-03,1:51 AM,43,41.3,34,71,30.2,10,East,3.5,0,0,None,Clear
2017-03-17,7:51 PM,43,41.3,12.9,30,30.19,10,Variable,3.5,0,0,None,Clear
2017-11-21,5:51 AM,43,41.3,28.9,58,30.12,10,Variable,3.5,0,0,None,Clear
2017-02-22,4:51 AM,43,41.3,34,71,30.06,10,WSW,3.5,0,0,None,Partly Cloudy
2017-04-02,2:51 AM,43,41.3,32,65,30.05,10,Variable,3.5,0,0,None,Mostly Cloudy
2017-01-19,10:51 PM,43,41.3,33.1,68,30.01,10,Variable,3.5,0,0,None,Overcast
2017-11-26,5:51 PM,43,41.3,23,45,29.97,10,Variable,3.5,0,0,None,Clear
2017-12-07,4:51 PM,43,41.3,18,37,29.97,10,West,3.5,0,0,None,Clear
2017-12-18,1:51 PM,43,41.3,34,71,29.97,8,WSW,3.5,0,0,None,Overcast
2017-03-21,2:51 AM,43,41.3,23,45,29.94,10,Variable,3.5,0,0,None,Partly Cloudy
2017-11-25,12:51 AM,43,41.3,28.9,58,29.92,10,Variable,3.5,0,0,None,Clear
2017-01-21,8:14 AM,43,41.3,41,93,29.9,5,WSW,3.5,0,0,None,Overcast
2017-11-25,5:51 AM,43,41.3,28.9,58,29.84,10,Variable,3.5,0,0,None,Clear
2017-01-21,11:25 PM,43,41.3,43,100,29.82,0.8,WSW,3.5,0,0,None,Mist
2017-01-21,11:42 PM,43,41.3,43,100,29.81,1,West,3.5,0,0,None,Overcast
2017-01-22,6:32 AM,43,41.3,43,100,29.76,2.5,WNW,3.5,0,0,None,Overcast
2017-01-22,6:58 AM,43,41.3,43,100,29.76,1.2,WNW,3.5,0,0,None,Overcast
2017-01-22,6:51 AM,43,41.3,43,100,29.74,2,WNW,3.5,0,0,None,Overcast
2017-04-19,7:51 AM,46,41.4,36,68,30.53,10,SE,9.2,0,0,None,Mostly Cloudy
2017-02-27,10:51 AM,46,41.4,23,40,30.42,10,WSW,9.2,0,0,None,Clear
2017-01-01,9:51 AM,46,41.4,28,50,30.14,10,WNW,9.2,19.6,0,None,Scattered Clouds
2017-11-20,2:51 PM,46,41.4,21.9,39,30.03,10,West,9.2,20.7,0,None,Clear
2017-01-19,1:11 PM,46,41.4,34,63,30.01,10,NW,9.2,0,0,None,Scattered Clouds
2017-03-02,1:51 PM,46,41.4,16,30,29.8,10,NW,9.2,29.9,0,None,Clear
2017-05-13,10:51 PM,46,41.4,44.1,93,29.79,4,NE,9.2,16.1,0.09,Rain,Light Rain
2017-01-22,4:58 PM,46,41.4,45,96,29.75,5,East,9.2,0,0,Rain,Light Rain
2017-01-22,5:51 PM,46,41.4,44.1,93,29.73,7,ENE,9.2,0,0.01,None,Overcast
2017-01-22,2:30 PM,46,41.4,42.1,86,29.72,5,ENE,9.2,0,0,None,Overcast
2017-04-07,12:21 PM,46,41.4,35.1,66,29.39,10,West,9.2,18.4,0,None,Overcast
2017-04-07,12:51 PM,46,41.4,35.1,66,29.38,10,West,9.2,24.2,0,None,Overcast
2017-04-19,8:46 AM,46.4,41.5,35.6,66,30.54,10,South,10.4,17.3,0,None,Mostly Cloudy
2017-03-06,2:51 PM,44.1,41.5,10,25,30.45,10,Variable,4.6,0,0,None,Mostly Cloudy
2017-03-06,1:51 PM,44.1,41.5,9,24,30.45,10,Variable,4.6,0,0,None,Clear
2017-11-13,4:51 AM,44.1,41.5,30.9,60,30.35,10,ENE,4.6,0,0,None,Mostly Cloudy
2017-11-13,6:51 AM,44.1,41.5,32,63,30.33,10,NE,4.6,0,0,None,Overcast
2017-12-02,9:51 AM,44.1,41.5,28.9,55,30.31,10,NE,4.6,0,0,None,Clear
2017-11-14,4:51 PM,44.1,41.5,34,68,30.29,10,Variable,4.6,0,0,None,Overcast
2017-12-01,9:51 PM,44.1,41.5,28.9,55,30.28,10,ENE,4.6,0,0,None,Clear
2017-10-17,4:51 AM,44.1,41.5,32,63,30.27,10,Variable,4.6,0,0,None,Clear
2017-12-02,8:51 PM,44.1,41.5,32,63,30.22,10,Variable,4.6,0,0,None,Clear
2017-12-03,3:51 AM,44.1,41.5,35.1,71,30.21,10,NE,4.6,0,0,None,Overcast
2017-04-02,8:51 AM,44.1,41.5,30.9,60,30.14,10,Variable,4.6,0,0,None,Clear
2017-11-20,6:51 PM,44.1,41.5,25,47,30.1,10,Variable,4.6,0,0,None,Clear
2017-03-27,11:51 AM,44.1,41.5,42.1,93,30.06,4,NE,4.6,0,0,None,Overcast
2017-01-19,5:51 PM,44.1,41.5,33.1,65,30.01,10,Variable,4.6,0,0,None,Overcast
2017-02-11,6:51 PM,44.1,41.5,28,53,30,9,NE,4.6,0,0,None,Clear
2017-03-28,11:38 PM,44.1,41.5,43,96,29.96,8,ENE,4.6,0,0,None,Mostly Cloudy
2017-03-21,1:51 AM,44.1,41.5,21.9,42,29.96,10,Variable,4.6,0,0,None,Overcast
2017-03-28,11:20 PM,44.1,41.5,43,96,29.95,7,NE,4.6,0,0,None,Mostly Cloudy
2017-03-28,10:51 PM,44.1,41.5,43,96,29.93,7,Variable,4.6,0,0.01,None,Overcast
2017-11-16,11:51 PM,44.1,41.5,36,73,29.92,10,Variable,4.6,0,0,None,Mostly Cloudy
2017-12-20,11:51 AM,44.1,41.5,19,37,29.9,10,Variable,4.6,19.6,0,None,Scattered Clouds
2017-01-01,1:51 AM,44.1,41.5,26.1,49,29.9,10,West,4.6,23,0,None,Overcast
2017-01-21,9:51 PM,44.1,41.5,44.1,100,29.8,3,WNW,4.6,0,0,None,Mostly Cloudy
2017-12-23,6:25 PM,44.1,41.5,43,96,29.74,3,Variable,4.6,0,0.04,Rain,Light Rain
2017-01-22,9:51 AM,44.1,41.5,44.1,100,29.74,2,ENE,4.6,0,0,None,Overcast
2017-01-22,8:51 AM,44.1,41.5,44.1,100,29.73,0.5,East,4.6,0,0,Fog,Fog
2017-01-26,7:51 PM,44.1,41.5,27,51,29.49,10,Variable,4.6,16.1,0,None,Mostly Cloudy
2017-12-12,2:51 PM,44.1,41.5,34,68,29.43,10,West,4.6,0,0,None,Overcast
2017-04-19,6:09 AM,45,41.8,37,74,30.53,10,Variable,5.8,0,0,None,Scattered Clouds
2017-04-19,6:51 AM,45,41.8,37,74,30.52,10,SSE,5.8,0,0,None,Mostly Cloudy
2017-11-14,11:01 AM,45,41.8,34,65,30.34,10,ENE,5.8,0,0,None,Scattered Clouds
2017-02-21,11:51 AM,45,41.8,25,46,30.34,10,Variable,5.8,0,0,None,Clear
2017-11-14,11:41 AM,45,41.8,34,65,30.33,10,NE,5.8,0,0,None,Overcast
2017-11-14,3:51 PM,45,41.8,34,65,30.28,10,Variable,5.8,0,0,None,Overcast
2017-03-30,10:51 AM,45,41.8,23,42,30.26,10,Variable,5.8,0,0,None,Clear
2017-12-02,7:51 PM,45,41.8,32,60,30.23,10,SSE,5.8,0,0,None,Clear
2017-11-09,8:51 AM,45,41.8,37,74,30.22,10,Variable,5.8,0,0,None,Scattered Clouds
2017-11-27,7:51 PM,45,41.8,23,42,30.22,10,Variable,5.8,0,0,None,Clear
2017-01-11,12:51 AM,45,41.8,37.9,76,30.19,10,Variable,5.8,0,0,None,Overcast
2017-03-30,8:51 PM,45,41.8,28.9,53,30.14,10,South,5.8,0,0,None,Overcast
2017-03-29,8:51 AM,45,41.8,37.9,76,30.06,10,Variable,5.8,0,0,None,Overcast
2017-11-27,9:51 AM,45,41.8,26.1,48,30.05,9,WNW,5.8,0,0,None,Clear
2017-02-02,1:51 PM,45,41.8,14,29,30.01,10,Variable,5.8,19.6,0,None,Scattered Clouds
2017-03-28,2:11 AM,45,41.8,43,93,30,3,East,5.8,0,0,None,Overcast
2017-04-01,8:51 PM,45,41.8,33.1,63,30,10,Variable,5.8,0,0,None,Overcast
2017-04-06,12:51 AM,45,41.8,39.9,82,29.98,10,Variable,5.8,0,0,None,Overcast
2017-01-20,12:51 PM,45,41.8,33.1,63,29.96,10,Variable,5.8,0,0,None,Overcast
2017-12-18,10:51 PM,45,41.8,35.1,68,29.94,8,WSW,5.8,0,0,None,Mostly Cloudy
2017-01-20,2:51 PM,45,41.8,34,65,29.93,10,Variable,5.8,0,0,None,Mostly Cloudy
2017-12-18,11:51 PM,45,41.8,35.1,68,29.92,8,WSW,5.8,0,0,None,Mostly Cloudy
2017-05-13,9:27 PM,45,41.8,44.1,97,29.83,3,Variable,5.8,16.1,0.05,Rain,Light Rain
2017-01-21,3:10 PM,45,41.8,42.1,90,29.83,5,Variable,5.8,0,0,None,Mostly Cloudy
2017-01-21,5:36 PM,45,41.8,44.1,97,29.83,5,West,5.8,0,0,None,Mostly Cloudy
2017-01-21,6:51 PM,45,41.8,44.1,97,29.81,4,West,5.8,0,0,None,Mostly Cloudy
2017-01-21,4:51 PM,45,41.8,43,93,29.81,4,WSW,5.8,0,0,None,Clear
2017-12-12,4:51 AM,45,41.8,36,71,29.75,10,South,5.8,0,0,None,Overcast
2017-01-22,11:51 AM,45,41.8,43,93,29.73,4,Variable,5.8,0,0,None,Overcast
2017-11-19,4:51 PM,45,41.8,25,46,29.63,10,Variable,5.8,19.6,0,None,Clear
2017-04-19,3:51 AM,46,41.9,37,71,30.52,10,SSE,8.1,0,0,None,Mostly Cloudy
2017-03-07,7:51 AM,46,41.9,41,83,30.34,10,South,8.1,0,0,None,Overcast
2017-11-14,2:58 PM,46,41.9,33.1,61,30.3,10,ENE,8.1,0,0,None,Overcast
2017-03-30,6:51 PM,46,41.9,27,47,30.13,10,South,8.1,0,0,None,Overcast
2017-11-20,3:51 PM,46,41.9,21.9,39,30.06,10,WSW,8.1,21.9,0,None,Clear
2017-11-17,12:51 PM,46,41.9,21.9,39,30.05,10,NW,8.1,0,0,None,Clear
2017-01-19,1:20 PM,46,41.9,34,63,30.02,10,NW,8.1,0,0,None,Mostly Cloudy
2017-04-05,8:51 PM,46,41.9,42.1,86,29.98,9,SE,8.1,18.4,0,None,Clear
2017-12-18,5:51 PM,46,41.9,34,63,29.97,9,WSW,8.1,17.3,0,None,Overcast
2017-12-18,9:51 PM,46,41.9,34,63,29.95,9,West,8.1,0,0,None,Mostly Cloudy
2017-04-01,5:51 PM,46,41.9,33.1,61,29.93,10,North,8.1,21.9,0,None,Overcast
2017-05-13,10:11 PM,46,41.9,44.1,93,29.82,3,NE,8.1,0,0.04,Rain,Light Rain
2017-01-22,6:40 PM,46,41.9,43,89,29.77,8,ENE,8.1,0,0,None,Overcast
2017-05-14,12:51 AM,46,41.9,44.1,93,29.75,10,NE,8.1,0,0.02,None,Overcast
2017-01-22,3:46 PM,46.4,41.9,44.6,93,29.73,1.8,ENE,9.2,19.6,0,Rain,Light Rain
2017-01-22,3:57 PM,46,41.9,44.1,93,29.73,3,ENE,8.1,0,0.01,None,Overcast
2017-05-14,2:51 AM,46,41.9,44.1,93,29.71,10,North,8.1,0,0,None,Overcast
2017-01-25,11:51 AM,46,41.9,30,54,29.65,10,WNW,8.1,19.6,0,None,Clear
2017-04-04,1:51 PM,46,41.9,45,96,29.6,7,East,8.1,0,0,None,Overcast
2017-04-02,12:49 AM,44.6,42.2,33.8,66,30.07,10,Variable,4.6,0,0,None,Overcast
2017-03-24,10:51 AM,44.1,42.5,23,43,30.41,10,Variable,3.5,0,0,None,Partly Cloudy
2017-11-30,11:06 AM,44.1,42.5,28.9,55,30.3,10,NE,3.5,0,0,None,Overcast
2017-12-03,11:51 PM,44.1,42.5,37.9,79,30.3,9,NNE,3.5,0,0,None,Clear
2017-11-14,2:12 PM,46,42.5,33.1,61,30.3,10,Variable,6.9,0,0,None,Overcast
2017-11-30,10:51 AM,44.1,42.5,28,53,30.29,10,ENE,3.5,0,0,None,Mostly Cloudy
2017-11-13,5:51 PM,44.1,42.5,35.1,71,30.29,10,Variable,3.5,0,0,None,Clear
2017-11-14,2:51 PM,46,42.5,33.1,61,30.28,10,NE,6.9,0,0,None,Overcast
2017-03-24,1:51 PM,46,42.5,28,50,30.26,10,Variable,6.9,20.7,0,None,Overcast
2017-11-08,10:51 AM,44.1,42.5,35.1,71,30.26,10,Variable,3.5,0,0,None,Overcast
2017-11-08,9:51 PM,44.1,42.5,37,76,30.26,10,Variable,3.5,0,0,None,Clear
2017-10-17,3:51 AM,44.1,42.5,30.9,60,30.25,10,Variable,3.5,0,0,None,Clear
2017-01-11,11:06 PM,46,42.5,44.1,93,30.23,2.5,South,6.9,0,0.04,Rain,Rain
2017-12-03,12:51 AM,44.1,42.5,34,68,30.22,10,NNE,3.5,0,0,None,Partly Cloudy
2017-01-11,10:51 PM,46,42.5,44.1,93,30.21,3,SSE,6.9,0,0.1,Rain,Light Rain
2017-01-11,2:51 AM,44.1,42.5,41,89,30.17,3,Variable,3.5,0,0.13,Rain,Rain
2017-01-11,4:51 AM,46,42.5,41,83,30.17,10,WSW,6.9,20.7,0,None,Overcast
2017-03-17,3:51 PM,46,42.5,7,20,30.17,10,NW,6.9,0,0,None,Clear
2017-01-11,3:51 AM,46,42.5,42.1,86,30.16,10,SW,6.9,0,0.1,None,Overcast
2017-03-17,4:51 PM,46,42.5,9,22,30.16,10,West,6.9,0,0,None,Clear
2017-12-01,8:51 AM,46,42.5,35.1,66,30.16,10,WNW,6.9,0,0,None,Clear
2017-12-22,1:51 PM,44.1,42.5,30.9,60,30.15,10,Variable,3.5,0,0,None,Overcast
2017-02-20,7:51 AM,44.1,42.5,30.9,60,30.15,10,Variable,3.5,0,0,None,Clear
2017-11-07,2:51 AM,44.1,42.5,34,68,30.14,10,Variable,3.5,0,0,None,Clear
2017-02-22,5:51 AM,44.1,42.5,34,68,30.05,10,Variable,3.5,0,0,None,Partly Cloudy
2017-02-22,6:51 AM,44.1,42.5,35.1,71,30.05,10,Variable,3.5,0,0,None,Mostly Cloudy
2017-11-24,10:51 AM,44.1,42.5,23,43,30.04,10,Variable,3.5,0,0,None,Clear
2017-01-19,10:51 AM,46,42.5,35.1,66,30.04,10,NW,6.9,0,0,None,Clear
2017-02-11,7:51 PM,44.1,42.5,26.1,49,30.03,10,NE,3.5,0,0,None,Clear
2017-02-22,9:51 AM,46,42.5,36,68,30.03,10,WSW,6.9,0,0,None,Mostly Cloudy
2017-04-05,11:51 PM,46,42.5,41,83,29.99,10,SSE,6.9,16.1,0,None,Scattered Clouds
2017-01-01,5:51 AM,44.1,42.5,25,47,29.99,10,Variable,3.5,0,0,None,Clear
2017-03-29,3:51 AM,46,42.5,43,89,29.97,10,Variable,6.9,0,0,None,Overcast
2017-04-06,1:51 AM,46,42.5,39.9,79,29.96,10,SSE,6.9,17.3,0,None,Overcast
2017-03-28,11:31 PM,44.1,42.5,43,96,29.96,6,NE,3.5,0,0,None,Overcast
2017-03-28,10:32 PM,44.1,42.5,43,96,29.95,6,NE,3.5,0,0.01,Rain,Light Rain
2017-03-28,3:51 AM,44.1,42.5,43,96,29.95,4,Variable,3.5,0,0,None,Overcast
2017-03-28,11:51 PM,44.1,42.5,43,96,29.93,7,NNE,3.5,0,0,None,Overcast
2017-01-01,12:51 AM,44.1,42.5,25,47,29.89,10,Variable,3.5,0,0,None,Overcast
2017-11-16,8:51 PM,46,42.5,33.1,61,29.88,10,Variable,6.9,17.3,0,None,Clear
2017-02-11,1:51 PM,44.1,42.5,21.9,42,29.88,10,West,3.5,0,0,None,Clear
2017-05-08,7:51 AM,46,42.5,34,63,29.87,10,WNW,6.9,0,0,None,Clear
2017-01-21,10:21 PM,44.1,42.5,44.1,100,29.83,1.2,West,3.5,0,0,None,Overcast
2017-12-20,5:51 AM,46,42.5,24.1,42,29.82,10,Variable,6.9,18.4,0,None,Clear
2017-04-08,10:51 AM,46,42.5,19.9,35,29.82,10,Variable,6.9,19.6,0,None,Clear
2017-01-21,10:51 PM,44.1,42.5,44.1,100,29.81,1.5,WNW,3.5,0,0,None,Overcast
2017-05-13,9:51 PM,46,42.5,45,96,29.8,2.5,Variable,6.9,0,0.11,Rain,Rain
2017-05-13,11:51 PM,46,42.5,44.1,93,29.76,7,Variable,6.9,0,0.03,Rain,Light Rain
2017-01-22,9:17 AM,44.1,42.5,44.1,100,29.76,1.2,NE,3.5,0,0,None,Overcast
2017-01-22,1:51 AM,44.1,42.5,44.1,100,29.75,3,West,3.5,0,0,None,Overcast
2017-01-22,6:51 PM,46,42.5,43,89,29.75,8,Variable,6.9,0,0,None,Overcast
2017-01-22,1:33 PM,46,42.5,42.1,86,29.72,7,ENE,6.9,0,0,None,Overcast
2017-02-08,9:51 PM,46,42.5,30,54,29.72,10,NNW,6.9,0,0,None,Clear
2017-11-14,11:51 AM,45,42.6,34,65,30.31,10,Variable,4.6,0,0,None,Overcast
2017-11-13,12:51 PM,45,42.6,39.9,82,30.28,8,Variable,4.6,0,0,None,Overcast
2017-11-01,2:51 AM,45,42.6,28,52,30.28,10,Variable,4.6,0,0,None,Clear
2017-10-17,2:51 AM,45,42.6,30.9,58,30.25,10,Variable,4.6,0,0,None,Clear
2017-12-01,7:51 AM,45,42.6,36,71,30.14,10,WNW,4.6,0,0,None,Clear
2017-03-30,9:51 PM,45,42.6,28.9,53,30.13,10,South,4.6,0,0,None,Overcast
2017-03-19,6:51 PM,45,42.6,10.9,25,30.13,10,Variable,4.6,0,0,None,Clear
2017-02-20,4:51 AM,45,42.6,30.9,58,30.08,10,WNW,4.6,0,0,None,Clear
2017-04-02,12:51 AM,45,42.6,35.1,68,30.04,10,Variable,4.6,0,0,None,Overcast
2017-03-29,5:51 AM,45,42.6,39,80,30.01,10,Variable,4.6,0,0,None,Overcast
2017-03-28,1:34 AM,45,42.6,44.1,97,30,4,East,4.6,0,0.03,Rain,Light Rain
2017-03-28,2:01 AM,45,42.6,44.1,97,30,3,Variable,4.6,0,0,None,Overcast
2017-03-21,12:51 AM,45,42.6,21,39,29.98,10,WNW,4.6,0,0,None,Overcast
2017-02-11,5:51 PM,45,42.6,27,49,29.97,10,NE,4.6,0,0,None,Mostly Cloudy
2017-03-29,1:51 AM,45,42.6,43,93,29.92,9,NNE,4.6,0,0,None,Overcast
2017-11-26,6:51 AM,45,42.6,32,60,29.89,10,Variable,4.6,0,0,None,Partly Cloudy
2017-12-23,9:51 PM,45,42.6,39.9,82,29.86,10,WNW,4.6,0,0,Rain,Light Rain
2017-05-08,6:51 AM,45,42.6,34,65,29.86,10,Variable,4.6,0,0,None,Clear
2017-01-21,5:20 PM,45,42.6,44.1,97,29.83,6,Variable,4.6,0,0,None,Partly Cloudy
2017-01-04,8:51 AM,45,42.6,41,86,29.49,6,Variable,4.6,0,0,None,Scattered Clouds
2017-12-12,1:51 PM,45,42.6,35.1,68,29.44,10,Variable,4.6,0,0,None,Overcast
2017-11-04,7:51 AM,46,43.1,35.1,66,30.33,10,Variable,5.8,0,0,None,Clear
2017-11-14,12:31 PM,46,43.1,33.1,61,30.32,10,Variable,5.8,0,0,None,Overcast
2017-11-13,1:51 PM,46,43.1,37,71,30.28,10,Variable,5.8,0,0,None,Overcast
2017-03-17,5:51 PM,46,43.1,9,22,30.17,10,West,5.8,0,0,None,Clear
2017-04-23,5:51 AM,46,43.1,35.1,66,30.07,10,Variable,5.8,0,0,None,Clear
2017-04-09,3:51 AM,46,43.1,19,34,30.07,10,West,5.8,0,0,None,Clear
2017-04-09,2:51 AM,46,43.1,19.9,35,30.06,10,West,5.8,0,0,None,Clear
2017-03-28,12:51 AM,46,43.1,44.1,93,29.99,5,ENE,5.8,0,0,None,Overcast
2017-04-01,6:51 PM,46,43.1,34,63,29.95,10,Variable,5.8,0,0,None,Mostly Cloudy
2017-02-01,3:51 PM,46,43.1,26.1,46,29.92,10,Variable,5.8,21.9,0,None,Overcast
2017-12-19,5:51 AM,46,43.1,36,68,29.91,10,Variable,5.8,0,0,None,Overcast
2017-02-01,12:51 PM,46,43.1,24.1,42,29.9,10,Variable,5.8,0,0,None,Mostly Cloudy
2017-04-01,3:51 PM,46,43.1,33.1,61,29.87,10,Variable,5.8,0,0,None,Overcast
2017-11-26,4:51 AM,46,43.1,32,58,29.84,10,West,5.8,16.1,0,None,Mostly Cloudy
2017-01-21,10:48 PM,44.6,43.1,44.6,100,29.83,1.2,West,3.5,0,0,None,Overcast
2017-01-22,10:51 AM,46,43.1,45,96,29.75,3,East,5.8,0,0,None,Overcast
2017-04-05,12:51 AM,46,43.1,44.1,93,29.75,4,ENE,5.8,0,0,None,Overcast
2017-01-22,4:51 PM,46,43.1,45,96,29.72,5,Variable,5.8,0,0.04,None,Overcast
2017-12-12,5:51 AM,46,43.1,37,71,29.72,10,Variable,5.8,0,0,None,Overcast
2017-12-12,6:08 AM,46,43.1,37.9,73,29.72,10,Variable,5.8,0,0,None,Overcast
2017-05-14,4:51 AM,46,43.1,44.1,93,29.71,10,Variable,5.8,0,0,None,Overcast
2017-04-07,8:51 AM,46,43.1,33.1,61,29.34,10,Variable,5.8,18.4,0,None,Overcast
2017-11-12,3:51 PM,45,43.5,25,46,30.4,10,Variable,3.5,0,0,None,Clear
2017-10-17,8:51 AM,45,43.5,35.1,68,30.35,10,Variable,3.5,0,0,None,Clear
2017-11-14,12:46 PM,46.4,43.5,33.8,62,30.31,10,Variable,5.8,0,0,None,Overcast
2017-12-03,9:51 PM,45,43.5,39,80,30.27,9,ENE,3.5,0,0,None,Partly Cloudy
2017-11-08,8:51 PM,45,43.5,36,71,30.27,10,NNE,3.5,0,0,None,Clear
2017-12-03,8:51 PM,45,43.5,39,80,30.26,10,NNE,3.5,0,0,None,Mostly Cloudy
2017-11-01,12:51 AM,45,43.5,30,56,30.26,10,NW,3.5,0,0,None,Clear
2017-04-09,6:51 AM,45,43.5,19.9,37,30.13,10,WNW,3.5,0,0,None,Clear
2017-02-22,8:51 AM,45,43.5,36,71,30.04,10,SW,3.5,0,0,None,Clear
2017-04-01,10:51 PM,45,43.5,34,65,30.03,10,Variable,3.5,0,0,None,Overcast
2017-01-19,2:51 PM,45,43.5,34,65,30,10,Variable,3.5,0,0,None,Overcast
2017-03-28,1:51 AM,45,43.5,44.1,97,29.97,4,ESE,3.5,0,0.03,None,Overcast
2017-01-20,3:01 PM,45,43.5,34,65,29.95,10,South,3.5,0,0,None,Scattered Clouds
2017-01-20,3:14 PM,45,43.5,34,65,29.95,10,Variable,3.5,0,0,None,Mostly Cloudy
2017-11-24,10:51 PM,45,43.5,28.9,53,29.94,10,Variable,3.5,0,0,None,Clear
2017-01-20,1:51 PM,45,43.5,33.1,63,29.93,10,Variable,3.5,0,0,None,Mostly Cloudy
2017-02-23,5:51 AM,45,43.5,39.9,82,29.88,8,NE,3.5,0,0,None,Clear
2017-01-21,3:51 PM,45,43.5,43,93,29.81,4,Variable,3.5,0,0,None,Mostly Cloudy
2017-01-21,8:51 PM,45,43.5,45,100,29.8,3,West,3.5,0,0,None,Overcast
2017-04-05,4:17 AM,46.4,43.5,44.6,93,29.8,3,SSE,5.8,0,0,None,Overcast
2017-01-22,10:18 AM,45,43.5,44.1,97,29.77,3,NE,3.5,0,0,None,Overcast
2017-04-05,1:51 AM,45,43.5,44.1,97,29.75,4,NE,3.5,0,0,None,Overcast
2017-01-22,4:46 PM,46.4,43.5,44.6,93,29.74,3,ENE,5.8,0,0.04,Rain,Light Rain
2017-05-14,2:47 AM,46.4,43.5,44.6,93,29.74,10,Variable,5.8,0,0,None,Overcast
2017-11-19,7:51 PM,45,43.5,25,46,29.72,10,Variable,3.5,0,0,None,Overcast
2017-01-26,5:51 PM,45,43.5,26.1,48,29.45,10,Variable,3.5,25.3,0,None,Overcast
2017-04-19,4:51 AM,46,43.9,36,68,30.53,10,Variable,4.6,0,0,None,Mostly Cloudy
2017-12-02,10:51 AM,46,43.9,28.9,51,30.3,10,NE,4.6,0,0,None,Clear
2017-12-02,5:51 PM,46,43.9,30.9,56,30.24,10,East,4.6,0,0,None,Clear
2017-10-17,1:51 AM,46,43.9,30,54,30.24,10,Variable,4.6,0,0,None,Clear
2017-01-11,11:27 PM,46,43.9,44.1,93,30.22,3,Variable,4.6,0,0.08,Rain,Light Rain
2017-12-01,4:51 AM,46,43.9,41,83,30.06,10,Variable,4.6,0,0,None,Clear
2017-03-20,9:51 PM,46,43.9,21,37,30,10,Variable,4.6,0,0,None,Overcast
2017-03-29,4:51 AM,46,43.9,42.1,86,29.99,10,Variable,4.6,17.3,0,None,Overcast
2017-12-19,12:51 AM,46,43.9,36,68,29.92,9,Variable,4.6,0,0,None,Overcast
2017-04-05,5:51 AM,46,43.9,44.1,93,29.81,3,NNE,4.6,0,0,None,Overcast
2017-04-05,2:51 AM,46,43.9,45,96,29.76,3,NE,4.6,0,0,None,Overcast
2017-12-23,7:51 PM,46,43.9,45,96,29.76,8,Variable,4.6,0,0.02,None,Overcast
2017-05-14,6:24 AM,46,43.9,44.1,93,29.75,10,Variable,4.6,0,0,None,Mostly Cloudy
2017-05-14,2:19 AM,46,43.9,44.1,93,29.74,10,North,4.6,0,0,None,Overcast
2017-05-14,6:15 AM,46,43.9,44.1,93,29.74,10,Variable,4.6,0,0,None,Mostly Cloudy
2017-04-04,10:51 PM,46,43.9,43,89,29.73,8,East,4.6,0,0,None,Overcast
2017-05-14,6:51 AM,46,43.9,44.1,93,29.72,10,Variable,4.6,0,0,None,Clear
2017-02-15,2:51 PM,46,43.9,30.9,56,29.32,8,Variable,4.6,0,0,None,Clear
2017-04-07,4:51 AM,46,43.9,35.1,66,29.3,10,Variable,4.6,0,0,None,Mostly Cloudy
2017-01-13,12:51 PM,46,44.8,21.9,39,30.43,10,Variable,3.5,0,0,None,Clear
2017-11-12,1:51 PM,46,44.8,23,40,30.42,10,Variable,3.5,0,0,None,Clear
2017-02-21,12:51 PM,46,44.8,27,47,30.3,10,Variable,3.5,0,0,None,Clear
2017-11-08,7:51 PM,46,44.8,36,68,30.27,10,ENE,3.5,0,0,None,Overcast
2017-02-21,1:51 PM,46,44.8,26.1,46,30.26,10,Variable,3.5,0,0,None,Clear
2017-12-03,7:51 PM,46,44.8,39,76,30.25,10,Variable,3.5,0,0,None,Overcast
2017-12-02,4:51 PM,46,44.8,30,54,30.24,10,NE,3.5,0,0,None,Clear
2017-12-02,6:51 PM,46,44.8,30,54,30.24,10,SE,3.5,0,0,None,Clear
2017-01-11,11:51 PM,46,44.8,45,96,30.18,2.5,Variable,3.5,0,0.12,Rain,Light Rain
2017-11-27,6:51 PM,46,44.8,23,40,30.18,10,Variable,3.5,0,0,None,Clear
2017-11-07,12:51 AM,46,44.8,35.1,66,30.13,10,Variable,3.5,0,0,None,Clear
2017-04-09,5:51 AM,46,44.8,19,34,30.1,10,WNW,3.5,0,0,None,Clear
2017-11-30,4:51 PM,46,44.8,37,71,30.09,10,East,3.5,0,0,None,Clear
2017-04-09,4:51 AM,46,44.8,19.9,35,30.08,10,Variable,3.5,0,0,None,Clear
2017-03-29,4:38 AM,46,44.8,42.1,86,30.01,10,Variable,3.5,0,0,None,Overcast
2017-03-27,8:51 PM,46,44.8,44.1,93,30,6,NE,3.5,0,0,None,Clear
2017-12-18,4:51 PM,46,44.8,34,63,29.96,9,Variable,3.5,0,0,None,Overcast
2017-03-29,2:51 AM,46,44.8,43,89,29.95,10,Variable,3.5,0,0,None,Overcast
2017-03-21,9:51 AM,46,44.8,21.9,39,29.92,10,Variable,3.5,0,0,None,Overcast
2017-12-19,3:51 AM,46,44.8,37,71,29.91,10,Variable,3.5,0,0,None,Overcast
2017-12-19,4:51 AM,46,44.8,37,71,29.9,10,Variable,3.5,0,0,None,Overcast
2017-02-23,4:51 AM,46,44.8,41,83,29.87,9,NE,3.5,0,0,None,Clear
2017-11-26,5:51 AM,46,44.8,30.9,56,29.86,10,Variable,3.5,0,0,None,Clear
2017-01-21,2:51 PM,46,44.8,42.1,86,29.81,5,Variable,3.5,0,0,None,Clear
2017-04-05,3:32 AM,46,44.8,45,96,29.79,1.5,ENE,3.5,0,0,None,Overcast
2017-04-05,3:07 AM,46,44.8,45,96,29.78,3,ENE,3.5,0,0,None,Overcast
2017-05-14,4:19 AM,46,44.8,44.1,93,29.73,10,Variable,3.5,0,0,None,Mostly Cloudy
2017-05-14,3:51 AM,46,44.8,44.1,93,29.71,10,Variable,3.5,0,0,None,Overcast
2017-04-07,5:51 AM,46,44.8,34,63,29.3,10,Variable,3.5,0,0,None,Mostly Cloudy
2017-05-14,1:46 AM,46.4,45.2,44.6,93,29.75,10,Variable,3.5,0,0,None,Overcast
2017-05-11,3:51 AM,46.4,46.4,35.6,66,30.04,10,Calm,0,0,0,None,Clear
2017-02-28,5:51 AM,46.9,46.9,35.1,63,30.36,10,Calm,0,0,0,None,Overcast
2017-02-28,7:51 AM,46.9,46.9,37,68,30.36,10,ENE,5.8,0,0,None,Mostly Cloudy
2017-02-28,6:51 AM,46.9,46.9,36,66,30.35,10,East,3.5,0,0,None,Mostly Cloudy
2017-10-31,11:51 PM,46.9,46.9,27,46,30.25,10,WNW,5.8,0,0,None,Clear
2017-11-06,11:51 PM,46.9,46.9,36,66,30.12,10,North,0,0,0,None,Clear
2017-03-08,8:51 AM,46.9,46.9,37,68,30.02,10,WNW,11.5,20.7,0,None,Overcast
2017-03-08,6:27 AM,46.9,46.9,42.1,83,30.01,10,NW,11.5,24.2,0.01,Rain,Light Rain
2017-10-31,7:51 AM,46.9,46.9,37,68,30,10,Variable,5.8,0,0,None,Clear
2017-03-08,6:51 AM,46.9,46.9,39,74,29.98,10,NW,8.1,21.9,0.01,None,Overcast
2017-03-08,7:51 AM,46.9,46.9,37,68,29.98,10,West,8.1,0,0,None,Overcast
2017-05-09,5:29 AM,46.9,46.9,35.1,63,29.96,10,Variable,5.8,0,0,None,Mostly Cloudy
2017-05-09,5:51 AM,46.9,46.9,35.1,63,29.94,10,Variable,5.8,0,0,None,Scattered Clouds
2017-05-09,4:51 AM,46.9,46.9,35.1,63,29.94,10,NE,8.1,0,0,None,Clear
2017-05-09,3:51 AM,46.9,46.9,35.1,63,29.92,10,Variable,6.9,0,0,None,Clear
2017-04-18,11:37 PM,48,48,39.9,74,30.52,10,SE,12.7,17.3,0,None,Mostly Cloudy
2017-04-18,11:51 PM,48,48,39,71,30.5,10,SE,8.1,17.3,0,None,Mostly Cloudy
2017-02-28,4:51 AM,48,48,34,58,30.35,10,NE,3.5,0,0,None,Overcast
2017-10-31,10:51 PM,48,48,28,46,30.24,10,North,0,0,0,None,Clear
2017-05-04,5:51 AM,48,48,35.1,61,30.23,10,Variable,6.9,0,0,None,Clear
2017-10-16,11:51 PM,48,48,28,46,30.22,10,Variable,4.6,0,0,None,Clear
2017-01-12,12:51 AM,48,48,46,93,30.16,5,Variable,4.6,0,0.04,Rain,Light Rain
2017-04-24,5:51 AM,48,48,43,83,30.13,10,Calm,0,0,0,None,Clear
2017-11-06,10:51 PM,48,48,37,66,30.11,10,Variable,6.9,0,0,None,Clear
2017-05-12,5:51 AM,48,48,43,83,30.05,10,Calm,0,0,0,None,Clear
2017-10-27,6:51 AM,48,48,34,58,30.05,10,WNW,4.6,0,0,None,Clear
2017-05-12,4:51 AM,48,48,43,83,30.04,10,Calm,0,0,0,None,Clear
2017-03-08,9:51 AM,48,48,33.1,56,30.02,10,WNW,15,24.2,0,None,Overcast
2017-10-27,4:51 AM,48,48,36,63,30.02,10,Variable,3.5,0,0,None,Clear
2017-04-21,7:51 AM,48,48,46.9,96,29.99,3,East,9.2,0,0.04,Rain,Light Rain
2017-10-27,3:51 AM,48,48,37.9,68,29.99,10,Variable,3.5,0,0,None,Clear
2017-03-09,11:51 PM,48,48,21,34,29.98,10,North,0,0,0,None,Overcast
2017-05-09,6:51 AM,48,48,35.1,61,29.95,10,ENE,9.2,0,0,None,Partly Cloudy
2017-04-21,10:51 PM,48,48,46.9,96,29.94,5,NE,6.9,0,0,None,Overcast
2017-04-21,11:51 PM,48,48,46.9,96,29.94,5,ENE,9.2,0,0,None,Overcast
2017-04-21,9:51 PM,48,48,46.9,96,29.93,4,ENE,6.9,0,0,None,Overcast
2017-05-09,2:51 AM,48,48,35.1,61,29.92,10,NE,9.2,0,0,None,Clear
2017-05-07,11:51 PM,48,48,37,66,29.78,10,North,0,0,0,None,Overcast
2017-05-11,5:51 AM,48.2,48.2,37.4,66,30.06,10,NNE,3.5,0,0,None,Scattered Clouds
2017-05-11,2:51 AM,48.2,48.2,35.6,62,30.04,10,Calm,0,0,0,None,Clear
2017-05-11,4:51 AM,48.2,48.2,35.6,62,30.04,10,Variable,3.5,0,0,None,Clear
2017-04-18,10:51 PM,48.9,48.9,39,69,30.51,10,SSE,10.4,18.4,0,None,Clear
2017-02-28,12:51 AM,48.9,48.9,30.9,50,30.39,10,Calm,0,0,0,None,Overcast
2017-04-14,6:51 AM,48.9,48.9,26.1,41,30.39,10,Variable,4.6,0,0,None,Clear
2017-02-28,1:51 AM,48.9,48.9,30.9,50,30.38,10,Calm,0,0,0,None,Overcast
2017-04-14,5:51 AM,48.9,48.9,26.1,41,30.38,10,Calm,0,0,0,None,Scattered Clouds
2017-02-28,2:51 AM,48.9,48.9,30,48,30.36,10,Calm,0,0,0,None,Overcast
2017-04-13,7:51 AM,48.9,48.9,32,52,30.36,10,Variable,6.9,17.3,0,None,Clear
2017-02-28,3:51 AM,48.9,48.9,32,52,30.35,10,Calm,0,0,0,None,Overcast
2017-02-28,8:51 AM,48.9,48.9,37,64,30.35,10,ENE,5.8,0,0,None,Mostly Cloudy
2017-04-13,6:51 AM,48.9,48.9,32,52,30.34,10,North,0,0,0,None,Clear
2017-04-13,5:51 AM,48.9,48.9,32,52,30.32,10,Variable,3.5,0,0,None,Clear
2017-04-13,4:51 AM,48.9,48.9,32,52,30.31,10,North,0,0,0,None,Clear
2017-05-04,4:51 AM,48.9,48.9,34,56,30.23,10,NNE,3.5,0,0,None,Clear
2017-10-31,9:51 PM,48.9,48.9,28,44,30.22,10,North,0,0,0,None,Clear
2017-10-16,10:51 PM,48.9,48.9,30,48,30.21,10,NNW,9.2,16.1,0,None,Clear
2017-04-24,3:51 AM,48.9,48.9,41,74,30.11,10,North,3.5,0,0,None,Clear
2017-04-25,3:51 AM,48.9,48.9,46.9,93,30.08,7,ENE,11.5,19.6,0,Rain,Light Rain
2017-10-27,7:51 AM,48.9,48.9,34,56,30.07,10,North,0,0,0,None,Clear
2017-05-01,3:51 AM,48.9,48.9,46.9,93,30.06,3,East,5.8,0,0,None,Overcast
2017-05-12,3:51 AM,48.9,48.9,43,80,30.05,10,Variable,3.5,0,0,None,Clear
2017-10-27,5:51 AM,48.9,48.9,34,56,30.04,10,North,0,0,0,None,Clear
2017-05-01,4:51 AM,48.9,48.9,48,97,30.04,4,ENE,4.6,0,0,None,Overcast
2017-04-21,7:04 AM,48.9,48.9,48,97,30.03,3,Variable,6.9,0,0.02,Rain,Light Rain
2017-04-21,7:16 AM,48.9,48.9,48,97,30.03,2.5,ENE,8.1,0,0.02,Rain,Light Rain
2017-05-01,5:51 AM,48.9,48.9,48,97,30.03,5,East,3.5,0,0,None,Overcast
2017-04-21,7:38 AM,48.9,48.9,46.9,93,30.02,4,East,10.4,16.1,0.03,None,Overcast
2017-10-31,8:51 AM,48.9,48.9,35.1,59,30.02,10,Variable,4.6,0,0,None,Clear
2017-04-21,4:04 AM,48.9,48.9,46.9,93,30.01,10,Variable,3.5,17.3,0,None,Overcast
2017-03-09,9:51 PM,48.9,48.9,25,39,29.99,10,WNW,5.8,0,0,None,Overcast
2017-03-09,10:51 PM,48.9,48.9,24.1,38,29.99,10,NNE,9.2,0,0,None,Overcast
2017-10-27,2:51 AM,48.9,48.9,37.9,66,29.98,10,West,4.6,0,0,None,Clear
2017-04-21,8:51 AM,48.9,48.9,48,97,29.98,9,ENE,8.1,0,0.02,None,Overcast
2017-10-31,6:51 AM,48.9,48.9,37,64,29.97,10,West,4.6,0,0,None,Clear
2017-05-09,7:51 AM,48.9,48.9,36,61,29.96,10,Calm,0,0,0,None,Clear
2017-04-22,12:18 AM,48.9,48.9,48,97,29.96,6,Variable,3.5,0,0,None,Overcast
2017-10-31,5:51 AM,48.9,48.9,39,69,29.96,10,Variable,4.6,0,0,None,Clear
2017-04-21,4:51 AM,48.9,48.9,46.9,93,29.96,10,Variable,5.8,0,0,None,Overcast
2017-04-22,1:51 AM,48.9,48.9,46.9,93,29.94,9,Variable,3.5,0,0,None,Overcast
2017-04-22,12:51 AM,48.9,48.9,46.9,93,29.94,9,Variable,4.6,0,0,None,Overcast
2017-04-21,8:51 PM,48.9,48.9,48,97,29.93,9,ENE,9.2,0,0,None,Overcast
2017-04-21,7:51 PM,48.9,48.9,48,97,29.9,7,ENE,8.1,0,0,None,Overcast
2017-04-03,11:51 PM,48.9,48.9,39,69,29.88,9,Variable,5.8,0,0.01,Rain,Light Rain
2017-05-07,10:51 PM,48.9,48.9,37.9,66,29.8,10,Variable,6.9,0,0,None,Overcast
2017-05-07,9:51 PM,48.9,48.9,37.9,66,29.79,10,Variable,6.9,0,0,None,Overcast
2017-05-07,8:51 PM,48.9,48.9,39,69,29.77,10,WNW,9.2,17.3,0,None,Overcast
2017-05-07,4:44 PM,48.9,48.9,43,80,29.7,5,Variable,4.6,0,0,Rain,Light Rain
2017-05-07,4:51 PM,48.9,48.9,44.1,83,29.68,6,West,6.9,0,0,Rain,Light Rain
2017-04-18,9:51 PM,50,50,37.9,63,30.5,10,SE,10.4,19.6,0,None,Clear
2017-04-18,8:51 PM,50,50,39,66,30.47,10,Variable,4.6,0,0,None,Clear
2017-04-14,7:51 AM,50,50,28,43,30.4,10,NE,5.8,0,0,None,Scattered Clouds
2017-10-01,6:51 AM,50,50,46,86,30.38,10,Variable,3.5,0,0,None,Clear
2017-10-01,5:51 AM,50,50,45,83,30.38,10,Variable,4.6,0,0,None,Clear
2017-04-14,4:51 AM,50,50,25,38,30.37,10,North,4.6,0,0,None,Clear
2017-12-05,12:51 AM,50,50,39,66,30.36,10,North,0,0,0,None,Scattered Clouds
2017-04-14,3:51 AM,50,50,26.1,39,30.36,10,Calm,0,0,0,None,Clear
2017-04-13,8:51 AM,50,50,30.9,48,30.35,9,NW,6.9,0,0,None,Clear
2017-10-18,7:51 AM,50,50,37.9,63,30.32,10,Variable,3.5,0,0,None,Clear
2017-12-05,3:51 AM,50,50,41,71,30.32,10,Variable,3.5,0,0,None,Scattered Clouds
2017-04-13,3:51 AM,50,50,33.1,52,30.31,10,Variable,3.5,0,0,None,Clear
2017-05-04,6:51 AM,50,50,35.1,57,30.25,10,ENE,4.6,0,0,None,Clear
2017-05-04,3:51 AM,50,50,32,50,30.22,10,Calm,0,0,0,None,Clear
2017-05-04,2:51 AM,50,50,30.9,48,30.22,10,Variable,3.5,0,0,None,Clear
2017-10-16,9:51 PM,50,50,34,54,30.2,10,Variable,5.8,0,0,None,Clear
2017-10-31,8:51 PM,50,50,28.9,44,30.19,10,West,8.1,0,0,None,Clear
2017-04-20,7:20 AM,50,50,48.9,96,30.16,3,Calm,0,0,0.06,Rain,Rain
2017-04-20,7:28 AM,50,50,48.9,96,30.16,3,Calm,0,0,0.08,Rain,Rain
2017-04-20,7:43 AM,50,50,48.9,96,30.16,1.8,Calm,0,0,0.1,Rain,Light Rain
2017-04-20,8:12 AM,50,50,48.9,96,30.15,2,Calm,0,0,0.03,Rain,Light Rain
2017-04-24,6:51 AM,50,50,45,83,30.15,10,Calm,0,0,0,None,Clear
2017-01-12,1:51 AM,50,50,46.9,89,30.15,8,WSW,10.4,24.2,0,None,Overcast
2017-04-20,7:51 AM,50,50,48.9,96,30.14,1.5,Calm,0,0,0.11,Rain,Rain
2017-05-01,1:46 AM,50,50,46.4,87,30.14,7,East,6.9,0,0,None,Overcast
2017-04-20,6:51 AM,50,50,48,93,30.13,3,Calm,0,0,0.01,Rain,Light Rain
2017-04-20,4:51 AM,50,50,48.9,96,30.12,8,Calm,0,0,0.01,None,Overcast
2017-04-24,4:51 AM,50,50,41,71,30.12,10,Calm,0,0,0,None,Clear
2017-11-06,9:43 PM,50,50,39,66,30.12,10,Variable,3.5,0,0,None,Scattered Clouds
2017-05-01,1:51 AM,50,50,48,93,30.12,6,Variable,4.6,0,0,None,Overcast
2017-04-25,2:05 AM,50,50,46,86,30.12,10,ENE,10.4,0,0,None,Overcast
2017-04-24,2:51 AM,50,50,37.9,63,30.11,10,NE,3.5,0,0,None,Clear
2017-04-03,6:51 AM,50,50,30.9,48,30.11,10,WNW,3.5,0,0,None,Clear
2017-04-25,2:48 AM,50,50,46.4,87,30.11,10,ENE,6.9,0,0,None,Overcast
2017-04-20,5:51 AM,50,50,46,86,30.1,9,Calm,0,0,0,None,Overcast
2017-04-25,4:41 AM,50,50,48,93,30.1,10,East,10.4,20.7,0.01,None,Overcast
2017-04-25,7:51 AM,50,50,48,93,30.1,10,East,13.8,23,0,None,Overcast
2017-04-25,4:49 AM,50,50,48.2,94,30.1,10,East,8.1,25.3,0.01,None,Overcast
2017-11-06,9:51 PM,50,50,39,66,30.1,10,Variable,3.5,0,0,None,Partly Cloudy
2017-05-01,2:51 AM,50,50,48,93,30.1,4,Variable,5.8,0,0,None,Overcast
2017-04-25,1:51 AM,50,50,46,86,30.1,10,ENE,9.2,0,0,None,Overcast
2017-04-25,6:51 AM,50,50,48,93,30.09,10,East,11.5,26.5,0,None,Overcast
2017-04-03,5:51 AM,50,50,30,46,30.09,10,West,3.5,0,0,None,Clear
2017-10-27,8:51 AM,50,50,36,59,30.09,9,Variable,4.6,0,0,None,Clear
2017-05-10,11:51 PM,50,50,39.2,66,30.08,10,Calm,0,0,0,None,Clear
2017-04-25,2:51 AM,50,50,46.9,89,30.08,10,East,11.5,17.3,0,None,Overcast
2017-04-03,4:51 AM,50,50,28,43,30.08,10,West,3.5,0,0,None,Clear
2017-04-25,4:51 AM,50,50,48,93,30.07,10,East,8.1,25.3,0.01,None,Overcast
2017-05-11,12:51 AM,50,50,39.2,66,30.07,10,NNE,3.5,0,0,None,Clear
2017-04-25,5:51 AM,50,50,48,93,30.06,10,ENE,11.5,23,0,None,Overcast
2017-05-11,1:51 AM,50,50,37.4,62,30.06,10,Variable,3.5,0,0,None,Clear
2017-05-12,1:51 AM,50,50,42.1,74,30.06,10,Variable,4.6,0,0,None,Clear
2017-10-31,9:51 AM,50,50,33.1,52,30.04,10,West,9.2,20.7,0,None,Clear
2017-04-21,6:48 AM,50,50,48.2,94,30.03,2,NE,5.8,0,0.01,Rain,Light Rain
2017-05-01,6:51 AM,50,50,48,93,30.02,4,Variable,3.5,0,0,None,Overcast
2017-04-21,6:51 AM,50,50,48,93,30.01,2.5,Variable,6.9,0,0.01,Rain,Light Rain
2017-05-01,7:51 AM,50,50,48.9,96,30.01,5,ENE,5.8,0,0,None,Overcast
2017-05-10,5:51 AM,50,50,37,61,30,10,Calm,0,0,0,None,Overcast
2017-05-10,2:51 AM,50,50,41,71,29.99,10,East,3.5,0,0,None,Overcast
2017-05-10,4:51 AM,50,50,39.9,68,29.99,10,ENE,5.8,0,0,None,Overcast
2017-04-21,3:51 AM,50,50,46.9,89,29.98,9,Variable,4.6,0,0,None,Overcast
2017-04-21,5:51 AM,50,50,48,93,29.98,10,Variable,5.8,0,0,None,Overcast
2017-04-21,2:51 AM,50,50,48.9,96,29.98,9,Variable,6.9,0,0,None,Overcast
2017-04-21,9:51 AM,50,50,48,93,29.97,10,Variable,5.8,0,0,None,Overcast
2017-04-21,10:51 AM,50,50,48,93,29.96,8,Variable,6.9,0,0,None,Overcast
2017-10-27,1:51 AM,50,50,36,59,29.95,10,Variable,6.9,0,0,None,Clear
2017-10-31,4:51 AM,50,50,37.9,63,29.94,10,WSW,8.1,20.7,0,None,Clear
2017-04-22,2:51 AM,50,50,48,93,29.94,7,Variable,3.5,0,0,None,Overcast
2017-04-21,11:51 AM,50,50,46.9,89,29.93,9,ENE,10.4,17.3,0,None,Overcast
2017-10-27,12:51 AM,50,50,36,59,29.93,10,Variable,4.6,0,0,None,Clear
2017-10-31,3:51 AM,50,50,37.9,63,29.93,10,Variable,5.8,0,0,None,Overcast
2017-10-31,2:51 AM,50,50,37.9,63,29.92,10,Variable,3.5,0,0,None,Clear
2017-04-22,4:00 AM,50,50,48,93,29.92,6,ENE,4.6,0,0,None,Mostly Cloudy
2017-04-22,3:35 AM,50,50,48,93,29.92,6,NE,4.6,0,0,None,Overcast
2017-05-09,1:51 AM,50,50,37,61,29.92,10,Variable,5.8,0,0,None,Overcast
2017-04-21,6:31 PM,50,50,48,93,29.92,6,East,9.2,0,0,None,Overcast
2017-10-26,11:51 PM,50,50,36,59,29.91,10,Variable,6.9,18.4,0,None,Clear
2017-04-22,4:51 AM,50,50,48,93,29.9,8,Calm,0,0,0,None,Overcast
2017-04-22,3:51 AM,50,50,48,93,29.9,6,Variable,3.5,0,0,None,Mostly Cloudy
2017-04-21,6:51 PM,50,50,48,93,29.89,5,Variable,6.9,0,0,None,Overcast
2017-05-07,7:51 PM,50,50,39,66,29.74,10,Variable,5.8,0,0,None,Overcast
2017-05-07,6:51 PM,50,50,39,66,29.71,10,WNW,5.8,0,0,None,Overcast
2017-05-07,5:51 PM,50,50,41,71,29.7,10,West,10.4,19.6,0.01,None,Overcast
2017-05-07,7:51 AM,50,50,41,71,29.62,10,Variable,4.6,17.3,0,None,Scattered Clouds
2017-05-07,6:51 AM,50,50,41,71,29.6,10,North,0,0,0,None,Clear
2017-05-10,10:51 PM,50.7,50.7,43,75,30.08,10,Calm,0,0,0,None,Clear
2017-04-20,11:51 AM,51.1,51.1,44.1,77,30.21,10,Calm,0,0,0,None,Overcast
2017-04-18,7:51 PM,51.1,51.1,37.9,61,30.44,10,South,6.9,20.7,0,None,Clear
2017-04-15,3:51 AM,51.1,51.1,33.1,50,30.38,10,Calm,0,0,0,None,Clear
2017-04-15,4:51 AM,51.1,51.1,33.1,50,30.38,10,Calm,0,0,0,None,Clear
2017-04-13,9:51 AM,51.1,51.1,30.9,46,30.36,10,North,0,0,0,None,Clear
2017-04-14,2:51 AM,51.1,51.1,26.1,38,30.36,10,Calm,0,0,0,None,Clear
2017-12-05,1:51 AM,51.1,51.1,39.9,66,30.35,10,Variable,5.8,0,0,None,Clear
2017-02-28,9:51 AM,51.1,51.1,37,59,30.34,10,Variable,3.5,0,0,None,Clear
2017-12-05,2:51 AM,51.1,51.1,41,68,30.34,10,South,4.6,0,0,None,Scattered Clouds
2017-04-18,6:51 AM,51.1,51.1,34,52,30.31,10,ENE,6.9,0,0,None,Clear
2017-10-18,6:51 AM,51.1,51.1,37,59,30.3,10,Variable,4.6,0,0,None,Clear
2017-12-05,4:51 AM,51.1,51.1,42.1,71,30.29,10,South,11.5,17.3,0,None,Clear
2017-10-18,5:51 AM,51.1,51.1,36,56,30.29,10,Variable,4.6,0,0,None,Clear
2017-10-18,2:51 AM,51.1,51.1,37.9,61,30.28,10,Variable,5.8,0,0,None,Clear
2017-11-05,1:51 AM,51.1,51.1,46.9,86,30.28,10,Variable,6.9,0,0,None,Mostly Cloudy
2017-10-18,4:51 AM,51.1,51.1,36,56,30.27,10,Calm,0,0,0,None,Clear
2017-10-18,3:51 AM,51.1,51.1,37,59,30.26,10,North,0,0,0,None,Clear
2017-04-20,12:51 AM,51.1,51.1,44.1,77,30.21,10,Calm,0,0,0,None,Overcast
2017-01-12,3:24 AM,51.1,51.1,48,89,30.16,10,Variable,5.8,0,0.01,None,Overcast
2017-10-31,7:51 PM,51.1,51.1,28,41,30.16,10,Variable,6.9,0,0,None,Clear
2017-04-20,8:27 AM,51.1,51.1,50,96,30.15,2.5,Calm,0,0,0.04,None,Overcast
2017-01-12,2:51 AM,51.1,51.1,48,89,30.14,9,SW,9.2,18.4,0.01,None,Overcast
2017-02-28,7:51 PM,51.1,51.1,48.9,92,30.14,8,South,6.9,0,0,None,Overcast
2017-04-24,12:51 AM,51.1,51.1,39.9,66,30.13,10,Calm,0,0,0,None,Clear
2017-04-24,11:51 PM,51.1,51.1,44.1,77,30.13,10,ENE,6.9,0,0,None,Overcast
2017-04-24,1:51 AM,51.1,51.1,37.9,61,30.12,10,Calm,0,0,0,None,Clear
2017-04-25,12:51 AM,51.1,51.1,45,80,30.12,10,East,5.8,0,0,None,Overcast
2017-04-25,10:51 AM,51.1,51.1,50,96,30.1,7,ENE,10.4,24.2,0.01,None,Overcast
2017-04-25,9:51 AM,51.1,51.1,48.9,92,30.1,7,ENE,17.3,28.8,0,None,Overcast
2017-04-25,8:51 AM,51.1,51.1,48.9,92,30.09,5,ENE,16.1,29.9,0,None,Overcast
2017-05-10,9:51 PM,51.1,51.1,39,63,30.08,10,Calm,0,0,0,None,Clear
2017-04-21,1:20 AM,51.1,51.1,50,96,30.07,1.5,Variable,3.5,0,0.11,Rain,Rain
2017-04-21,1:27 AM,51.1,51.1,50,96,30.07,1.8,Variable,3.5,0,0.15,Rain,Rain
2017-05-12,6:51 AM,51.1,51.1,45,80,30.07,10,Calm,0,0,0,None,Partly Cloudy
2017-05-12,12:51 AM,51.1,51.1,39.9,66,30.06,10,Calm,0,0,0,None,Clear
2017-04-21,1:37 AM,51.1,51.1,48.9,92,30.05,2,Variable,4.6,16.1,0.19,Rain,Rain
2017-05-11,10:51 PM,51.1,51.1,41,68,30.04,10,Calm,0,0,0,None,Clear
2017-05-12,2:51 AM,51.1,51.1,43,74,30.04,10,ESE,5.8,0,0,None,Clear
2017-04-21,1:59 AM,51.1,51.1,50,96,30.03,6,East,5.8,0,0,None,Overcast
2017-04-21,2:08 AM,51.1,51.1,50,96,30.03,6,ESE,8.1,0,0,None,Overcast
2017-03-08,10:51 AM,51.1,51.1,28.9,43,30.02,10,North,0,0,0,None,Scattered Clouds
2017-05-10,6:51 AM,51.1,51.1,37,59,30.02,10,Calm,0,0,0,None,Overcast
2017-05-01,8:51 AM,51.1,51.1,48.9,92,30.02,5,ENE,3.5,0,0,None,Overcast
2017-04-21,2:38 AM,51.1,51.1,48.9,92,30.02,8,ESE,5.8,0,0,None,Overcast
2017-05-05,4:12 AM,51.1,51.1,46.9,86,30.02,10,NE,8.1,0,0,None,Overcast
2017-04-21,1:51 AM,51.1,51.1,48.9,92,30.01,5,Variable,4.6,0,0.22,Rain,Light Rain
2017-03-09,8:51 PM,51.1,51.1,19,28,29.99,10,North,9.2,17.3,0,None,Overcast
2017-05-10,3:51 AM,51.1,51.1,42.1,71,29.99,10,East,3.5,0,0,None,Overcast
2017-05-10,1:51 AM,51.1,51.1,39.9,66,29.99,10,ENE,3.5,0,0,None,Scattered Clouds
2017-05-05,4:51 AM,51.1,51.1,46.9,86,29.99,10,Variable,4.6,0,0,None,Overcast
2017-05-09,8:51 AM,51.1,51.1,37,59,29.97,10,ENE,4.6,0,0,None,Clear
2017-04-03,7:51 PM,51.1,51.1,37,59,29.96,10,South,8.1,18.4,0,None,Overcast
2017-03-09,5:51 AM,51.1,51.1,17.1,26,29.95,10,North,0,0,0,None,Clear
2017-04-03,8:51 PM,51.1,51.1,37.9,61,29.95,10,South,5.8,0,0,None,Overcast
2017-04-25,8:29 PM,51.1,51.1,51.1,100,29.94,1.2,ENE,15,29.9,0.1,Rain,Heavy Rain
2017-04-21,1:51 PM,51.1,51.1,48,89,29.94,8,East,5.8,0,0,None,Overcast
2017-04-25,9:01 PM,51.1,51.1,51.1,100,29.93,3,East,11.5,21.9,0.03,Rain,Light Rain
2017-04-25,8:20 PM,51.1,51.1,50,96,29.93,2,East,10.4,27.6,0.03,Rain,Light Rain
2017-04-25,9:25 PM,51.1,51.1,50,96,29.92,4,ENE,13.8,19.6,0.08,Rain,Light Rain
2017-04-25,9:37 PM,51.1,51.1,50,96,29.92,2,ENE,12.7,26.5,0.13,Rain,Rain
2017-04-25,9:13 PM,51.1,51.1,51.1,100,29.92,2,East,13.8,26.5,0.05,Rain,Rain
2017-05-09,12:51 AM,51.1,51.1,35.1,54,29.92,10,East,5.8,0,0,None,Overcast
2017-04-25,8:51 PM,51.1,51.1,51.1,100,29.91,1.2,ENE,13.8,26.5,0.33,Rain,Heavy Rain
2017-04-21,5:51 PM,51.1,51.1,48,89,29.91,7,Variable,6.9,0,0,None,Overcast
2017-04-22,5:51 AM,51.1,51.1,48,89,29.91,10,Variable,6.9,0,0,None,Overcast
2017-10-26,10:51 PM,51.1,51.1,35.1,54,29.9,10,West,5.8,0,0,None,Clear
2017-04-25,10:51 PM,51.1,51.1,51.1,100,29.89,5,East,10.4,26.5,0.03,Rain,Light Rain
2017-04-25,9:51 PM,51.1,51.1,51.1,100,29.89,3,ENE,16.1,27.6,0.16,Rain,Rain
2017-10-31,1:51 AM,51.1,51.1,37,59,29.89,10,North,0,0,0,None,Clear
2017-04-21,4:51 PM,51.1,51.1,48,89,29.89,7,ENE,10.4,0,0,None,Overcast
2017-05-07,3:51 PM,51.1,51.1,42.1,71,29.67,9,Variable,5.8,0,0,None,Overcast
2017-05-07,5:51 AM,51.1,51.1,42.1,71,29.57,10,North,0,0,0,None,Mostly Cloudy
2017-12-05,5:49 AM,51.8,51.8,44.6,76,30.3,10,North,0,0,0,None,Mostly Cloudy
2017-05-11,6:51 AM,51.8,51.8,37.4,58,30.05,10,Variable,4.6,0,0,None,Overcast
2017-04-25,7:47 PM,51.8,51.8,51.8,100,29.92,4,East,13.8,31.1,0.12,Rain,Light Rain
2017-05-05,1:49 PM,51.8,51.8,51.8,100,29.7,1,ENE,11.5,0,1.22,Rain,Heavy Rain
2017-05-05,1:47 PM,51.8,51.8,51.8,100,29.7,0.8,ENE,12.7,0,1.21,Rain,Heavy Rain
2017-05-07,8:13 AM,51.8,51.8,41,67,29.65,10,Variable,6.9,0,0,None,Mostly Cloudy
2017-10-13,7:18 AM,52,52,46,80,30.46,10,ENE,5.8,0,0,None,Scattered Clouds
2017-10-13,6:02 AM,52,52,45,77,30.45,10,NE,8.1,0,0,None,Overcast
2017-10-13,5:06 AM,52,52,45,77,30.45,10,ENE,9.2,0,0,None,Overcast
2017-10-13,3:51 AM,52,52,45,77,30.43,10,North,0,0,0,None,Mostly Cloudy
2017-10-13,6:51 AM,52,52,45,77,30.43,10,NE,5.8,0,0,None,Overcast
2017-10-13,5:51 AM,52,52,45,77,30.43,10,NE,6.9,0,0,None,Overcast
2017-10-13,4:51 AM,52,52,45,77,30.42,10,Variable,5.8,0,0,None,Overcast
2017-04-14,8:51 AM,52,52,28,40,30.4,10,NE,4.6,0,0,None,Overcast
2017-10-01,7:51 AM,52,52,48,86,30.39,10,Calm,0,0,0,None,Clear
2017-10-01,5:18 AM,52,52,44.1,74,30.39,10,Variable,3.5,0,0,None,Scattered Clouds
2017-04-15,2:51 AM,52,52,33.1,49,30.39,10,West,5.8,0,0,None,Clear
2017-04-15,7:51 AM,52,52,33.1,49,30.39,10,WSW,9.2,0,0,None,Clear
2017-04-15,6:51 AM,52,52,33.1,49,30.38,10,Variable,4.6,0,0,None,Clear
2017-04-15,5:51 AM,52,52,33.1,49,30.38,10,West,6.9,0,0,None,Clear
2017-10-02,6:51 AM,52,52,46.9,83,30.37,10,West,3.5,0,0,None,Clear
2017-04-13,10:51 AM,52,52,28.9,41,30.36,10,WNW,8.1,17.3,0,None,Clear
2017-10-02,5:51 AM,52,52,44.1,74,30.35,10,Calm,0,0,0,None,Clear
2017-10-02,4:51 AM,52,52,43,71,30.33,10,Calm,0,0,0,None,Clear
2017-04-18,7:51 AM,52,52,35.1,53,30.33,10,NE,8.1,0,0,None,Clear
2017-11-05,1:51 AM,52,52,46.9,83,30.31,9,Variable,6.9,0,0.01,Rain,Light Rain
2017-04-13,2:51 AM,52,52,33.1,49,30.31,10,NW,11.5,19.6,0,None,Clear
2017-10-18,1:51 AM,52,52,36,54,30.29,10,North,0,0,0,None,Clear
2017-11-05,2:51 AM,52,52,46.9,83,30.29,10,Variable,5.8,0,0,None,Overcast
2017-12-05,5:51 AM,52,52,44.1,74,30.27,10,South,10.4,18.4,0,None,Mostly Cloudy
2017-04-18,5:51 AM,52,52,30.9,45,30.27,10,North,5.8,0,0,None,Clear
2017-05-04,7:51 AM,52,52,32,47,30.27,10,East,9.2,0,0,None,Clear
2017-11-03,11:51 PM,52,52,35.1,53,30.22,10,Variable,5.8,0,0,None,Clear
2017-05-04,1:51 AM,52,52,30.9,45,30.21,10,Variable,5.8,0,0,None,Clear
2017-05-04,12:51 AM,52,52,30.9,45,30.2,10,Variable,5.8,0,0,None,Clear
2017-04-20,1:51 AM,52,52,45,77,30.18,10,Calm,0,0,0,None,Overcast
2017-04-20,2:33 AM,52,52,45,77,30.18,10,Calm,0,0,0,None,Overcast
2017-02-28,5:51 PM,52,52,50,93,30.17,9,North,0,0,0,None,Overcast
2017-04-24,7:51 AM,52,52,44.1,74,30.17,9,South,3.5,0,0,None,Clear
2017-10-16,8:51 PM,52,52,35.1,53,30.17,10,Variable,4.6,0,0,None,Clear
2017-04-20,2:51 AM,52,52,46,80,30.16,10,Calm,0,0,0,None,Overcast
2017-02-28,7:42 PM,52,52,48.9,89,30.16,8,Variable,4.6,0,0,None,Overcast
2017-04-20,9:03 AM,52,52,51.1,97,30.15,2.5,NE,3.5,0,0,None,Overcast
2017-04-20,3:51 AM,52,52,46,80,30.14,10,Calm,0,0,0,None,Overcast
2017-10-31,6:51 PM,52,52,30.9,45,30.14,10,West,3.5,0,0,None,Clear
2017-05-01,12:51 AM,52,52,46,80,30.14,10,ENE,5.8,0,0,None,Overcast
2017-05-04,10:51 PM,52,52,39.9,63,30.13,10,North,0,0,0,None,Partly Cloudy
2017-04-03,7:51 AM,52,52,32,47,30.13,10,Calm,0,0,0,None,Clear
2017-04-20,8:51 AM,52,52,51.1,97,30.13,1.8,Calm,0,0,0.04,None,Overcast
2017-01-12,3:51 AM,52,52,48.9,89,30.13,10,Variable,5.8,0,0.01,None,Overcast
2017-05-04,11:51 PM,52,52,42.1,69,30.12,10,Variable,4.6,0,0,None,Clear
2017-10-27,9:51 AM,52,52,37,57,30.11,10,West,3.5,0,0,None,Clear
2017-04-03,2:51 AM,52,52,28.9,41,30.1,10,Calm,0,0,0,None,Clear
2017-05-05,12:51 AM,52,52,43,71,30.1,10,Variable,5.8,0,0,None,Clear
2017-02-28,8:51 PM,52,52,48.9,89,30.1,10,South,8.1,0,0,None,Overcast
2017-04-03,3:51 AM,52,52,28,40,30.08,10,Calm,0,0,0,None,Clear
2017-04-21,1:06 AM,52,52,50,93,30.07,2,East,4.6,0,0.04,Rain,Rain
2017-11-06,8:51 PM,52,52,43,71,30.07,10,Variable,5.8,0,0,None,Overcast
2017-05-05,3:01 AM,52,52,45,77,30.06,10,Variable,6.9,0,0,None,Overcast
2017-05-11,11:51 PM,52,52,42.1,69,30.05,10,Variable,3.5,0,0,None,Clear
2017-05-05,2:51 AM,52,52,45,77,30.04,10,Calm,0,0,0,None,Overcast
2017-05-11,9:51 PM,52,52,41,66,30.03,10,Variable,3.5,0,0,None,Clear
2017-05-10,7:51 AM,52,52,36,54,30.03,10,ESE,4.6,0,0,None,Overcast
2017-04-22,11:51 PM,52,52,39,61,30.01,10,Variable,3.5,0,0,None,Overcast
2017-05-05,3:51 AM,52,52,46,80,30.01,10,Variable,6.9,0,0,None,Overcast
2017-04-22,9:51 PM,52,52,39.9,63,30,10,Calm,0,0,0,None,Overcast
2017-05-09,9:51 PM,52,52,37.9,59,30,10,Calm,0,0,0,None,Clear
2017-05-01,9:51 AM,52,52,48.9,89,30,5,ENE,4.6,0,0,None,Overcast
2017-05-09,8:51 PM,52,52,42.1,69,30,10,ESE,4.6,0,0,None,Clear
2017-05-09,11:51 PM,52,52,37,57,29.99,10,Calm,0,0,0,None,Clear
2017-05-09,9:51 AM,52,52,36,54,29.99,10,Variable,3.5,0,0,None,Clear
2017-04-22,10:51 PM,52,52,39.9,63,29.99,10,Variable,4.6,0,0,None,Overcast
2017-05-10,12:51 AM,52,52,39,61,29.99,10,SE,5.8,0,0,None,Clear
2017-03-09,7:51 PM,52,52,19.9,28,29.98,10,Variable,4.6,0,0,None,Mostly Cloudy
2017-03-09,7:51 AM,52,52,17.1,25,29.97,10,North,0,0,0,None,Clear
2017-04-25,5:31 PM,52,52,51.1,97,29.96,3,East,15,28.8,0.09,Rain,Light Rain
2017-03-09,6:51 AM,52,52,16,24,29.96,10,Variable,6.9,26.5,0,None,Clear
2017-05-05,5:51 AM,52,52,48,86,29.96,10,Variable,6.9,0,0,None,Overcast
2017-06-07,1:30 AM,52,52,45,77,29.96,10,Variable,6.9,0,0,None,Mostly Cloudy
2017-04-25,5:58 PM,52,52,51.1,97,29.95,3,ENE,19.6,38,0.02,Rain,Light Rain
2017-04-25,6:16 PM,52,52,51.1,97,29.95,2,ENE,19.6,39.1,0.03,Rain,Light Rain
2017-06-07,12:37 AM,52,52,45,77,29.95,10,Variable,5.8,0,0,None,Scattered Clouds
2017-04-22,8:20 AM,52,52,46.9,83,29.95,10,Variable,6.9,0,0,None,Overcast
2017-06-06,11:58 PM,52,52,45,77,29.95,10,ENE,9.2,0,0,None,Overcast
2017-05-05,6:51 AM,52,52,48.9,89,29.94,7,East,5.8,0,0,Rain,Light Rain
2017-04-21,12:51 PM,52,52,48.9,89,29.94,10,ENE,10.4,18.4,0,None,Overcast
2017-06-07,1:51 AM,52,52,45,77,29.94,10,Variable,5.8,0,0,None,Overcast
2017-06-07,12:51 AM,52,52,45,77,29.94,10,NE,11.5,0,0,None,Clear
2017-04-25,7:06 PM,52,52,51.1,97,29.93,2,ENE,17.3,27.6,0.02,Rain,Light Rain
2017-04-25,5:47 PM,52,52,51.1,97,29.93,1.8,ENE,23,33.4,0.1,Rain,Light Rain
2017-04-21,2:51 PM,52,52,48,86,29.93,9,ENE,8.1,0,0,None,Overcast
2017-06-07,2:51 AM,52,52,45,77,29.93,10,ENE,8.1,0,0,None,Overcast
2017-06-06,11:51 PM,52,52,45,77,29.93,10,NE,9.2,0,0,None,Overcast
2017-04-25,6:51 PM,52,52,51.1,97,29.92,1.2,ENE,17.3,31.1,0.09,Rain,Rain
2017-04-22,7:29 AM,52,52,46.9,83,29.92,10,NE,9.2,0,0,None,Overcast
2017-05-05,7:51 AM,52,52,50,93,29.91,7,ENE,8.1,0,0.02,Rain,Light Rain
2017-04-22,7:51 AM,52,52,46.9,83,29.91,10,North,0,0,0,None,Overcast
2017-04-03,10:51 PM,52,52,30.9,45,29.91,10,South,6.9,0,0,None,Overcast
2017-04-25,7:51 PM,52,52,51.1,97,29.9,4,East,11.5,31.1,0.12,Rain,Light Rain
2017-04-22,6:51 AM,52,52,48,86,29.9,10,ENE,4.6,0,0,None,Overcast
2017-10-26,9:51 PM,52,52,35.1,53,29.88,10,Variable,5.8,0,0,None,Clear
2017-10-31,12:51 AM,52,52,36,54,29.87,10,WSW,8.1,17.3,0,None,Clear
2017-04-25,11:51 PM,52,52,51.1,97,29.86,8,NE,10.4,0,0.03,Rain,Light Rain
2017-05-05,1:51 PM,52,52,52,100,29.68,1.2,ENE,9.2,0,1.23,Rain,Heavy Rain
2017-05-07,2:51 PM,52,52,44.1,74,29.66,7,Calm,0,0,0,Rain,Light Rain
2017-05-07,11:51 AM,52,52,39,61,29.66,10,North,0,0,0,None,Overcast
2017-05-07,4:16 AM,52,52,43,71,29.57,10,Variable,6.9,19.6,0,None,Overcast
2017-05-07,4:51 AM,52,52,42.1,69,29.55,10,West,5.8,19.6,0,None,Overcast
2017-05-07,12:51 AM,52,52,45,77,29.5,10,North,0,0,0,None,Mostly Cloudy
2017-05-10,8:51 PM,52.3,52.3,37.6,57,30.06,10,SSE,3.5,0,0,None,Clear
2017-05-11,7:51 AM,52.5,52.5,34.3,50,30.04,10,NE,4.6,0,0,None,Clear
2017-10-13,7:51 AM,53.1,53.1,46,77,30.44,10,Variable,5.8,0,0,None,Partly Cloudy
2017-10-13,2:51 AM,53.1,53.1,45,74,30.42,10,Variable,6.9,0,0,None,Mostly Cloudy
2017-04-18,6:51 PM,53.1,53.1,37,55,30.41,10,South,10.4,18.4,0,None,Clear
2017-04-15,12:51 AM,53.1,53.1,33.1,47,30.4,10,Calm,0,0,0,None,Clear
2017-04-15,1:51 AM,53.1,53.1,33.1,47,30.4,10,Variable,3.5,0,0,None,Clear
2017-10-01,4:12 AM,53.1,53.1,45,74,30.38,10,ENE,5.8,0,0,None,Scattered Clouds
2017-10-01,4:51 AM,53.1,53.1,45,74,30.37,10,Variable,5.8,0,0,None,Mostly Cloudy
2017-04-14,12:51 AM,53.1,53.1,24.1,32,30.36,10,Calm,0,0,0,None,Clear
2017-04-14,1:51 AM,53.1,53.1,25,34,30.36,10,Calm,0,0,0,None,Clear
2017-05-21,5:51 AM,53.1,53.1,45,74,30.36,10,Calm,0,0,0,None,Clear
2017-10-01,1:51 AM,53.1,53.1,46,77,30.36,10,ENE,8.1,0,0,None,Scattered Clouds
2017-10-01,3:51 AM,53.1,53.1,46,77,30.35,10,ENE,5.8,0,0,None,Overcast
2017-02-28,10:51 AM,53.1,53.1,39,59,30.34,10,ENE,5.8,0,0,None,Clear
2017-11-05,4:38 AM,53.1,53.1,46.9,80,30.31,10,East,5.8,0,0,None,Overcast
2017-11-05,3:51 AM,53.1,53.1,46.9,80,30.29,10,ENE,5.8,0,0,None,Overcast
2017-11-05,4:51 AM,53.1,53.1,46.9,80,30.29,10,East,8.1,0,0,None,Overcast
2017-10-18,12:51 AM,53.1,53.1,37,55,30.29,10,WSW,8.1,0,0,None,Clear
2017-11-05,5:51 AM,53.1,53.1,46.9,80,30.28,10,Variable,4.6,0,0,None,Overcast
2017-12-05,6:51 AM,53.1,53.1,45,74,30.26,10,Variable,4.6,18.4,0,None,Overcast
2017-12-05,7:51 AM,53.1,53.1,46.9,80,30.25,10,South,10.4,20.7,0,None,Overcast
2017-04-18,4:51 AM,53.1,53.1,30.9,43,30.24,10,Variable,4.6,0,0,None,Clear
2017-05-03,11:51 PM,53.1,53.1,30.9,43,30.2,10,Calm,0,0,0,None,Clear
2017-11-03,10:51 PM,53.1,53.1,37,55,30.2,10,Calm,0,0,0,None,Clear
2017-04-30,9:51 PM,53.1,53.1,39,59,30.2,10,Variable,3.5,0,0,None,Overcast
2017-05-22,3:51 AM,53.1,53.1,51.1,93,30.19,4,Calm,0,0,0.04,Rain,Rain
2017-05-04,6:51 PM,53.1,53.1,39,59,30.19,10,Variable,6.9,0,0,None,Clear
2017-05-04,7:51 PM,53.1,53.1,39,59,30.18,10,North,0,0,0,None,Clear
2017-05-22,4:51 AM,53.1,53.1,52,96,30.18,10,Calm,0,0,0.09,None,Overcast
2017-04-24,8:51 AM,53.1,53.1,44.1,71,30.17,9,East,5.8,0,0,None,Clear
2017-05-04,8:51 PM,53.1,53.1,39.9,61,30.17,10,Variable,5.8,0,0,None,Clear
2017-05-04,9:51 PM,53.1,53.1,39.9,61,30.16,10,ESE,4.6,0,0,None,Clear
2017-02-28,4:51 PM,53.1,53.1,50,89,30.16,9,South,5.8,0,0,None,Overcast
2017-02-28,6:51 PM,53.1,53.1,51.1,93,30.15,7,South,5.8,0,0,None,Overcast
2017-04-30,10:51 PM,53.1,53.1,41,64,30.15,10,Variable,6.9,0,0,None,Overcast
2017-04-30,11:51 PM,53.1,53.1,43,69,30.15,10,East,8.1,0,0,None,Overcast
2017-10-16,7:51 PM,53.1,53.1,34,48,30.14,10,Variable,3.5,0,0,None,Partly Cloudy
2017-04-20,9:51 AM,53.1,53.1,51.1,93,30.13,2.5,East,3.5,0,0,None,Overcast
2017-04-24,10:51 PM,53.1,53.1,43,69,30.13,10,East,9.2,0,0,None,Overcast
2017-10-31,5:51 PM,53.1,53.1,28.9,40,30.11,10,Calm,0,0,0,None,Clear
2017-01-12,4:51 AM,53.1,53.1,48.9,86,30.1,10,North,0,0,0,None,Overcast
2017-01-12,5:42 AM,53.1,53.1,48.9,86,30.1,10,Variable,6.9,0,0,None,Overcast
2017-04-03,1:51 AM,53.1,53.1,28,38,30.09,10,Variable,3.5,0,0,None,Clear
2017-05-12,7:31 AM,53.1,53.1,44.1,71,30.09,10,East,5.8,0,0,None,Mostly Cloudy
2017-05-05,1:51 AM,53.1,53.1,44.1,71,30.08,10,Variable,6.9,0,0,None,Overcast
2017-01-12,5:51 AM,53.1,53.1,48.9,86,30.08,10,SW,8.1,0,0,None,Overcast
2017-04-25,11:51 AM,53.1,53.1,51.1,93,30.07,10,ENE,18.4,27.6,0,None,Overcast
2017-05-12,7:51 AM,53.1,53.1,44.1,71,30.07,10,East,4.6,0,0,None,Mostly Cloudy
2017-10-31,11:51 AM,53.1,53.1,30,41,30.05,10,WSW,9.2,18.4,0,None,Clear
2017-05-12,11:02 PM,53.1,53.1,44.1,71,30.05,10,South,8.1,0,0,None,Overcast
2017-10-31,10:51 AM,53.1,53.1,28.9,40,30.04,10,Variable,5.8,16.1,0,None,Clear
2017-04-21,12:51 AM,53.1,53.1,48,83,30.04,10,SSE,6.9,0,0,None,Overcast
2017-05-11,8:51 PM,53.1,53.1,41,64,30.03,10,Variable,4.6,0,0,None,Clear
2017-05-12,10:51 PM,53.1,53.1,44.1,71,30.03,10,Variable,4.6,0,0,None,Overcast
2017-05-12,9:51 PM,53.1,53.1,44.1,71,30.02,10,Calm,0,0,0,None,Clear
2017-05-12,11:51 PM,53.1,53.1,45,74,30.02,10,Calm,0,0,0,None,Overcast
2017-05-12,8:51 PM,53.1,53.1,42.1,66,30.02,10,Variable,3.5,0,0,None,Clear
2017-04-25,2:51 PM,53.1,53.1,52,96,30.01,7,ENE,19.6,28.8,0,None,Overcast
2017-05-09,10:51 PM,53.1,53.1,37,55,29.99,10,Variable,4.6,0,0,None,Clear
2017-04-25,5:00 PM,53.1,53.1,52,96,29.98,1.8,East,16.1,32.2,0.01,Rain,Rain
2017-04-25,3:51 PM,53.1,53.1,52,96,29.98,6,East,13.8,33.4,0,Rain,Light Rain
2017-05-09,7:51 PM,53.1,53.1,42.1,66,29.98,10,SE,5.8,0,0,None,Clear
2017-03-09,6:51 PM,53.1,53.1,21,29,29.97,10,North,0,0,0,None,Mostly Cloudy
2017-04-22,7:51 PM,53.1,53.1,48.9,86,29.97,10,Calm,0,0,0,None,Overcast
2017-04-03,6:51 PM,53.1,53.1,37,55,29.97,10,Variable,4.6,19.6,0,None,Scattered Clouds
2017-03-09,8:51 AM,53.1,53.1,12.9,20,29.97,10,West,11.5,29.9,0,None,Clear
2017-06-07,5:58 AM,53.1,53.1,46.9,80,29.97,10,NE,3.5,0,0,None,Overcast
2017-04-22,5:29 PM,53.1,53.1,51.1,93,29.97,8,Variable,3.5,0,0.01,None,Overcast
2017-06-07,5:44 AM,53.1,53.1,46.9,80,29.97,10,NNE,4.6,0,0,None,Overcast
2017-04-22,8:51 PM,53.1,53.1,46,77,29.97,10,Variable,5.8,0,0,None,Overcast
2017-04-22,4:24 PM,53.1,53.1,51.1,93,29.95,2,Calm,0,0,0.02,Rain,Rain
2017-04-22,4:38 PM,53.1,53.1,52,96,29.95,5,Calm,0,0,0.04,Rain,Light Rain
2017-04-25,4:51 PM,53.1,53.1,52,96,29.95,3,ENE,8.1,26.5,0.03,Rain,Light Rain
2017-04-22,5:51 PM,53.1,53.1,51.1,93,29.95,8,Calm,0,0,0.01,None,Overcast
2017-04-22,6:51 PM,53.1,53.1,48.9,86,29.95,10,Calm,0,0,0.01,None,Overcast
2017-04-22,8:09 AM,53.1,53.1,48,83,29.95,10,Variable,4.6,0,0,None,Overcast
2017-04-22,4:51 PM,53.1,53.1,52,96,29.94,3,North,3.5,0,0.04,Rain,Light Rain
2017-03-09,4:51 AM,53.1,53.1,18,25,29.94,10,WSW,10.4,17.3,0,None,Clear
2017-06-07,5:51 AM,53.1,53.1,46.9,80,29.94,10,NNE,4.6,0,0,None,Overcast
2017-06-07,4:51 AM,53.1,53.1,46,77,29.94,10,North,4.6,0,0,None,Overcast
2017-04-03,9:51 PM,53.1,53.1,33.1,47,29.94,10,South,6.9,0,0,None,Overcast
2017-03-09,3:51 AM,53.1,53.1,18,25,29.93,10,West,12.7,19.6,0,None,Clear
2017-06-07,3:51 AM,53.1,53.1,46,77,29.93,10,Variable,5.8,0,0,None,Overcast
2017-04-22,8:51 AM,53.1,53.1,48,83,29.93,10,Variable,6.9,0,0,None,Overcast
2017-06-06,10:51 PM,53.1,53.1,46,77,29.93,10,East,9.2,0,0,None,Overcast
2017-06-06,9:42 PM,53.1,53.1,48,83,29.93,10,East,10.4,0,0,None,Overcast
2017-03-09,2:51 AM,53.1,53.1,19,26,29.92,10,Variable,5.8,0,0,None,Clear
2017-06-06,9:51 PM,53.1,53.1,48,83,29.91,10,Variable,5.8,0,0,None,Overcast
2017-06-06,9:00 PM,53.1,53.1,50,89,29.91,10,ENE,8.1,0,0,None,Overcast
2017-04-21,3:51 PM,53.1,53.1,48,83,29.9,8,ENE,8.1,0,0,None,Overcast
2017-06-06,8:51 PM,53.1,53.1,50,89,29.89,10,East,8.1,0,0,None,Overcast
2017-05-05,8:51 AM,53.1,53.1,51.1,93,29.87,8,Variable,5.8,19.6,0.01,None,Overcast
2017-10-26,8:51 PM,53.1,53.1,34,48,29.86,10,WNW,6.9,0,0,None,Clear
2017-04-26,12:51 AM,53.1,53.1,52,96,29.82,5,ENE,9.2,17.3,0,None,Overcast
2017-05-05,10:34 AM,53.1,53.1,52,96,29.81,4,ENE,9.2,0,0.04,Rain,Light Rain
2017-05-05,10:55 AM,53.1,53.1,52,96,29.79,1.8,ENE,11.5,17.3,0.01,Rain,Heavy Rain
2017-05-05,10:51 AM,53.1,53.1,52,96,29.78,3,ENE,11.5,0,0.04,Rain,Rain
2017-10-26,11:51 AM,53.1,53.1,43,69,29.7,10,WNW,5.8,0,0,None,Overcast
2017-05-07,9:04 AM,53.1,53.1,42.1,66,29.66,10,SW,5.8,0,0,None,Overcast
2017-05-07,1:51 PM,53.1,53.1,41,64,29.65,10,North,0,0,0,None,Overcast
2017-05-15,12:51 AM,53.1,53.1,41,64,29.65,10,Variable,4.6,19.6,0,None,Clear
2017-05-07,12:51 PM,53.1,53.1,39.9,61,29.65,10,Variable,3.5,0,0,None,Overcast
2017-10-26,6:51 AM,53.1,53.1,39.9,61,29.65,10,West,5.8,0,0,None,Clear
2017-05-07,9:51 AM,53.1,53.1,39.9,61,29.64,10,Calm,0,0,0,None,Overcast
2017-05-15,1:51 AM,53.1,53.1,41,64,29.64,10,WNW,9.2,17.3,0,None,Clear
2017-05-15,2:51 AM,53.1,53.1,42.1,66,29.64,10,Variable,6.9,0,0,None,Scattered Clouds
2017-05-07,8:51 AM,53.1,53.1,42.1,66,29.63,10,North,0,0,0,None,Mostly Cloudy
2017-05-07,2:22 AM,53.1,53.1,46,77,29.54,10,Variable,4.6,0,0,None,Overcast
2017-05-07,3:51 AM,53.1,53.1,44.1,71,29.54,10,SW,5.8,0,0,None,Overcast
2017-05-07,2:51 AM,53.1,53.1,44.1,71,29.52,10,North,0,0,0,None,Overcast
2017-05-07,1:51 AM,53.1,53.1,45,74,29.51,10,West,8.1,0,0,None,Overcast
2017-05-06,11:51 PM,53.1,53.1,45,74,29.49,10,WSW,6.9,0,0,None,Overcast
2017-11-05,4:47 AM,53.6,53.6,46.4,77,30.31,10,Calm,0,0,0,None,Overcast
2017-12-05,7:47 AM,53.6,53.6,46.4,77,30.28,10,South,8.1,20.7,0,None,Overcast
2017-06-07,6:21 AM,53.6,53.6,46.4,77,29.98,10,Variable,3.5,0,0,None,Overcast
2017-04-22,5:13 PM,53.6,53.6,51.8,94,29.97,7,NNW,5.8,0,0,Rain,Light Rain
2017-04-22,12:48 PM,53.6,53.6,50,88,29.95,6,Variable,5.8,0,0.02,Rain,Light Rain
2017-04-22,3:49 PM,53.6,53.6,51.8,94,29.94,5,WNW,4.6,0,0.01,Rain,Light Rain
2017-06-06,7:49 PM,53.6,53.6,50,88,29.9,10,ENE,8.1,0,0,None,Overcast
2017-04-26,5:46 AM,53.6,53.6,53.6,100,29.78,2.5,NE,5.8,0,0.11,Rain,Light Rain
2017-04-26,7:49 AM,53.6,53.6,53.6,100,29.78,2.5,NNE,5.8,0,0.13,Rain,Light Rain
2017-04-14,9:51 AM,54,54,27,35,30.42,10,Variable,4.6,0,0,None,Overcast
2017-04-14,11:51 PM,54,54,33.1,45,30.4,10,Variable,3.5,0,0,None,Clear
2017-10-02,7:51 AM,54,54,46.9,77,30.39,10,Calm,0,0,0,None,Clear
2017-10-01,2:17 AM,54,54,46.9,77,30.38,10,Variable,5.8,0,0,None,Mostly Cloudy
2017-10-01,1:09 AM,54,54,46,75,30.38,10,Variable,6.9,0,0,None,Scattered Clouds
2017-10-01,2:51 AM,54,54,46.9,77,30.35,10,NE,4.6,0,0,None,Overcast
2017-04-18,8:51 AM,54,54,35.1,49,30.35,10,ENE,8.1,0,0,None,Clear
2017-10-01,12:51 AM,54,54,46.9,77,30.35,10,NE,11.5,0,0,None,Mostly Cloudy
2017-05-21,4:51 AM,54,54,43,66,30.34,10,Variable,3.5,0,0,None,Clear
2017-11-05,12:51 AM,54,54,44.1,69,30.34,10,Variable,4.6,0,0,None,Overcast
2017-05-21,2:51 AM,54,54,43,66,30.33,10,Calm,0,0,0,None,Clear
2017-05-21,3:51 AM,54,54,43,66,30.33,10,Calm,0,0,0,None,Clear
2017-10-18,8:51 AM,54,54,37.9,55,30.33,10,Calm,0,0,0,None,Clear
2017-10-02,3:51 AM,54,54,42.1,64,30.31,10,Variable,5.8,0,0,None,Clear
2017-11-05,6:23 AM,54,54,48,80,30.3,10,East,5.8,0,0,None,Overcast
2017-05-04,8:51 AM,54,54,32,43,30.29,10,Variable,6.9,0,0,None,Clear
2017-11-05,6:51 AM,54,54,48,80,30.28,10,ENE,4.6,0,0,None,Overcast
2017-12-05,8:38 AM,54,54,48,80,30.26,10,SSE,8.1,18.4,0,None,Overcast
2017-12-05,9:08 AM,54,54,48,80,30.24,10,South,9.2,20.7,0,None,Overcast
2017-09-02,6:51 AM,54,54,43,66,30.23,10,Calm,0,0,0,None,Clear
2017-12-05,8:51 AM,54,54,48,80,30.23,10,SSE,9.2,21.9,0,None,Overcast
2017-04-18,3:51 AM,54,54,30.9,41,30.21,10,North,4.6,0,0,None,Clear
2017-04-10,5:51 AM,54,54,33.1,45,30.19,10,WSW,4.6,0,0,None,Clear
2017-05-22,7:06 AM,54,54,52,93,30.19,10,Variable,5.8,0,0,None,Overcast
2017-04-30,7:51 PM,54,54,39.9,59,30.19,10,Variable,6.9,0,0,None,Overcast
2017-04-30,8:51 PM,54,54,39,57,30.18,10,Variable,3.5,0,0,None,Overcast
2017-02-28,4:27 PM,54,54,50,86,30.18,10,Variable,5.8,0,0,None,Overcast
2017-05-22,7:51 AM,54,54,52,93,30.17,10,Calm,0,0,0,None,Overcast
2017-05-22,5:51 AM,54,54,52,93,30.17,10,Variable,4.6,0,0,None,Overcast
2017-05-22,6:51 AM,54,54,52,93,30.17,10,SSE,5.8,0,0,None,Overcast
2017-04-20,10:07 AM,54,54,51.1,90,30.15,3,Calm,0,0,0,None,Overcast
2017-04-24,9:51 PM,54,54,42.1,64,30.13,10,Variable,3.5,0,0,None,Overcast
2017-01-12,8:09 AM,54,54,50,86,30.11,10,SW,10.4,18.4,0,None,Overcast
2017-01-12,6:13 AM,54,54,48.9,83,30.11,10,Variable,5.8,19.6,0,None,Overcast
2017-05-12,8:21 AM,54,54,42.1,64,30.1,10,Variable,4.6,0,0,None,Scattered Clouds
2017-04-03,12:51 AM,54,54,28.9,38,30.09,10,Calm,0,0,0,None,Clear
2017-01-12,6:51 AM,54,54,48.9,83,30.09,10,SW,9.2,20.7,0,None,Overcast
2017-01-12,7:51 AM,54,54,50,86,30.09,10,WSW,9.2,0,0,None,Overcast
2017-11-06,8:04 PM,54,54,44.1,69,30.07,10,WNW,8.1,0,0,None,Mostly Cloudy
2017-04-25,12:51 PM,54,54,51.1,90,30.06,10,ENE,11.5,19.6,0,None,Overcast
2017-02-28,9:51 PM,54,54,48.9,83,30.06,10,SSE,3.5,0,0,None,Overcast
2017-04-21,12:39 AM,54,54,48,80,30.06,10,East,8.1,0,0,None,Overcast
2017-05-12,7:51 PM,54,54,41,62,30.04,10,North,0,0,0,None,Clear
2017-05-10,8:51 AM,54,54,37,53,30.04,10,Calm,0,0,0,None,Scattered Clouds
2017-11-06,7:51 PM,54,54,44.1,69,30.04,10,NW,9.2,18.4,0,None,Partly Cloudy
2017-02-28,10:51 PM,54,54,48,80,30.04,10,Variable,3.5,0,0,None,Overcast
2017-05-12,6:51 PM,54,54,41,62,30.03,10,Variable,3.5,0,0,None,Clear
2017-04-25,1:51 PM,54,54,51.1,90,30.02,10,ENE,11.5,23,0,None,Overcast
2017-05-11,7:51 PM,54,54,39,57,30.02,10,South,6.9,0,0,None,Clear
2017-06-07,7:31 AM,54,54,46.9,77,30,10,ENE,8.1,0,0,None,Overcast
2017-02-28,11:51 PM,54,54,48.9,83,29.99,10,SSE,4.6,0,0,None,Overcast
2017-06-07,7:01 AM,54,54,46.9,77,29.99,10,Variable,5.8,0,0,None,Overcast
2017-05-09,10:51 AM,54,54,35.1,49,29.98,10,Calm,0,0,0,None,Partly Cloudy
2017-04-03,5:51 PM,54,54,36,51,29.98,10,South,10.4,20.7,0,None,Partly Cloudy
2017-03-01,1:06 AM,54,54,50,86,29.98,10,SSE,3.5,0,0,None,Overcast
2017-02-19,11:51 PM,54,54,32,43,29.98,10,Variable,3.5,0,0,None,Clear
2017-03-09,9:51 AM,54,54,12.9,20,29.97,10,WNW,13.8,28.8,0,None,Clear
2017-06-07,6:51 AM,54,54,46.9,77,29.96,10,Calm,0,0,0,None,Overcast
2017-03-01,12:51 AM,54,54,50,86,29.96,10,Variable,3.5,0,0,None,Overcast
2017-04-22,9:51 AM,54,54,46,75,29.94,10,NE,4.6,0,0,None,Overcast
2017-04-22,2:51 PM,54,54,50,86,29.93,8,Calm,0,0,0.01,Rain,Light Rain
2017-03-01,1:51 AM,54,54,50,86,29.93,10,SSE,4.6,0,0,None,Overcast
2017-03-09,1:51 AM,54,54,17.1,23,29.93,10,West,6.9,0,0,None,Clear
2017-04-22,3:51 PM,54,54,51.1,90,29.92,5,Calm,0,0,0.01,Rain,Light Rain
2017-04-22,12:51 PM,54,54,50,86,29.92,8,Variable,5.8,0,0.02,Rain,Light Rain
2017-04-22,1:51 PM,54,54,48.9,83,29.92,10,Calm,0,0,0.01,None,Overcast
2017-03-01,2:32 AM,54,54,52,93,29.91,10,SSE,6.9,0,0,None,Overcast
2017-06-06,7:59 PM,54,54,50,86,29.91,7,ENE,10.4,0,0,None,Overcast
2017-03-01,2:41 AM,54,54,52,93,29.9,10,SSE,6.9,0,0,None,Overcast
2017-06-06,7:51 PM,54,54,50,86,29.88,10,East,5.8,0,0,None,Overcast
2017-03-01,2:51 AM,54,54,52,93,29.87,9,Variable,4.6,0,0,None,Overcast
2017-05-05,9:51 AM,54,54,52,93,29.82,6,East,8.1,0,0.01,Rain,Light Rain
2017-05-05,10:16 AM,54,54,53.1,97,29.82,2.5,ENE,11.5,0,0.03,Rain,Light Rain
2017-04-26,1:51 AM,54,54,53.1,97,29.81,7,ENE,8.1,23,0,None,Overcast
2017-04-26,5:39 AM,54,54,53.1,97,29.79,3,NNE,5.8,0,0.11,Rain,Light Rain
2017-04-26,2:51 AM,54,54,54,100,29.79,4,East,9.2,21.9,0,None,Overcast
2017-04-26,4:13 AM,54,54,54,100,29.78,4,NE,12.7,17.3,0.01,Rain,Light Rain
2017-04-26,5:13 AM,54,54,54,100,29.78,2.5,Variable,5.8,0,0.06,Rain,Rain
2017-04-26,6:35 AM,54,54,53.1,97,29.78,2.5,NE,6.9,0,0.01,Rain,Light Rain
2017-04-26,7:40 AM,54,54,53.1,97,29.78,1.8,NNE,6.9,0,0.12,Rain,Light Rain
2017-04-26,7:02 AM,54,54,53.1,97,29.78,1.8,Variable,6.9,0,0,Rain,Light Rain
2017-04-26,7:32 AM,54,54,54,100,29.78,0.8,NNE,8.1,0,0.1,Rain,Heavy Rain
2017-06-09,1:51 AM,54,54,48,80,29.78,10,Calm,0,0,0,None,Clear
2017-04-26,3:51 AM,54,54,54,100,29.77,4,East,10.4,0,0,None,Overcast
2017-04-26,6:51 AM,54,54,53.1,97,29.76,2.5,NE,5.8,0,0.02,Rain,Light Rain
2017-04-26,5:51 AM,54,54,53.1,97,29.76,3,Variable,6.9,0,0.12,Rain,Light Rain
2017-04-26,7:51 AM,54,54,53.1,97,29.76,3,Variable,5.8,0,0.13,None,Overcast
2017-04-26,8:51 AM,54,54,53.1,97,29.76,6,Variable,5.8,0,0,None,Overcast
2017-06-09,4:51 AM,54,54,46.9,77,29.74,10,WNW,3.5,0,0,None,Clear
2017-10-26,5:51 AM,54,54,39.9,59,29.67,10,Variable,3.5,0,0,None,Scattered Clouds
2017-10-26,8:51 AM,54,54,39.9,59,29.66,10,Variable,3.5,0,0,None,Overcast
2017-10-26,7:51 AM,54,54,39.9,59,29.66,10,NW,6.9,0,0,None,Overcast
2017-05-07,10:51 AM,54,54,39.9,59,29.65,10,Variable,3.5,0,0,None,Overcast
2017-05-15,4:51 AM,54,54,43,66,29.64,10,West,6.9,0,0,None,Partly Cloudy
2017-05-15,3:51 AM,54,54,42.1,64,29.63,10,WNW,10.4,19.6,0,None,Clear
2017-05-06,10:51 PM,54,54,46.9,77,29.48,10,North,0,0,0,None,Scattered Clouds
2017-05-10,7:51 PM,54.7,54.7,38.5,54,30.04,10,SSE,5.8,0,0,None,Clear
2017-05-11,8:51 AM,54.7,54.7,36,49,30.03,10,Variable,4.6,0,0,None,Clear
2017-10-13,8:51 AM,55,55,46.9,74,30.45,10,Variable,5.8,0,0,None,Overcast
2017-10-13,1:51 AM,55,55,46,72,30.42,10,ENE,9.2,0,0,None,Clear
2017-10-01,8:51 AM,55,55,44.1,67,30.4,10,Variable,5.8,0,0,None,Clear
2017-04-18,5:51 PM,55,55,36,49,30.39,10,SSE,9.2,23,0,None,Clear
2017-04-14,10:51 PM,55,55,30.9,40,30.39,10,West,3.5,0,0,None,Clear
2017-04-14,8:51 PM,55,55,30.9,40,30.38,10,Variable,4.6,0,0,None,Clear
2017-10-01,12:39 AM,55,55,46.9,74,30.38,10,ENE,11.5,0,0,None,Mostly Cloudy
2017-04-13,11:51 PM,55,55,24.1,30,30.37,10,North,6.9,0,0,None,Clear
2017-05-21,6:51 AM,55,55,43,64,30.36,10,Calm,0,0,0,None,Clear
2017-05-21,12:51 AM,55,55,43,64,30.35,10,Calm,0,0,0,None,Clear
2017-04-14,7:51 PM,55,55,30.9,40,30.35,10,South,8.1,18.4,0,None,Clear
2017-09-11,6:51 AM,55,55,50,83,30.35,10,Variable,3.5,0,0,None,Clear
2017-09-30,11:51 PM,55,55,46.9,74,30.35,10,ENE,10.4,0,0,None,Overcast
2017-09-11,5:51 AM,55,55,50,83,30.33,10,Calm,0,0,0,None,Clear
2017-10-18,9:51 AM,55,55,39.9,57,30.33,5,West,3.5,0,0,None,Haze
2017-09-30,9:51 PM,55,55,48,77,30.33,10,Variable,5.8,0,0,None,Mostly Cloudy
2017-05-21,1:51 AM,55,55,43,64,30.32,10,Variable,3.5,0,0,None,Clear
2017-11-05,7:51 AM,55,55,48,77,30.28,10,Variable,3.5,0,0,None,Overcast
2017-09-09,6:51 AM,55,55,48.9,80,30.24,10,Calm,0,0,0,None,Clear
2017-12-05,9:51 AM,55,55,50,83,30.21,10,South,8.1,18.4,0,None,Overcast
2017-05-22,1:51 AM,55,55,48,77,30.21,10,South,5.8,0,0,None,Overcast
2017-04-30,6:51 PM,55,55,41,59,30.21,10,Variable,5.8,0,0,None,Overcast
2017-04-10,6:51 AM,55,55,30.9,40,30.21,10,WSW,5.8,0,0,None,Clear
2017-09-02,5:51 AM,55,55,42.1,62,30.2,10,Variable,3.5,0,0,None,Clear
2017-05-03,10:51 PM,55,55,30,38,30.2,10,Variable,4.6,0,0,None,Clear
2017-05-04,5:51 PM,55,55,37.9,53,30.2,10,Variable,5.8,0,0,None,Clear
2017-04-10,4:51 AM,55,55,33.1,43,30.19,10,WSW,4.6,0,0,None,Clear
2017-04-18,2:51 AM,55,55,28.9,37,30.19,10,North,10.4,0,0,None,Clear
2017-04-10,1:51 AM,55,55,30,38,30.18,10,WSW,4.6,0,0,None,Clear
2017-05-22,9:18 AM,55,55,52,89,30.18,8,Variable,5.8,0,0,None,Overcast
2017-04-10,2:51 AM,55,55,32,42,30.17,10,West,11.5,18.4,0,None,Clear
2017-02-28,3:51 PM,55,55,50,83,30.17,10,Variable,3.5,0,0,None,Overcast
2017-05-22,8:51 AM,55,55,52,89,30.17,9,Variable,4.6,0,0,None,Overcast
2017-04-10,3:51 AM,55,55,32,42,30.17,10,WSW,9.2,0,0,None,Clear
2017-05-22,10:02 AM,55,55,53.1,93,30.16,4,Variable,4.6,0,0,None,Overcast
2017-05-22,9:51 AM,55,55,53.1,93,30.15,3,Variable,4.6,0,0.01,Rain,Light Rain
2017-05-30,5:51 AM,55,55,52,89,30.15,10,Variable,3.5,0,0,None,Overcast
2017-05-30,4:51 AM,55,55,53.1,93,30.14,10,Variable,3.5,0,0,None,Overcast
2017-05-22,11:21 AM,55,55,54,96,30.13,2.5,Variable,3.5,0,0.01,Rain,Light Rain
2017-04-20,10:51 AM,55,55,51.1,86,30.13,3,Calm,0,0,0,None,Overcast
2017-05-30,3:51 AM,55,55,52,89,30.13,7,Calm,0,0,0,None,Overcast
2017-04-24,8:51 PM,55,55,42.1,62,30.13,10,Variable,3.5,0,0,None,Overcast
2017-05-22,10:51 AM,55,55,54,96,30.12,4,Variable,5.8,0,0.01,Rain,Light Rain
2017-09-01,7:51 AM,55,55,39.9,57,30.12,10,North,0,0,0,None,Clear
2017-10-16,6:51 PM,55,55,36,49,30.11,10,NW,9.2,0,0,None,Scattered Clouds
2017-09-01,6:51 AM,55,55,39.9,57,30.1,10,North,0,0,0,None,Clear
2017-10-27,10:51 AM,55,55,37,51,30.1,10,Variable,4.6,0,0,None,Clear
2017-01-12,8:51 AM,55,55,50,83,30.09,10,SW,8.1,17.3,0,None,Overcast
2017-10-31,4:51 PM,55,55,28.9,37,30.08,10,Variable,3.5,0,0,None,Clear
2017-05-12,8:51 AM,55,55,43,64,30.07,10,Variable,6.9,0,0,None,Partly Cloudy
2017-10-28,2:51 AM,55,55,46,72,30.06,10,Variable,3.5,0,0,None,Clear
2017-09-29,7:51 AM,55,55,46,72,30.06,10,WNW,3.5,0,0,None,Clear
2017-09-29,6:51 AM,55,55,46,72,30.04,10,Calm,0,0,0,None,Clear
2017-04-20,9:51 PM,55,55,48.9,80,30.04,10,SSE,10.4,17.3,0,None,Overcast
2017-04-20,10:51 PM,55,55,46.9,74,30.04,10,SSE,8.1,19.6,0,None,Overcast
2017-04-20,11:51 PM,55,55,48,77,30.04,10,SSE,9.2,0,0,None,Overcast
2017-06-03,7:51 AM,55,55,48.9,80,30.01,9,North,0,0,0.01,Rain,Light Rain
2017-03-08,11:51 AM,55,55,28,35,30,10,North,0,0,0,None,Clear
2017-05-01,10:51 AM,55,55,50,83,29.99,6,East,4.6,0,0,None,Haze
2017-06-07,7:51 AM,55,55,46.9,74,29.98,10,ENE,8.1,0,0,None,Overcast
2017-02-19,10:51 PM,55,55,30.9,40,29.97,10,NW,5.8,0,0,None,Clear
2017-04-22,1:39 PM,55,55,48.9,80,29.95,10,Variable,3.5,0,0.01,None,Overcast
2017-04-22,10:51 AM,55,55,48,77,29.95,10,North,8.1,0,0,None,Overcast
2017-03-09,5:51 PM,55,55,19.9,25,29.94,10,Variable,5.8,0,0,None,Mostly Cloudy
2017-03-08,9:51 PM,55,55,21.9,28,29.92,10,North,0,0,0,None,Clear
2017-03-09,12:51 AM,55,55,17.1,23,29.91,10,North,0,0,0,None,Clear
2017-06-06,7:19 PM,55,55,51.1,86,29.88,8,Variable,6.9,0,0,None,Overcast
2017-03-01,3:51 AM,55,55,53.1,93,29.87,10,Variable,5.8,0,0,None,Overcast
2017-03-01,4:51 AM,55,55,53.1,93,29.85,9,Calm,0,0,0,None,Overcast
2017-10-26,7:51 PM,55,55,36,49,29.83,10,Variable,6.9,0,0,None,Clear
2017-06-06,1:18 PM,55,55,53.1,93,29.82,1.8,Variable,3.5,0,0,Rain,Rain
2017-06-06,1:07 PM,55,55,53.1,93,29.82,4,Variable,5.8,0,0,None,Overcast
2017-06-06,1:36 PM,55,55,53.1,93,29.82,3,Variable,5.8,0,0.03,None,Overcast
2017-06-06,12:21 PM,55,55,53.1,93,29.81,2,ENE,4.6,0,0,None,Overcast
2017-06-06,12:44 PM,55,55,53.1,93,29.8,2,ENE,3.5,0,0,None,Overcast
2017-06-06,1:51 PM,55,55,53.1,93,29.79,10,NE,9.2,0,0.03,None,Overcast
2017-04-26,9:16 AM,55,55,54,96,29.78,1.8,NE,6.9,0,0,Rain,Light Rain
2017-04-26,4:38 AM,55,55,55,100,29.78,1.8,Variable,6.9,0,0.01,Rain,Light Rain
2017-04-26,4:30 AM,55,55,54,96,29.78,2,Variable,5.8,18.4,0.01,None,Overcast
2017-04-26,9:29 AM,55,55,55,100,29.78,2.5,ENE,5.8,0,0.01,None,Overcast
2017-06-06,12:51 PM,55,55,53.1,93,29.78,2.5,NE,5.8,0,0,None,Overcast
2017-06-06,11:51 AM,55,55,52,89,29.77,3,NE,6.9,0,0,None,Overcast
2017-04-26,4:51 AM,55,55,54,96,29.76,1.2,Variable,4.6,0,0.03,Rain,Rain
2017-06-09,2:51 AM,55,55,46.9,74,29.76,10,Calm,0,0,0,None,Clear
2017-06-06,8:51 AM,55,55,53.1,93,29.75,10,Variable,4.6,0,0.02,None,Overcast
2017-06-09,3:51 AM,55,55,46.9,74,29.74,10,Calm,0,0,0,None,Clear
2017-06-09,5:51 AM,55,55,45,69,29.74,10,Calm,0,0,0,None,Clear
2017-06-06,7:51 AM,55,55,53.1,93,29.73,6,ENE,9.2,17.3,0.01,Rain,Light Rain
2017-02-19,5:51 AM,55,55,33.1,43,29.73,10,Variable,3.5,0,0,None,Clear
2017-10-26,4:51 PM,55,55,44.1,67,29.71,10,Variable,4.6,0,0,None,Overcast
2017-10-26,10:51 AM,55,55,39.9,57,29.69,10,Variable,6.9,16.1,0,None,Overcast
2017-10-26,12:51 PM,55,55,43,64,29.68,10,WNW,6.9,0,0,None,Overcast
2017-10-26,3:51 AM,55,55,39,55,29.65,10,Variable,6.9,0,0,None,Partly Cloudy
2017-05-15,5:51 AM,55,55,43,64,29.65,10,WNW,6.9,0,0,None,Overcast
2017-10-26,4:51 AM,55,55,39,55,29.65,10,WNW,6.9,0,0,None,Mostly Cloudy
2017-05-05,2:50 PM,55,55,54,96,29.61,3,East,9.2,18.4,0.19,Rain,Light Rain
2017-05-05,3:09 PM,55,55,55,100,29.6,8,Variable,6.9,17.3,0.01,None,Overcast
2017-09-30,9:48 PM,55.4,55.4,48.2,77,30.35,10,Variable,4.6,0,0,None,Mostly Cloudy
2017-04-22,1:48 PM,55.4,55.4,48.2,77,29.94,10,Variable,3.5,0,0.01,None,Overcast
2017-05-26,4:47 AM,55.4,55.4,55.4,100,29.53,2,Calm,0,0,0.05,Rain,Light Rain
2017-05-25,11:47 PM,55.4,55.4,55.4,100,29.51,2,NE,9.2,21.9,0.08,Rain,Rain
2017-10-04,5:51 AM,55.9,55.9,51.1,84,30.47,10,Calm,0,0,0,None,Clear
2017-10-04,6:51 AM,55.9,55.9,51.1,84,30.45,10,Calm,0,0,0,None,Clear
2017-10-13,12:51 AM,55.9,55.9,45,67,30.42,10,Variable,5.8,0,0,None,Clear
2017-10-12,11:51 PM,55.9,55.9,45,67,30.41,10,Variable,6.9,0,0,None,Scattered Clouds
2017-04-15,8:51 AM,55.9,55.9,35.1,45,30.38,10,Variable,4.6,0,0,None,Clear
2017-04-14,9:51 PM,55.9,55.9,28.9,36,30.38,10,SSW,5.8,0,0,None,Clear
2017-04-18,9:51 AM,55.9,55.9,35.1,45,30.37,10,East,5.8,0,0,None,Clear
2017-09-30,11:01 PM,55.9,55.9,46.9,72,30.37,10,Variable,6.9,0,0,None,Overcast
2017-09-30,11:27 PM,55.9,55.9,46.9,72,30.37,10,NE,8.1,0,0,None,Overcast
2017-09-30,11:11 PM,55.9,55.9,46.9,72,30.37,10,ENE,9.2,0,0,None,Overcast
2017-04-13,10:51 PM,55.9,55.9,23,28,30.36,10,Calm,0,0,0,None,Clear
2017-04-13,11:51 AM,55.9,55.9,28.9,36,30.35,10,Calm,0,0,0,None,Clear
2017-05-20,11:51 PM,55.9,55.9,43,62,30.34,10,Calm,0,0,0,None,Clear
2017-09-30,10:51 PM,55.9,55.9,46.9,72,30.34,10,ENE,10.4,0,0,None,Overcast
2017-05-20,10:51 PM,55.9,55.9,43,62,30.33,10,Calm,0,0,0,None,Clear
2017-10-02,2:51 AM,55.9,55.9,42.1,60,30.32,10,Calm,0,0,0,None,Clear
2017-09-30,8:51 PM,55.9,55.9,46.9,72,30.31,10,Variable,4.6,19.6,0,None,Mostly Cloudy
2017-10-12,7:51 AM,55.9,55.9,54,93,30.31,10,ENE,9.2,0,0.01,None,Overcast
2017-02-28,11:51 AM,55.9,55.9,37.9,51,30.3,10,North,0,0,0,None,Clear
2017-09-30,7:51 PM,55.9,55.9,46.9,72,30.3,10,NE,8.1,18.4,0,None,Overcast
2017-04-13,1:51 AM,55.9,55.9,41,57,30.29,10,North,0,0,0,None,Clear
2017-05-04,9:51 AM,55.9,55.9,33.1,42,30.29,10,Variable,5.8,0,0,None,Clear
2017-11-05,9:33 AM,55.9,55.9,50,80,30.29,10,East,6.9,0,0,None,Overcast
2017-11-05,8:51 AM,55.9,55.9,48.9,77,30.27,10,ENE,4.6,0,0,None,Overcast
2017-09-09,7:51 AM,55.9,55.9,48.9,77,30.26,10,Variable,3.5,0,0,None,Clear
2017-11-05,11:08 AM,55.9,55.9,52,87,30.26,10,Variable,3.5,0,0,None,Overcast
2017-10-19,5:51 AM,55.9,55.9,45,67,30.26,10,West,5.8,0,0,None,Clear
2017-10-19,6:51 AM,55.9,55.9,46,69,30.25,10,West,3.5,0,0,None,Clear
2017-11-05,10:51 AM,55.9,55.9,52,87,30.24,8,East,9.2,0,0,None,Overcast
2017-09-09,5:51 AM,55.9,55.9,48.9,77,30.22,10,Variable,3.5,0,0,None,Clear
2017-04-30,5:51 PM,55.9,55.9,39.9,55,30.22,10,Variable,5.8,0,0,None,Overcast
2017-02-28,3:03 PM,55.9,55.9,48.9,77,30.22,10,South,8.1,0,0,None,Mostly Cloudy
2017-05-20,6:51 AM,55.9,55.9,48,75,30.21,10,Variable,4.6,0,0.01,Rain,Light Rain
2017-05-22,2:51 AM,55.9,55.9,46.9,72,30.21,10,Variable,4.6,0,0,None,Overcast
2017-09-09,4:51 AM,55.9,55.9,48.9,77,30.21,10,North,5.8,0,0,None,Clear
2017-11-05,11:51 AM,55.9,55.9,53.1,90,30.21,5,East,6.9,0,0,None,Overcast
2017-04-24,9:51 AM,55.9,55.9,43,62,30.18,10,Calm,0,0,0,None,Clear
2017-05-30,5:16 AM,55.9,55.9,52,87,30.17,10,Calm,0,0,0,None,Overcast
2017-04-18,1:51 AM,55.9,55.9,28.9,36,30.17,10,Variable,5.8,0,0,None,Clear
2017-11-03,9:51 PM,55.9,55.9,39,53,30.17,10,NW,6.9,0,0,None,Clear
2017-05-30,7:51 AM,55.9,55.9,53.1,90,30.16,10,Calm,0,0,0,None,Overcast
2017-12-05,10:51 AM,55.9,55.9,51.1,84,30.16,10,Variable,4.6,17.3,0,None,Overcast
2017-05-30,2:16 AM,55.9,55.9,52,87,30.16,10,South,4.6,0,0,None,Overcast
2017-05-30,3:02 AM,55.9,55.9,51.1,84,30.15,10,Variable,4.6,0,0,None,Overcast
2017-05-30,6:51 AM,55.9,55.9,53.1,90,30.15,10,Variable,6.9,0,0,None,Overcast
2017-05-30,3:02 PM,55.9,55.9,55,97,30.14,10,South,8.1,0,0,None,Overcast
2017-09-01,8:51 AM,55.9,55.9,39,53,30.13,10,North,0,0,0,None,Clear
2017-05-30,2:51 AM,55.9,55.9,52,87,30.13,10,Calm,0,0,0,None,Overcast
2017-04-24,7:51 PM,55.9,55.9,43,62,30.13,10,ESE,6.9,0,0,None,Overcast
2017-04-03,8:51 AM,55.9,55.9,32,40,30.12,10,Calm,0,0,0,None,Clear
2017-05-30,1:51 AM,55.9,55.9,53.1,90,30.12,10,Calm,0,0,0,None,Overcast
2017-05-22,12:22 PM,55.9,55.9,55,97,30.11,3,Variable,3.5,0,0.03,Rain,Light Rain
2017-05-22,12:09 PM,55.9,55.9,55,97,30.11,1.2,Variable,4.6,0,0.02,Rain,Light Rain
2017-05-22,11:51 AM,55.9,55.9,55,97,30.09,2.5,SSE,3.5,0,0.05,Rain,Light Rain
2017-01-12,9:51 AM,55.9,55.9,51.1,84,30.09,10,West,9.2,19.6,0,None,Overcast
2017-10-16,5:51 PM,55.9,55.9,37,49,30.08,10,Variable,4.6,0,0,None,Clear
2017-10-28,1:51 AM,55.9,55.9,46,69,30.07,10,Calm,0,0,0,None,Clear
2017-05-12,9:51 AM,55.9,55.9,42.1,60,30.07,10,Variable,5.8,17.3,0,None,Overcast
2017-10-31,3:51 PM,55.9,55.9,28,34,30.06,10,WNW,9.2,17.3,0,None,Clear
2017-10-16,4:51 PM,55.9,55.9,39,53,30.06,10,Variable,3.5,0,0,None,Clear
2017-10-28,3:51 AM,55.9,55.9,46,69,30.05,10,Calm,0,0,0,None,Clear
2017-10-28,7:51 AM,55.9,55.9,46.9,72,30.05,10,Calm,0,0,0,None,Clear
2017-04-20,8:51 PM,55.9,55.9,48.9,77,30.05,9,South,6.9,18.4,0,None,Overcast
2017-10-31,2:51 PM,55.9,55.9,28.9,36,30.05,10,West,5.8,20.7,0,None,Clear
2017-10-28,5:51 AM,55.9,55.9,46,69,30.05,10,Variable,3.5,0,0,None,Clear
2017-10-31,1:51 PM,55.9,55.9,30,37,30.04,10,North,0,0,0,None,Clear
2017-10-16,11:51 AM,55.9,55.9,42.1,60,30.04,10,WNW,9.2,17.3,0,None,Scattered Clouds
2017-10-31,12:51 PM,55.9,55.9,28.9,36,30.04,10,WNW,9.2,18.4,0,None,Clear
2017-10-16,3:51 PM,55.9,55.9,39,53,30.04,10,WNW,12.7,19.6,0,None,Partly Cloudy
2017-05-29,3:43 PM,55.9,55.9,52,87,30.04,10,East,3.5,0,0,None,Overcast
2017-10-28,6:51 AM,55.9,55.9,46.9,72,30.04,10,Variable,3.5,0,0,None,Clear
2017-05-29,5:51 PM,55.9,55.9,53.1,90,30.04,10,ENE,6.9,0,0,None,Overcast
2017-06-04,5:51 AM,55.9,55.9,41,57,30.03,10,Calm,0,0,0,None,Clear
2017-05-12,5:51 PM,55.9,55.9,41,57,30.03,10,Variable,5.8,0,0,None,Clear
2017-09-29,5:51 AM,55.9,55.9,45,67,30.02,10,NW,4.6,0,0,None,Clear
2017-11-06,6:51 PM,55.9,55.9,46.9,72,30.01,10,North,0,0,0,None,Clear
2017-06-08,5:51 AM,55.9,55.9,48.9,77,30.01,10,Calm,0,0,0,None,Clear
2017-09-29,4:51 AM,55.9,55.9,45,67,30.01,10,Calm,0,0,0,None,Clear
2017-10-16,9:51 AM,55.9,55.9,41,57,30,8,North,0,0,0,None,Clear
2017-05-11,6:51 PM,55.9,55.9,39.9,55,30,10,Calm,0,0,0,None,Clear
2017-06-08,4:51 AM,55.9,55.9,50,80,30,10,Calm,0,0,0,None,Clear
2017-04-03,4:51 PM,55.9,55.9,36,47,29.99,10,South,10.4,20.7,0,None,Clear
2017-05-16,5:51 AM,55.9,55.9,44.1,64,29.98,10,Calm,0,0,0,None,Clear
2017-05-29,12:51 PM,55.9,55.9,54,93,29.98,8,East,4.6,0,0.02,None,Overcast
2017-03-08,12:51 AM,55.9,55.9,46.9,72,29.97,10,Variable,4.6,0,0,None,Overcast
2017-04-22,11:03 AM,55.9,55.9,46.9,72,29.97,10,Variable,5.8,0,0,None,Overcast
2017-03-08,12:51 PM,55.9,55.9,21,26,29.96,10,West,8.1,20.7,0,None,Clear
2017-03-09,10:51 AM,55.9,55.9,12,18,29.96,10,West,15,34.5,0,None,Clear
2017-02-19,9:51 PM,55.9,55.9,30.9,39,29.96,10,North,5.8,0,0,None,Clear
2017-03-08,1:51 AM,55.9,55.9,48,75,29.94,10,Variable,5.8,0,0,None,Overcast
2017-04-22,11:51 AM,55.9,55.9,46.9,72,29.94,10,NE,9.2,0,0,None,Overcast
2017-05-29,5:42 AM,55.9,55.9,55,97,29.91,10,Variable,6.9,0,0.02,Rain,Light Rain
2017-03-08,10:51 PM,55.9,55.9,18,23,29.91,10,WSW,10.4,26.5,0,None,Clear
2017-03-08,2:51 AM,55.9,55.9,48.9,77,29.91,10,Variable,6.9,0,0,None,Overcast
2017-03-08,8:51 PM,55.9,55.9,21,26,29.9,10,North,0,0,0,None,Clear
2017-03-08,3:51 AM,55.9,55.9,50,80,29.89,10,South,4.6,0,0,None,Overcast
2017-05-29,6:51 AM,55.9,55.9,55,97,29.89,9,Variable,5.8,0,0.02,None,Overcast
2017-05-29,5:51 AM,55.9,55.9,55,97,29.88,10,East,8.1,0,0.02,None,Overcast
2017-06-06,6:51 PM,55.9,55.9,51.1,84,29.85,10,East,6.9,0,0,None,Overcast
2017-06-06,5:51 PM,55.9,55.9,51.1,84,29.83,10,Variable,3.5,0,0,None,Overcast
2017-06-06,3:23 PM,55.9,55.9,52,87,29.83,10,Variable,4.6,0,0,None,Overcast
2017-06-06,3:16 PM,55.9,55.9,53.1,90,29.82,10,Variable,3.5,0,0,None,Overcast
2017-06-06,3:07 PM,55.9,55.9,53.1,90,29.82,10,ENE,5.8,0,0,None,Overcast
2017-06-06,3:51 PM,55.9,55.9,52,87,29.81,10,ENE,5.8,0,0,None,Overcast
2017-06-06,2:25 PM,55.9,55.9,53.1,90,29.81,10,Variable,5.8,0,0,None,Overcast
2017-06-06,4:51 PM,55.9,55.9,52,87,29.81,10,Variable,6.9,0,0,None,Overcast
2017-06-09,12:51 AM,55.9,55.9,48,75,29.8,10,NNE,4.6,0,0,None,Clear
2017-06-06,2:51 PM,55.9,55.9,53.1,90,29.79,10,Variable,4.6,0,0,None,Overcast
2017-04-26,10:05 AM,55.9,55.9,55,97,29.78,9,ENE,8.1,17.3,0,None,Overcast
2017-10-26,6:51 PM,55.9,55.9,36,47,29.78,10,Variable,4.6,0,0,None,Clear
2017-05-25,5:10 AM,55.9,55.9,54,93,29.77,8,Variable,4.6,0,0,None,Overcast
2017-04-26,9:36 AM,55.9,55.9,55,97,29.77,3,NE,8.1,0,0.01,None,Overcast
2017-04-26,9:51 AM,55.9,55.9,55,97,29.76,6,ENE,11.5,18.4,0.01,None,Overcast
2017-06-06,10:51 AM,55.9,55.9,52,87,29.76,10,Variable,5.8,0,0,None,Overcast
2017-06-06,9:51 AM,55.9,55.9,53.1,90,29.75,10,ENE,5.8,0,0,None,Overcast
2017-02-19,6:51 AM,55.9,55.9,34,44,29.75,10,West,5.8,0,0,None,Overcast
2017-06-06,5:22 AM,55.9,55.9,53.1,90,29.73,10,Variable,4.6,0,0,None,Overcast
2017-06-06,6:51 AM,55.9,55.9,53.1,90,29.73,9,Variable,6.9,0,0,None,Overcast
2017-05-25,5:51 AM,55.9,55.9,54,93,29.72,7,ENE,9.2,17.3,0.02,Rain,Light Rain
2017-02-19,4:51 AM,55.9,55.9,32,40,29.72,10,West,4.6,0,0,None,Clear
2017-05-25,6:51 AM,55.9,55.9,55,97,29.71,5,ENE,10.4,17.3,0.03,Rain,Light Rain
2017-02-19,3:51 AM,55.9,55.9,32,40,29.71,10,Variable,3.5,0,0,None,Clear
2017-06-06,3:51 AM,55.9,55.9,54,93,29.7,9,Variable,6.9,0,0,None,Overcast
2017-06-06,4:51 AM,55.9,55.9,53.1,90,29.7,10,NE,8.1,0,0,None,Overcast
2017-05-25,8:15 AM,55.9,55.9,55,97,29.69,2,ENE,10.4,16.1,0.03,Rain,Light Rain
2017-05-25,7:51 AM,55.9,55.9,55,97,29.69,4,Variable,6.9,0,0.03,Rain,Light Rain
2017-05-15,7:51 AM,55.9,55.9,43,62,29.69,10,NW,9.2,20.7,0,None,Overcast
2017-05-25,9:40 AM,55.9,55.9,55.9,100,29.68,1.2,ENE,9.2,16.1,0.07,Rain,Rain
2017-05-25,9:02 AM,55.9,55.9,55,97,29.68,1.2,East,8.1,17.3,0.01,Rain,Rain
2017-05-25,8:25 AM,55.9,55.9,55,97,29.68,5,East,9.2,23,0.03,Rain,Light Rain
2017-05-25,9:20 AM,55.9,55.9,55,97,29.68,2.5,ENE,10.4,0,0.04,Rain,Light Rain
2017-10-26,9:51 AM,55.9,55.9,41,57,29.68,10,Variable,5.8,0,0,None,Overcast
2017-05-25,8:51 AM,55.9,55.9,55,97,29.67,2.5,East,9.2,19.6,0.04,Rain,Light Rain
2017-05-15,6:51 AM,55.9,55.9,44.1,64,29.67,10,WNW,9.2,26.5,0,None,Overcast
2017-10-26,1:51 PM,55.9,55.9,41,57,29.67,10,Variable,5.8,0,0,None,Overcast
2017-05-25,10:03 AM,55.9,55.9,55,97,29.66,3,Variable,6.9,17.3,0.02,Rain,Light Rain
2017-05-25,10:20 AM,55.9,55.9,55.9,100,29.66,3,East,9.2,0,0.03,Rain,Light Rain
2017-10-26,2:51 AM,55.9,55.9,39,53,29.65,10,WNW,8.1,0,0,None,Overcast
2017-05-25,9:51 AM,55.9,55.9,55.9,100,29.64,1.5,ENE,8.1,0,0.1,Rain,Rain
2017-05-26,7:26 AM,55.9,55.9,55.9,100,29.59,10,Calm,0,0,0,None,Overcast
2017-05-26,6:35 AM,55.9,55.9,55,97,29.57,9,Calm,0,0,0.02,Rain,Light Rain
2017-05-26,6:17 AM,55.9,55.9,55,97,29.57,5,WNW,3.5,0,0.01,Rain,Light Rain
2017-05-26,6:51 AM,55.9,55.9,55,97,29.55,10,Calm,0,0,0.02,None,Overcast
2017-05-26,4:41 AM,55.9,55.9,55,97,29.53,3,Calm,0,0,0.04,Rain,Light Rain
2017-05-26,5:51 AM,55.9,55.9,55,97,29.53,9,Variable,4.6,0,0.02,Rain,Light Rain
2017-05-26,5:09 AM,55.9,55.9,55.9,100,29.53,4,WNW,4.6,0,0.02,Rain,Light Rain
2017-05-26,12:08 AM,55.9,55.9,55.9,100,29.52,9,Variable,6.9,0,0.03,None,Overcast
2017-05-26,12:00 AM,55.9,55.9,55.9,100,29.51,4,Variable,5.8,0,0.02,Rain,Light Rain
2017-05-26,4:51 AM,55.9,55.9,55.9,100,29.5,2.5,Calm,0,0,0.05,Rain,Light Rain
2017-05-26,3:51 AM,55.9,55.9,55,97,29.49,10,Variable,4.6,0,0,None,Overcast
2017-05-25,11:51 PM,55.9,55.9,55.9,100,29.48,2.5,Variable,4.6,17.3,0.09,Rain,Rain
2017-05-06,9:51 PM,55.9,55.9,46.9,72,29.46,10,Variable,5.8,0,0,None,Overcast
2017-11-05,4:03 PM,57.9,57,97,,-,2,NE,3.5,0,0,None,Overcast
2017-10-03,6:51 AM,57,57,52,83,30.59,10,Calm,0,0,0,None,Clear
2017-10-03,5:51 AM,57,57,51.1,81,30.56,10,Calm,0,0,0,None,Clear
2017-10-04,4:51 AM,57,57,51.1,81,30.48,10,West,5.8,0,0,None,Clear
2017-10-13,10:08 AM,57,57,48.9,74,30.47,10,Variable,5.8,0,0,None,Mostly Cloudy
2017-10-13,9:51 AM,57,57,48,72,30.45,10,Variable,5.8,0,0,None,Overcast
2017-10-01,9:51 AM,57,57,41,55,30.41,10,ENE,8.1,0,0,None,Clear
2017-10-12,9:51 PM,57,57,45,64,30.4,10,North,0,0,0,None,Clear
2017-10-12,10:51 PM,57,57,44.1,62,30.4,10,East,8.1,18.4,0,None,Clear
2017-10-22,6:51 AM,57,57,48.9,74,30.38,10,Calm,0,0,0,None,Clear
2017-10-12,9:02 AM,57,57,53.1,87,30.37,10,Variable,6.9,0,0,None,Overcast
2017-10-12,8:42 AM,57,57,54,89,30.36,10,ENE,8.1,0,0.01,None,Overcast
2017-05-21,7:51 AM,57,57,42.1,57,30.35,10,Calm,0,0,0,None,Clear
2017-10-12,9:51 AM,57,57,51.1,81,30.35,10,ENE,12.7,18.4,0,None,Overcast
2017-10-12,8:33 AM,57,57,54,89,30.35,10,Variable,4.6,0,0.01,None,Overcast
2017-04-13,9:51 PM,57,57,24.1,28,30.35,10,North,5.8,0,0,None,Partly Cloudy
2017-09-10,6:51 AM,57,57,51.1,81,30.35,10,Variable,5.8,0,0,None,Clear
2017-10-12,8:51 AM,57,57,53.1,87,30.34,10,NE,9.2,0,0.01,None,Overcast
2017-05-20,9:51 PM,57,57,41,55,30.32,10,Calm,0,0,0,None,Clear
2017-09-11,4:51 AM,57,57,50,77,30.32,10,Calm,0,0,0,None,Clear
2017-10-02,1:51 AM,57,57,42.1,57,30.32,10,WNW,3.5,0,0,None,Clear
2017-05-20,8:51 PM,57,57,41,55,30.31,10,Calm,0,0,0,None,Clear
2017-09-30,7:15 PM,57,57,46.9,69,30.31,10,NE,8.1,17.3,0,None,Overcast
2017-10-21,6:51 AM,57,57,39,51,30.28,10,Calm,0,0,0,None,Clear
2017-09-30,6:51 PM,57,57,46.9,69,30.28,10,NNW,11.5,20.7,0,None,Overcast
2017-05-21,9:51 PM,57,57,39.9,53,30.28,10,SSE,8.1,0,0,None,Overcast
2017-10-12,6:51 AM,57,57,55,93,30.27,7,NE,9.2,0,0.01,Rain,Light Rain
2017-10-21,5:51 AM,57,57,36,45,30.27,10,Calm,0,0,0,None,Clear
2017-10-21,4:51 AM,57,57,37.9,49,30.27,10,Variable,3.5,0,0,None,Clear
2017-11-05,9:51 AM,57,57,50,77,30.26,10,Variable,6.9,0,0,None,Overcast
2017-05-21,11:51 PM,57,57,43,59,30.25,10,Calm,0,0,0,None,Overcast
2017-10-19,7:51 AM,57,57,46,67,30.25,10,Calm,0,0,0,None,Clear
2017-10-19,4:51 AM,57,57,45,64,30.25,10,Variable,3.5,0,0,None,Clear
2017-09-02,7:51 AM,57,57,45,64,30.24,10,ENE,4.6,0,0,None,Clear
2017-05-22,12:51 AM,57,57,44.1,62,30.23,10,North,0,0,0,None,Overcast
2017-02-28,1:51 PM,57,57,43,59,30.23,10,East,8.1,0,0,None,Partly Cloudy
2017-04-10,7:51 AM,57,57,32,39,30.21,10,Calm,0,0,0,None,Clear
2017-05-04,4:51 PM,57,57,33.1,40,30.21,10,Variable,3.5,0,0,None,Clear
2017-04-30,4:51 PM,57,57,39.9,53,30.21,10,Variable,4.6,0,0,None,Overcast
2017-02-28,2:51 PM,57,57,48.9,74,30.2,10,North,0,0,0,None,Mostly Cloudy
2017-09-09,2:51 AM,57,57,50,77,30.2,10,Calm,0,0,0,None,Clear
2017-05-30,8:37 AM,57,57,53.1,87,30.2,10,Variable,3.5,0,0,None,Overcast
2017-09-09,3:51 AM,57,57,50,77,30.2,10,Variable,3.5,0,0,None,Clear
2017-11-05,1:06 PM,57,57,55,93,30.2,2,ENE,4.6,0,0,None,Overcast
2017-09-02,4:51 AM,57,57,41,55,30.2,10,NE,6.9,0,0,None,Clear
2017-11-05,1:29 PM,57,57,55,93,30.19,3,ENE,4.6,0,0,None,Overcast
2017-11-05,12:51 PM,57,57,54,89,30.19,3,East,5.8,0,0,None,Overcast
2017-04-24,10:51 AM,57,57,42.1,57,30.18,9,Variable,3.5,0,0,None,Clear
2017-11-05,2:02 PM,57,57,55.9,96,30.18,1.8,NE,4.6,0,0,None,Overcast
2017-11-05,2:14 PM,57,57,55.9,96,30.18,2.5,NE,4.6,0,0,None,Overcast
2017-04-10,12:51 AM,57,57,28.9,34,30.17,10,West,8.1,19.6,0,None,Clear
2017-05-03,9:51 PM,57,57,28.9,34,30.17,10,Variable,3.5,0,0,None,Clear
2017-05-30,8:51 AM,57,57,53.1,87,30.17,10,Variable,3.5,0,0,None,Overcast
2017-05-30,2:38 PM,57,57,55,93,30.16,2.5,Calm,0,0,0.02,Rain,Rain
2017-11-05,1:51 PM,57,57,55.9,96,30.16,2,East,5.8,0,0,None,Overcast
2017-11-05,2:51 PM,57,57,55.9,96,30.14,1.8,NE,3.5,0,0,None,Overcast
2017-05-30,2:51 PM,57,57,55,93,30.13,4,Variable,4.6,0,0.04,Rain,Light Rain
2017-04-24,6:51 PM,57,57,43,59,30.13,10,Variable,3.5,0,0,None,Overcast
2017-05-30,3:51 PM,57,57,55,93,30.12,10,Calm,0,0,0,None,Overcast
2017-05-30,12:51 AM,57,57,53.1,87,30.12,10,South,3.5,0,0,None,Overcast
2017-04-03,9:51 AM,57,57,32,39,30.11,10,Calm,0,0,0,None,Partly Cloudy
2017-05-29,11:51 PM,57,57,54,89,30.1,10,Variable,3.5,0,0,None,Overcast
2017-10-27,9:51 PM,57,57,44.1,62,30.09,10,Calm,0,0,0,None,Clear
2017-10-27,10:51 PM,57,57,45,64,30.09,10,Calm,0,0,0,None,Clear
2017-10-27,8:51 PM,57,57,44.1,62,30.09,10,Variable,3.5,0,0,None,Clear
2017-10-27,7:51 PM,57,57,43,59,30.09,10,Variable,4.6,0,0,None,Clear
2017-09-01,5:51 AM,57,57,39.9,53,30.09,10,WNW,4.6,0,0,None,Clear
2017-05-22,12:51 PM,57,57,55.9,96,30.08,7,Variable,3.5,0,0.03,None,Overcast
2017-05-29,8:51 PM,57,57,54,89,30.07,10,Calm,0,0,0,None,Overcast
2017-05-29,6:51 PM,57,57,53.1,87,30.07,10,ENE,3.5,0,0,None,Overcast
2017-09-30,7:51 AM,57,57,48.9,74,30.07,10,West,4.6,0,0,None,Mostly Cloudy
2017-05-29,7:51 PM,57,57,53.1,87,30.07,10,ENE,5.8,0,0,None,Overcast
2017-10-28,12:51 AM,57,57,46,67,30.07,10,WSW,9.2,0,0,None,Clear
2017-05-29,4:25 PM,57,57,53.1,87,30.05,10,Calm,0,0,0,None,Overcast
2017-09-30,6:51 AM,57,57,48.9,74,30.05,10,Variable,3.5,0,0,None,Scattered Clouds
2017-05-29,4:39 PM,57,57,52,83,30.05,10,ENE,5.8,0,0,None,Overcast
2017-10-28,4:51 AM,57,57,46,67,30.05,10,SW,5.8,0,0,None,Clear
2017-05-12,4:51 PM,57,57,42.1,57,30.04,10,Variable,3.5,0,0,None,Clear
2017-05-29,4:04 PM,57,57,53.1,87,30.04,10,ENE,5.8,0,0,None,Overcast
2017-09-30,5:51 AM,57,57,48,72,30.03,10,Calm,0,0,0,None,Mostly Cloudy
2017-05-29,4:51 PM,57,57,52,83,30.03,10,Variable,3.5,0,0,None,Overcast
2017-05-12,3:51 PM,57,57,41,55,30.03,10,South,9.2,0,0,None,Clear
2017-06-04,4:51 AM,57,57,42.1,57,30.02,10,Calm,0,0,0,None,Clear
2017-09-30,4:51 AM,57,57,48,72,30.02,10,West,3.5,0,0,None,Clear
2017-10-16,10:51 AM,57,57,42.1,57,30.01,10,North,0,0,0,None,Clear
2017-10-16,1:51 PM,57,57,41,55,30.01,10,North,0,0,0,None,Clear
2017-09-29,3:51 AM,57,57,45,64,30.01,10,Calm,0,0,0,None,Clear
2017-05-29,2:51 PM,57,57,53.1,87,30.01,10,Variable,4.6,0,0,None,Overcast
2017-05-29,3:51 PM,57,57,52,83,30.01,10,ENE,8.1,0,0,None,Overcast
2017-06-08,3:51 AM,57,57,50,77,30,10,Calm,0,0,0,None,Clear
2017-09-29,2:51 AM,57,57,44.1,62,30,10,Calm,0,0,0,None,Clear
2017-06-02,5:51 AM,57,57,45,64,29.99,10,Calm,0,0,0,None,Clear
2017-05-11,5:51 PM,57,57,39,51,29.99,10,Variable,3.5,0,0,None,Clear
2017-06-07,8:51 AM,57,57,46.9,69,29.99,10,Variable,6.9,0,0,None,Overcast
2017-06-03,8:51 AM,57,57,50,77,29.98,10,WSW,3.5,0,0,None,Mostly Cloudy
2017-10-16,8:51 AM,57,57,41,55,29.98,10,Variable,6.9,0,0,None,Clear
2017-05-09,11:51 AM,57,57,32,39,29.97,10,North,0,0,0,None,Mostly Cloudy
2017-05-29,11:22 AM,57,57,55,93,29.97,10,NE,5.8,0,0,None,Overcast
2017-05-29,10:31 AM,57,57,55,93,29.96,5,Calm,0,0,0.01,Rain,Light Rain
2017-05-29,11:51 AM,57,57,54,89,29.96,5,Variable,3.5,0,0.01,Rain,Light Rain
2017-05-09,6:51 PM,57,57,32,39,29.96,10,Calm,0,0,0,None,Overcast
2017-05-16,4:51 AM,57,57,44.1,62,29.96,10,Variable,4.6,0,0,None,Clear
2017-05-23,5:51 AM,57,57,55,93,29.94,9,Calm,0,0,0,None,Clear
2017-05-29,10:51 AM,57,57,55,93,29.93,9,ESE,9.2,0,0.01,Rain,Light Rain
2017-05-16,2:51 AM,57,57,44.1,62,29.93,10,Calm,0,0,0,None,Clear
2017-03-08,2:51 PM,57,57,21.9,26,29.93,10,Variable,4.6,23,0,None,Mostly Cloudy
2017-05-29,6:23 AM,57,57,55,93,29.92,5,Calm,0,0,0.01,Rain,Light Rain
2017-05-29,8:51 AM,57,57,55,93,29.91,9,Variable,4.6,0,0,Rain,Light Rain
2017-05-29,9:51 AM,57,57,55,93,29.91,9,Variable,6.9,0,0,Rain,Light Rain
2017-03-08,5:51 AM,57,57,52,83,29.91,9,WSW,9.2,0,0.01,None,Overcast
2017-03-08,11:51 PM,57,57,15.1,19,29.9,10,West,15,23,0,None,Clear
2017-04-27,9:51 PM,57,57,57,100,29.9,3,Variable,5.8,0,0,None,Overcast
2017-05-29,7:51 AM,57,57,55,93,29.9,10,Variable,5.8,0,0,None,Overcast
2017-04-27,11:51 PM,57,57,55.9,96,29.89,4,Calm,0,0,0,None,Overcast
2017-04-27,10:51 PM,57,57,55.9,96,29.89,4,Variable,3.5,0,0,None,Overcast
2017-03-08,4:51 AM,57,57,51.1,81,29.88,10,North,0,0,0,Rain,Light Rain
2017-05-29,4:51 AM,57,57,55,93,29.88,9,Variable,4.6,0,0.04,Rain,Light Rain
2017-03-08,5:51 PM,57,57,21.9,26,29.88,10,Variable,5.8,0,0,None,Clear
2017-03-01,5:51 AM,57,57,54,89,29.82,10,Variable,3.5,0,0,None,Overcast
2017-06-08,11:51 PM,57,57,46,67,29.82,10,ENE,5.8,0,0,None,Clear
2017-02-19,8:51 AM,57,57,35.1,44,29.81,10,West,5.8,0,0,None,Mostly Cloudy
2017-04-26,11:35 AM,57,57,55,93,29.79,3,NE,9.2,18.4,0.03,Rain,Light Rain
2017-04-26,11:25 AM,57,57,55,93,29.79,1.8,East,9.2,19.6,0.01,Rain,Heavy Rain
2017-02-19,7:51 AM,57,57,35.1,44,29.78,10,West,4.6,0,0,None,Scattered Clouds
2017-04-26,11:51 AM,57,57,55,93,29.77,9,Variable,5.8,18.4,0.03,None,Overcast
2017-04-26,10:51 AM,57,57,55,93,29.77,10,ENE,9.2,18.4,0,None,Overcast
2017-05-25,3:51 AM,57,57,52,83,29.75,10,Variable,6.9,0,0,None,Overcast
2017-05-24,6:51 AM,57,57,55,93,29.74,8,NE,3.5,0,0.02,Rain,Light Rain
2017-05-25,4:51 AM,57,57,54,89,29.74,10,Variable,4.6,0,0,Rain,Light Rain
2017-10-26,5:51 PM,57,57,37.9,49,29.74,10,WNW,9.2,0,0,None,Mostly Cloudy
2017-06-06,2:51 AM,57,57,55,93,29.71,6,ENE,11.5,0,0,None,Overcast
2017-02-19,2:51 AM,57,57,32,39,29.69,10,Variable,4.6,0,0,None,Partly Cloudy
2017-10-26,3:51 PM,57,57,41,55,29.69,10,West,6.9,0,0,None,Overcast
2017-10-26,2:51 PM,57,57,39,51,29.68,10,Variable,4.6,0,0,None,Overcast
2017-10-26,1:51 AM,57,57,37.9,49,29.68,10,North,8.1,0,0,None,Overcast
2017-05-05,4:11 PM,57,57,57,100,29.65,1.8,Calm,0,0,0,Rain,Light Rain
2017-05-25,11:38 AM,57,57,55.9,96,29.65,1.5,ENE,8.1,0,0.03,Rain,Light Rain
2017-05-25,10:13 AM,57,57,55.9,96,29.65,1.8,East,9.2,0,0.03,Rain,Light Rain
2017-05-25,10:51 AM,57,57,55.9,96,29.64,2.5,Variable,4.6,0,0.05,Rain,Light Rain
2017-05-25,12:33 PM,57,57,55.9,96,29.63,2.5,ENE,10.4,18.4,0.05,Rain,Light Rain
2017-05-25,1:14 PM,57,57,55.9,96,29.63,2.5,East,9.2,0,0.01,Rain,Light Rain
2017-05-25,2:19 PM,57,57,55.9,96,29.62,2,ENE,6.9,0,0,Rain,Light Rain
2017-05-25,11:51 AM,57,57,55.9,96,29.62,1,East,9.2,0,0.07,Rain,Rain
2017-05-05,4:40 PM,57,57,55.9,96,29.62,2.5,ENE,8.1,0,0.01,None,Overcast
2017-05-25,2:03 PM,57,57,55.9,96,29.61,3,East,12.7,19.6,0,Rain,Light Rain
2017-05-25,2:27 PM,57,57,57,100,29.61,1.5,ENE,8.1,0,0.01,Rain,Light Rain
2017-05-05,3:51 PM,57,57,57,100,29.61,5,East,4.6,0,0.01,None,Overcast
2017-05-25,2:44 PM,57,57,55.9,96,29.6,2.5,ENE,11.5,18.4,0.01,Rain,Light Rain
2017-05-25,12:47 PM,57,57,57,100,29.6,3,ENE,9.2,0,0.06,Rain,Light Rain
2017-05-25,1:51 PM,57,57,55.9,96,29.59,2.5,ENE,9.2,0,0.03,None,Overcast
2017-05-26,7:51 AM,57,57,55.9,96,29.58,10,West,3.5,0,0,None,Overcast
2017-05-25,2:51 PM,57,57,55.9,96,29.57,3,ENE,9.2,18.4,0.02,Rain,Light Rain
2017-05-25,3:51 PM,57,57,57,100,29.56,2.5,East,9.2,16.1,0.01,None,Overcast
2017-05-25,6:24 PM,57,57,57,100,29.56,1.8,ENE,8.1,0,0,None,Overcast
2017-05-25,8:01 PM,57,57,55.9,96,29.55,3,East,8.1,18.4,0,None,Overcast
2017-05-25,5:51 PM,57,57,55.9,96,29.55,2.5,East,10.4,0,0,None,Overcast
2017-05-06,12:17 AM,57,57,57,100,29.54,1.5,South,8.1,19.6,0,None,Overcast
2017-05-25,7:51 PM,57,57,55.9,96,29.53,2.5,Variable,6.9,0,0,None,Overcast
2017-05-25,11:27 PM,57,57,55.9,96,29.52,5,Variable,3.5,0,0.01,Rain,Light Rain
2017-05-06,2:02 AM,57,57,57,100,29.5,1.8,Calm,0,0,0.04,Rain,Rain
2017-05-26,1:27 AM,57,57,57,100,29.5,8,Calm,0,0,0,None,Overcast
2017-05-25,8:51 PM,57,57,55.9,96,29.5,7,East,16.1,20.7,0,None,Overcast
2017-05-06,12:51 AM,57,57,57,100,29.5,1,SSE,6.9,0,0,None,Mist
2017-05-06,2:10 AM,57,57,57,100,29.49,3,Variable,4.6,0,0.04,Rain,Light Rain
2017-05-25,9:51 PM,57,57,55.9,96,29.49,8,East,10.4,17.3,0,None,Overcast
2017-05-06,1:51 AM,57,57,57,100,29.48,3,Variable,5.8,0,0,Rain,Light Rain
2017-05-25,10:51 PM,57,57,55.9,96,29.48,7,East,11.5,27.6,0,None,Overcast
2017-05-26,12:51 AM,57,57,55.9,96,29.48,6,Variable,3.5,0,0.03,None,Overcast
2017-05-26,2:51 AM,57,57,55.9,96,29.46,10,Calm,0,0,0.01,Rain,Light Rain
2017-05-26,1:51 AM,57,57,55.9,96,29.46,9,Variable,3.5,0,0,None,Overcast
2017-05-06,8:51 PM,57,57,48.9,74,29.43,10,Variable,3.5,19.6,0,None,Mostly Cloudy
2017-05-06,6:34 AM,57,57,57,100,29.43,2,Variable,5.8,21.9,0,None,Overcast
2017-05-06,7:36 AM,57,57,57,100,29.43,1.8,Variable,4.6,0,0,None,Overcast
2017-05-06,6:51 AM,57,57,57,100,29.4,2,Variable,3.5,0,0,None,Overcast
2017-05-31,12:46 AM,57.2,57.2,57.2,100,30.12,3,Variable,3.5,0,0,None,Overcast
2017-05-29,9:47 PM,57.2,57.2,53.6,88,30.11,10,East,6.9,0,0,None,Overcast
2017-05-11,10:51 AM,57.2,57.2,33.8,41,30.02,10,Variable,3.5,0,0,None,Scattered Clouds
2017-05-11,9:51 AM,57.2,57.2,35.6,44,30.02,10,ENE,5.8,0,0,None,Clear
2017-05-09,2:51 PM,57.2,57.2,24.8,29,29.96,10,Calm,0,0,0,None,Mostly Cloudy
2017-03-08,4:48 AM,57.2,57.2,50,77,29.9,10,North,0,0,0,Rain,Light Rain
2017-03-01,5:46 AM,57.2,57.2,53.6,88,29.84,10,Calm,0,0,0,None,Overcast
2017-05-05,4:48 PM,57.2,57.2,57.2,100,29.62,3,ENE,5.8,0,0.01,None,Overcast
2017-05-26,12:49 AM,57.2,57.2,55.4,94,29.51,7,Variable,5.8,0,0.03,None,Overcast
2017-05-06,1:48 AM,57.2,57.2,57.2,100,29.5,3,Variable,3.5,0,0,Rain,Light Rain
2017-05-06,2:49 AM,57.2,57.2,57.2,100,29.47,1.8,Calm,0,0,0.15,Rain,Light Rain
2017-05-10,6:51 PM,57.4,57.4,39,50,30.03,10,South,4.6,0,0,None,Clear
2017-10-03,4:51 AM,57.9,57.9,50,75,30.55,10,NNE,3.5,0,0,None,Clear
2017-10-04,12:51 AM,57.9,57.9,48.9,72,30.53,10,Variable,4.6,0,0,None,Clear
2017-10-04,1:51 AM,57.9,57.9,48.9,72,30.52,10,Variable,3.5,0,0,None,Clear
2017-10-04,2:51 AM,57.9,57.9,50,75,30.5,10,North,0,0,0,None,Clear
2017-10-04,3:51 AM,57.9,57.9,50,75,30.48,10,North,0,0,0,None,Clear
2017-10-04,7:51 AM,57.9,57.9,52,81,30.45,10,North,0,0,0,None,Clear
2017-04-14,10:51 AM,57.9,57.9,27,31,30.41,10,East,4.6,0,0,None,Partly Cloudy
2017-10-02,8:51 AM,57.9,57.9,45,62,30.41,10,ENE,5.8,0,0,None,Clear
2017-10-22,7:51 AM,57.9,57.9,51.1,78,30.4,8,Calm,0,0,0,None,Clear
2017-04-15,9:51 AM,57.9,57.9,30.9,36,30.38,10,SW,8.1,18.4,0,None,Partly Cloudy
2017-04-18,4:51 PM,57.9,57.9,37,46,30.38,10,South,13.8,20.7,0,None,Clear
2017-04-18,10:51 AM,57.9,57.9,33.1,39,30.38,10,NE,6.9,0,0,None,Clear
2017-10-12,10:51 AM,57.9,57.9,51.1,78,30.36,10,ENE,15,21.9,0,None,Overcast
2017-09-11,7:51 AM,57.9,57.9,48.9,72,30.35,10,Calm,0,0,0,None,Clear
2017-04-13,12:51 PM,57.9,57.9,28.9,33,30.34,10,Calm,0,0,0,None,Clear
2017-09-10,5:51 AM,57.9,57.9,51.1,78,30.33,10,Variable,6.9,0,0,None,Clear
2017-09-10,4:51 AM,57.9,57.9,51.1,78,30.32,10,Variable,3.5,0,0,None,Clear
2017-09-10,3:51 AM,57.9,57.9,52,81,30.31,10,Variable,4.6,0,0,None,Clear
2017-10-02,12:51 AM,57.9,57.9,43,58,30.31,10,WNW,4.6,0,0,None,Clear
2017-05-20,7:51 PM,57.9,57.9,43,58,30.3,10,Calm,0,0,0,None,Clear
2017-10-21,7:51 AM,57.9,57.9,37.9,47,30.3,10,Calm,0,0,0,None,Clear
2017-09-10,2:51 AM,57.9,57.9,51.1,78,30.3,10,NNW,5.8,0,0,None,Clear
2017-10-12,6:11 AM,57.9,57.9,55.9,93,30.29,9,ENE,12.7,21.9,0,None,Overcast
2017-05-21,7:51 PM,57.9,57.9,39.9,51,30.29,10,South,6.9,0,0,None,Scattered Clouds
2017-05-21,8:51 PM,57.9,57.9,39.9,51,30.28,10,SSE,8.1,0,0,None,Overcast
2017-04-13,12:51 AM,57.9,57.9,45,62,30.28,10,North,9.2,0,0,None,Clear
2017-05-21,10:51 PM,57.9,57.9,42.1,56,30.27,10,Variable,3.5,0,0,None,Overcast
2017-02-28,12:51 PM,57.9,57.9,41,53,30.27,10,SE,6.9,0,0,None,Clear
2017-09-09,8:51 AM,57.9,57.9,48,70,30.26,10,Calm,0,0,0,None,Clear
2017-10-19,3:51 AM,57.9,57.9,45,62,30.25,10,West,5.8,0,0,None,Clear
2017-02-28,2:18 PM,57.9,57.9,45,62,30.24,10,ESE,8.1,0,0,None,Mostly Cloudy
2017-02-28,2:41 PM,57.9,57.9,48.9,72,30.23,10,Variable,5.8,0,0,None,Scattered Clouds
2017-04-30,2:51 PM,57.9,57.9,39,49,30.23,10,Variable,5.8,0,0,None,Overcast
2017-04-30,3:51 PM,57.9,57.9,39,49,30.21,10,East,9.2,16.1,0,None,Overcast
2017-04-10,8:51 AM,57.9,57.9,34,41,30.21,10,WSW,5.8,0,0,None,Clear
2017-09-02,2:51 AM,57.9,57.9,41,53,30.2,10,Variable,5.8,0,0,None,Clear
2017-09-02,3:51 AM,57.9,57.9,41,53,30.19,10,Variable,6.9,0,0,None,Clear
2017-09-02,10:22 PM,57.9,57.9,55.9,93,30.18,2,Variable,5.8,0,0.1,Rain,Light Rain
2017-09-02,9:59 PM,57.9,57.9,57,97,30.17,3,Variable,4.6,0,0.04,Rain,Light Rain
2017-09-02,10:31 PM,57.9,57.9,55.9,93,30.17,6,Variable,5.8,0,0.11,Rain,Light Rain
2017-04-18,12:51 AM,57.9,57.9,27,31,30.17,10,Variable,5.8,17.3,0,None,Clear
2017-05-30,9:51 AM,57.9,57.9,53.1,84,30.17,10,Variable,4.6,0,0,None,Overcast
2017-09-02,11:03 PM,57.9,57.9,57,97,30.16,5,Variable,5.8,0,0.01,Rain,Light Rain
2017-04-24,12:51 PM,57.9,57.9,43,58,30.16,9,East,6.9,0,0,None,Scattered Clouds
2017-09-02,9:51 PM,57.9,57.9,57,97,30.15,1.5,ESE,8.1,0,0.21,Rain,Heavy Rain
2017-11-05,3:34 PM,57.9,57.9,57,97,30.15,2,Variable,4.6,0,0.01,None,Overcast
2017-10-20,7:51 AM,57.9,57.9,46,65,30.15,8,WSW,6.9,0,0,None,Clear
2017-09-02,10:51 PM,57.9,57.9,57,97,30.14,3,East,4.6,0,0.13,Rain,Light Rain
2017-05-30,10:17 PM,57.9,57.9,57,97,30.14,2,Variable,4.6,0,0,Rain,Light Rain
2017-09-02,11:22 PM,57.9,57.9,57,97,30.14,4,East,8.1,0,0.06,Rain,Light Rain
2017-05-30,10:29 PM,57.9,57.9,57,97,30.14,3,North,0,0,0.01,None,Overcast
2017-04-24,3:51 PM,57.9,57.9,44.1,60,30.14,10,Calm,0,0,0,None,Overcast
2017-11-03,8:51 PM,57.9,57.9,41,53,30.14,10,North,9.2,19.6,0,None,Clear
2017-11-05,4:28 PM,57.9,57.9,57,97,30.14,3,ENE,3.5,0,0,None,Overcast
2017-05-30,1:51 PM,57.9,57.9,53.1,84,30.14,10,Variable,4.6,0,0,None,Overcast
2017-05-30,4:40 PM,57.9,57.9,55,90,30.14,10,Variable,4.6,0,0,None,Overcast
2017-05-30,8:25 PM,57.9,57.9,55,90,30.14,9,Variable,4.6,0,0,None,Overcast
2017-12-05,11:51 AM,57.9,57.9,52,81,30.13,9,South,9.2,16.1,0,None,Overcast
2017-10-20,6:51 AM,57.9,57.9,46,65,30.13,10,Variable,3.5,0,0,None,Clear
2017-05-30,5:51 PM,57.9,57.9,55.9,93,30.12,10,North,0,0,0,None,Overcast
2017-05-30,7:51 PM,57.9,57.9,55,90,30.12,9,Calm,0,0,0,None,Overcast
2017-05-30,10:51 PM,57.9,57.9,57,97,30.12,2,Calm,0,0,0.01,None,Overcast
2017-11-05,3:51 PM,57.9,57.9,57,97,30.12,1.2,Calm,0,0,0.01,None,Overcast
2017-05-30,6:51 PM,57.9,57.9,54,87,30.12,10,Variable,4.6,17.3,0,None,Overcast
2017-05-30,8:51 PM,57.9,57.9,55,90,30.12,7,Variable,3.5,0,0,None,Overcast
2017-05-31,12:03 AM,57.9,57.9,57,97,30.12,2.5,Variable,3.5,0,0,None,Overcast
2017-05-30,9:51 PM,57.9,57.9,57,97,30.12,5,Variable,4.6,0,0,None,Overcast
2017-04-20,12:43 PM,57.9,57.9,51.1,78,30.12,6,ENE,6.9,0,0,None,Haze
2017-05-03,8:51 PM,57.9,57.9,30,35,30.12,10,NW,8.1,0,0,None,Clear
2017-05-30,4:51 PM,57.9,57.9,55,90,30.11,10,SSE,9.2,0,0,None,Overcast
2017-04-12,6:51 AM,57.9,57.9,51.1,78,30.1,10,Calm,0,0,0,None,Clear
2017-05-30,11:51 PM,57.9,57.9,57,97,30.1,2,Calm,0,0,0.01,None,Overcast
2017-10-27,11:51 AM,57.9,57.9,35.1,42,30.1,10,Calm,0,0,0,None,Clear
2017-10-20,5:51 AM,57.9,57.9,46,65,30.1,10,Variable,3.5,0,0,None,Clear
2017-05-31,12:51 AM,57.9,57.9,57,97,30.09,2.5,Calm,0,0,0,None,Overcast
2017-10-27,6:51 PM,57.9,57.9,44.1,60,30.09,10,Calm,0,0,0,None,Clear
2017-05-29,10:51 PM,57.9,57.9,52,81,30.09,10,Variable,3.5,0,0,None,Overcast
2017-09-02,11:51 PM,57.9,57.9,57,97,30.09,8,ESE,8.1,0,0.06,None,Overcast
2017-10-27,5:51 PM,57.9,57.9,41,53,30.08,10,Calm,0,0,0,None,Clear
2017-10-27,11:51 PM,57.9,57.9,46,65,30.08,10,WSW,9.2,16.1,0,None,Clear
2017-05-31,6:44 AM,57.9,57.9,57.9,100,30.08,1.5,NE,3.5,0,0.02,None,Overcast
2017-04-12,3:51 AM,57.9,57.9,51.1,78,30.08,10,NE,4.6,0,0,None,Clear
2017-09-30,8:51 AM,57.9,57.9,48.9,72,30.08,10,Variable,5.8,0,0,None,Overcast
2017-05-22,2:07 PM,57.9,57.9,57.9,100,30.07,2.5,Calm,0,0,0.03,Rain,Rain
2017-05-31,1:51 AM,57.9,57.9,57.9,100,30.06,2.5,Calm,0,0,0,None,Overcast
2017-05-31,3:42 AM,57.9,57.9,57.9,100,30.06,3,Calm,0,0,0,None,Overcast
2017-05-31,4:42 AM,57.9,57.9,57.9,100,30.06,1.8,Calm,0,0,0,None,Overcast
2017-01-12,10:51 AM,57.9,57.9,51.1,78,30.06,10,Variable,6.9,21.9,0,None,Partly Cloudy
2017-09-29,8:51 AM,57.9,57.9,46,65,30.06,10,NNE,3.5,0,0,None,Clear
2017-05-31,6:51 AM,57.9,57.9,57.9,100,30.06,2,NE,4.6,0,0.02,None,Overcast
2017-09-01,4:51 AM,57.9,57.9,43,58,30.06,10,Variable,6.9,0,0,None,Clear
2017-05-22,1:51 PM,57.9,57.9,57,97,30.05,5,SE,4.6,0,0.04,Rain,Light Rain
2017-05-31,2:51 AM,57.9,57.9,57.9,100,30.05,2,Calm,0,0,0,None,Overcast
2017-05-31,3:51 AM,57.9,57.9,57.9,100,30.04,3,Calm,0,0,0,None,Overcast
2017-05-03,7:51 PM,57.9,57.9,30,35,30.04,10,North,10.4,17.3,0,None,Clear
2017-04-20,7:51 PM,57.9,57.9,50,75,30.04,8,South,6.9,0,0,None,Mostly Cloudy
2017-05-10,9:51 AM,57.9,57.9,36,44,30.03,10,Calm,0,0,0,None,Scattered Clouds
2017-10-16,2:51 PM,57.9,57.9,39.9,51,30.03,10,NW,8.1,0,0,None,Clear
2017-06-07,10:01 AM,57.9,57.9,48,70,30.02,10,NNE,5.8,0,0,None,Mostly Cloudy
2017-05-16,7:51 AM,57.9,57.9,46,65,30.01,10,North,0,0,0,None,Clear
2017-04-03,3:51 PM,57.9,57.9,30.9,36,30.01,10,SSE,11.5,24.2,0,None,Clear
2017-06-08,2:51 AM,57.9,57.9,50,75,30.01,10,Variable,3.5,0,0,None,Clear
2017-05-16,6:51 AM,57.9,57.9,45,62,30,10,Calm,0,0,0,None,Clear
2017-10-16,12:51 PM,57.9,57.9,41,53,30,10,Variable,4.6,19.6,0,None,Clear
2017-06-07,9:51 AM,57.9,57.9,48,70,30,10,NNW,3.5,0,0,None,Mostly Cloudy
2017-05-29,1:51 PM,57.9,57.9,54,87,29.99,10,Variable,4.6,0,0,None,Overcast
2017-06-03,3:51 AM,57.9,57.9,42.1,56,29.97,10,Calm,0,0,0,None,Clear
2017-06-03,4:51 AM,57.9,57.9,41,53,29.96,10,Calm,0,0,0,None,Clear
2017-05-23,5:20 AM,57.9,57.9,55,90,29.96,10,Variable,5.8,0,0,None,Scattered Clouds
2017-05-23,6:51 AM,57.9,57.9,54,87,29.96,10,NE,6.9,0,0,None,Clear
2017-03-09,11:51 AM,57.9,57.9,12,16,29.95,10,West,10.4,33.4,0,None,Clear
2017-05-23,3:21 AM,57.9,57.9,57,97,29.95,9,Variable,4.6,0,0,None,Scattered Clouds
2017-05-09,5:51 PM,57.9,57.9,32,37,29.95,10,NE,5.8,0,0,None,Overcast
2017-12-05,7:01 PM,57.9,57.9,55.9,93,29.94,4,North,0,0,0.01,Rain,Light Rain
2017-12-05,7:22 PM,57.9,57.9,55.9,93,29.94,2,Variable,4.6,0,0.08,Rain,Rain
2017-12-05,7:31 PM,57.9,57.9,55.9,93,29.94,1.5,Variable,5.8,0,0.12,Rain,Rain
2017-12-05,7:08 PM,57.9,57.9,55.9,93,29.94,1.8,South,6.9,0,0.03,Rain,Rain
2017-05-09,4:51 PM,57.9,57.9,30.9,36,29.94,10,Calm,0,0,0,None,Mostly Cloudy
2017-02-19,8:51 PM,57.9,57.9,30,35,29.94,10,North,5.8,0,0,None,Clear
2017-12-05,7:56 PM,57.9,57.9,57,97,29.93,1.8,North,0,0,0,Rain,Rain
2017-12-05,8:05 PM,57.9,57.9,57,97,29.93,1.8,Variable,4.6,0,0.03,Rain,Rain
2017-05-23,3:51 AM,57.9,57.9,55.9,93,29.93,8,Calm,0,0,0,None,Clear
2017-03-08,1:51 PM,57.9,57.9,21,24,29.93,10,Variable,5.8,0,0,None,Clear
2017-12-05,6:51 PM,57.9,57.9,55.9,93,29.92,5,Variable,4.6,0,0,Rain,Light Rain
2017-02-24,5:51 AM,57.9,57.9,52,81,29.92,10,Variable,6.9,0,0,None,Clear
2017-04-27,9:33 PM,57.9,57.9,57,97,29.92,3,SSE,8.1,0,0,None,Overcast
2017-12-05,8:34 PM,57.9,57.9,57,97,29.91,2.5,North,0,0,0.12,Rain,Rain
2017-12-05,7:51 PM,57.9,57.9,57,97,29.91,2,Calm,0,0,0.26,Rain,Light Rain
2017-12-05,9:17 PM,57.9,57.9,55.9,93,29.91,2.5,WSW,9.2,17.3,0.12,Rain,Rain
2017-12-05,8:43 PM,57.9,57.9,57,97,29.91,1.2,WSW,8.1,0,0.18,Rain,Heavy Rain
2017-03-09,4:51 PM,57.9,57.9,16,19,29.91,10,Calm,0,0,0,None,Clear
2017-05-28,5:51 AM,57.9,57.9,57,97,29.91,5,Calm,0,0,0,None,Mostly Cloudy
2017-04-27,9:24 PM,57.9,57.9,57,97,29.91,2.5,Variable,4.6,0,0,None,Overcast
2017-12-05,9:30 PM,57.9,57.9,55.9,93,29.9,4,Variable,5.8,0,0.14,Rain,Light Rain
2017-04-27,6:21 AM,57.9,57.9,57.9,100,29.9,1.5,Calm,0,0,0,None,Overcast
2017-03-08,4:51 PM,57.9,57.9,21,24,29.9,10,Variable,4.6,21.9,0,None,Partly Cloudy
2017-03-08,3:51 PM,57.9,57.9,21.9,25,29.9,10,Variable,5.8,23,0,None,Scattered Clouds
2017-12-05,8:51 PM,57.9,57.9,57,97,29.89,1.5,WSW,8.1,0,0.23,Rain,Heavy Rain
2017-03-08,6:51 PM,57.9,57.9,21,24,29.89,10,Variable,4.6,0,0,None,Clear
2017-03-08,7:51 PM,57.9,57.9,21,24,29.89,10,SW,9.2,0,0,None,Clear
2017-04-27,1:32 AM,57.9,57.9,57.9,100,29.88,2,Calm,0,0,0,None,Overcast
2017-04-27,3:37 AM,57.9,57.9,57.9,100,29.88,1.5,Calm,0,0,0,None,Overcast
2017-12-05,10:11 PM,57.9,57.9,55,90,29.87,6,Variable,5.8,18.4,0.02,Rain,Light Rain
2017-04-27,1:08 AM,57.9,57.9,57.9,100,29.87,0.8,Calm,0,0,0,None,Overcast
2017-04-27,1:18 AM,57.9,57.9,57.9,100,29.87,1,Calm,0,0,0,None,Overcast
2017-04-27,1:43 AM,57.9,57.9,57.9,100,29.87,3,Calm,0,0,0,None,Overcast
2017-04-27,3:20 AM,57.9,57.9,57.9,100,29.87,3,Calm,0,0,0,None,Overcast
2017-04-27,3:30 AM,57.9,57.9,57.9,100,29.87,2,Calm,0,0,0,None,Overcast
2017-05-29,3:51 AM,57.9,57.9,54,87,29.87,10,ENE,6.9,0,0.01,None,Overcast
2017-12-05,9:51 PM,57.9,57.9,55.9,93,29.86,5,Variable,5.8,20.7,0.16,Rain,Light Rain
2017-04-27,1:51 AM,57.9,57.9,57.9,100,29.85,2,Calm,0,0,0,None,Overcast
2017-12-05,11:18 PM,57.9,57.9,55.9,93,29.85,10,Variable,5.8,0,0.02,None,Overcast
2017-12-05,10:51 PM,57.9,57.9,55.9,93,29.84,4,North,0,0,0.08,Rain,Rain
2017-05-03,6:51 AM,57.9,57.9,37,46,29.84,10,WNW,6.9,20.7,0,None,Partly Cloudy
2017-02-19,9:51 AM,57.9,57.9,36,44,29.81,10,West,6.9,0,0,None,Clear
2017-06-05,2:51 AM,57.9,57.9,57.9,100,29.8,1.8,Calm,0,0,0,Rain,Light Rain
2017-06-05,3:34 AM,57.9,57.9,57,97,29.8,4,Variable,4.6,0,0.01,None,Overcast
2017-06-05,3:23 AM,57.9,57.9,57,97,29.8,5,SE,5.8,0,0.01,None,Overcast
2017-12-05,11:51 PM,57.9,57.9,55.9,93,29.8,10,WSW,6.9,0,0.02,None,Overcast
2017-03-01,7:28 AM,57.9,57.9,55,90,29.79,9,Variable,6.9,21.9,0,None,Overcast
2017-04-26,3:44 PM,57.9,57.9,57,97,29.79,1.5,East,6.9,0,0,None,Overcast
2017-03-01,6:51 AM,57.9,57.9,55,90,29.78,10,WSW,10.4,17.3,0,None,Overcast
2017-05-25,3:13 AM,57.9,57.9,52,81,29.78,10,East,9.2,0,0,None,Overcast
2017-05-25,2:51 AM,57.9,57.9,52,81,29.77,10,Variable,5.8,17.3,0,None,Overcast
2017-04-26,3:51 PM,57.9,57.9,57,97,29.77,1.5,ENE,6.9,0,0,None,Overcast
2017-04-26,12:51 PM,57.9,57.9,55.9,93,29.77,10,East,9.2,0,0,None,Overcast
2017-06-05,3:51 AM,57.9,57.9,57,97,29.76,4,ENE,4.6,0,0.01,Rain,Light Rain
2017-03-01,7:51 AM,57.9,57.9,55,90,29.76,9,North,0,0,0,None,Overcast
2017-06-06,1:06 AM,57.9,57.9,55.9,93,29.74,6,East,8.1,23,0,None,Overcast
2017-05-24,7:51 AM,57.9,57.9,55,90,29.74,9,ENE,3.5,0,0,None,Overcast
2017-10-25,8:51 AM,57.9,57.9,48.9,72,29.74,10,West,4.6,0,0,None,Clear
2017-06-06,12:51 AM,57.9,57.9,57,97,29.73,4,ENE,13.8,20.7,0,None,Overcast
2017-03-01,8:51 AM,57.9,57.9,55,90,29.73,7,SW,9.2,0,0,None,Overcast
2017-05-15,9:51 AM,57.9,57.9,41,53,29.72,10,WNW,13.8,33.4,0,None,Overcast
2017-05-15,8:51 AM,57.9,57.9,44.1,60,29.71,10,NW,10.4,25.3,0,None,Mostly Cloudy
2017-03-01,11:37 AM,57.9,57.9,57,97,29.69,2,Variable,4.6,0,0.11,Rain,Light Rain
2017-10-26,12:51 AM,57.9,57.9,37.9,47,29.67,10,WNW,9.2,0,0,None,Overcast
2017-05-05,5:08 PM,57.9,57.9,57,97,29.63,2.5,Calm,0,0,0,None,Overcast
2017-05-05,5:01 PM,57.9,57.9,57.9,100,29.61,2.5,ENE,3.5,0,0,None,Overcast
2017-05-05,5:40 PM,57.9,57.9,57.9,100,29.61,3,ENE,6.9,0,0,None,Overcast
2017-05-25,3:13 PM,57.9,57.9,57,97,29.6,2,Variable,4.6,0,0,Rain,Light Rain
2017-05-25,4:18 PM,57.9,57.9,57,97,29.59,2.5,East,8.1,18.4,0,None,Overcast
2017-05-05,4:51 PM,57.9,57.9,57,97,29.59,3,ENE,4.6,0,0.01,None,Overcast
2017-05-05,6:15 PM,57.9,57.9,57,97,29.59,1.5,ENE,5.8,0,0,None,Overcast
2017-05-25,4:29 PM,57.9,57.9,57,97,29.58,3,East,9.2,20.7,0,None,Overcast
2017-05-25,4:43 PM,57.9,57.9,57,97,29.57,4,ENE,13.8,19.6,0,None,Overcast
2017-05-05,5:51 PM,57.9,57.9,57.9,100,29.57,2.5,ENE,8.1,0,0,None,Overcast
2017-05-25,5:31 PM,57.9,57.9,57,97,29.57,6,ENE,9.2,0,0,None,Overcast
2017-05-25,6:51 PM,57.9,57.9,57,97,29.54,1,ENE,3.5,0,0,None,Overcast
2017-05-05,10:51 PM,57.9,57.9,57.9,100,29.54,4,Variable,4.6,0,0.01,None,Overcast
2017-05-25,4:51 PM,57.9,57.9,57,97,29.53,4,ENE,10.4,19.6,0,None,Overcast
2017-05-05,11:51 PM,57.9,57.9,57,97,29.52,4,Variable,5.8,18.4,0,None,Overcast
2017-05-06,2:32 AM,57.9,57.9,57.9,100,29.48,1.8,Variable,3.5,0,0.04,None,Overcast
2017-05-06,2:44 AM,57.9,57.9,57.9,100,29.47,3,North,0,0,0.11,Rain,Light Rain
2017-05-06,7:44 AM,57.9,57.9,57,97,29.43,2,Variable,5.8,0,0,None,Overcast
2017-05-06,8:31 AM,57.9,57.9,57,97,29.43,3,Variable,5.8,0,0,None,Overcast
2017-05-06,5:44 AM,57.9,57.9,57.9,100,29.42,3,Variable,5.8,0,0,None,Overcast
2017-05-06,9:51 AM,57.9,57.9,54,87,29.41,7,Variable,5.8,0,0,None,Clear
2017-05-06,7:51 AM,57.9,57.9,57,97,29.41,2,SSE,9.2,0,0,None,Overcast
2017-05-06,5:51 AM,57.9,57.9,57.9,100,29.39,3,SSE,9.2,16.1,0,None,Overcast
2017-10-03,7:51 AM,59,59,53.1,81,30.6,9,Variable,4.6,0,0,None,Clear
2017-10-03,9:51 PM,59,59,46.9,64,30.56,10,Variable,3.5,0,0,None,Clear
2017-10-03,10:51 PM,59,59,46.9,64,30.56,10,Variable,4.6,0,0,None,Clear
2017-10-03,11:51 PM,59,59,48,67,30.55,10,Calm,0,0,0,None,Clear
2017-10-03,3:51 AM,59,59,48.9,69,30.54,10,ESE,3.5,0,0,None,Clear
2017-10-03,1:51 AM,59,59,48.9,69,30.53,10,Calm,0,0,0,None,Clear
2017-10-03,2:51 AM,59,59,48,67,30.53,10,Calm,0,0,0,None,Clear
2017-10-13,10:43 AM,59,59,50,72,30.47,10,ENE,8.1,0,0,None,Scattered Clouds
2017-10-12,8:51 PM,59,59,44.1,58,30.39,10,SE,6.9,0,0,None,Scattered Clouds
2017-10-22,5:51 AM,59,59,48,67,30.37,10,Calm,0,0,0,None,Clear
2017-09-10,7:51 AM,59,59,50,72,30.36,10,North,8.1,0,0,None,Clear
2017-04-13,8:51 PM,59,59,25,27,30.35,10,Variable,3.5,0,0,None,Partly Cloudy
2017-04-14,6:51 PM,59,59,30,33,30.34,10,North,0,0,0,None,Clear
2017-09-11,3:51 AM,59,59,50,72,30.32,10,West,3.5,0,0,None,Clear
2017-10-18,10:51 AM,59,59,39.9,49,30.32,7,Variable,4.6,0,0,None,Clear
2017-10-01,11:51 PM,59,59,41,51,30.31,10,Calm,0,0,0,None,Clear
2017-09-09,10:51 PM,59,59,48.9,69,30.3,10,Calm,0,0,0,None,Clear
2017-09-10,12:51 AM,59,59,50,72,30.3,10,Calm,0,0,0,None,Mostly Cloudy
2017-09-09,11:51 PM,59,59,48.9,69,30.3,10,NNW,3.5,0,0,None,Mostly Cloudy
2017-09-10,1:51 AM,59,59,51.1,75,30.3,10,Variable,3.5,0,0,None,Clear
2017-11-02,12:59 AM,59,59,52,78,30.29,10,ENE,4.6,0,0,None,Overcast
2017-10-12,4:48 AM,59,59,55.4,88,30.27,9,ENE,6.9,18.4,0.01,Rain,Light Rain
2017-05-04,10:51 AM,59,59,33.1,38,30.27,10,Variable,3.5,0,0,None,Clear
2017-11-02,12:51 AM,59,59,52,78,30.27,10,NE,4.6,0,0,None,Overcast
2017-10-12,5:51 AM,59,59,55.9,90,30.26,8,East,10.4,17.3,0.01,Rain,Light Rain
2017-10-21,3:51 AM,59,59,37,44,30.26,10,West,3.5,0,0,None,Clear
2017-11-02,1:51 AM,59,59,53.1,81,30.26,10,ENE,4.6,0,0,None,Overcast
2017-10-12,4:51 AM,59,59,55.9,90,30.25,9,East,8.1,18.4,0.01,Rain,Light Rain
2017-11-02,2:51 AM,59,59,54,83,30.25,10,East,3.5,0,0,None,Overcast
2017-10-19,8:51 AM,59,59,45,60,30.25,10,Variable,4.6,0,0,None,Clear
2017-09-30,5:51 PM,59,59,48,67,30.25,10,NE,8.1,0,0,None,Overcast
2017-04-30,9:51 AM,59,59,37.9,46,30.24,10,ENE,8.1,16.1,0,None,Mostly Cloudy
2017-04-30,1:51 PM,59,59,39.9,49,30.24,10,SSE,11.5,0,0,None,Overcast
2017-05-20,7:51 AM,59,59,39.9,49,30.23,10,NE,12.7,21.9,0,None,Mostly Cloudy
2017-04-30,7:51 AM,59,59,37.9,46,30.23,10,NE,6.9,0,0,None,Overcast
2017-04-30,6:51 AM,59,59,37,44,30.21,10,ENE,10.4,19.6,0,None,Overcast
2017-09-09,1:51 AM,59,59,48.9,69,30.19,10,Variable,4.6,0,0,None,Clear
2017-09-02,9:22 PM,59,59,57,93,30.18,2.5,Calm,0,0,0.05,Rain,Heavy Rain
2017-09-02,9:48 PM,59,59,57.2,94,30.17,2,SE,4.6,0,0.18,Rain,Rain
2017-09-02,10:09 PM,59,59,57,93,30.17,6,Variable,4.6,0,0.05,Rain,Light Rain
2017-05-30,11:51 AM,59,59,53.1,81,30.17,10,Calm,0,0,0,None,Overcast
2017-04-24,11:51 AM,59,59,42.1,53,30.17,10,Variable,3.5,0,0,None,Clear
2017-05-30,10:51 AM,59,59,53.1,81,30.16,10,Variable,4.6,0,0,None,Overcast
2017-05-30,12:51 PM,59,59,54,83,30.16,10,Variable,4.6,0,0,None,Overcast
2017-04-17,11:51 PM,59,59,27,29,30.16,10,NNW,10.4,0,0,None,Clear
2017-09-02,11:17 PM,59,59,57,93,30.15,2,Variable,4.6,0,0.05,Rain,Light Rain
2017-09-02,8:51 PM,59,59,55.9,90,30.15,7,ESE,6.9,0,0.06,Rain,Light Rain
2017-04-24,4:51 PM,59,59,45,60,30.14,10,Variable,3.5,0,0,None,Overcast
2017-04-24,5:51 PM,59,59,42.1,53,30.14,10,Variable,5.8,0,0,None,Mostly Cloudy
2017-09-03,12:03 AM,59,59,57,93,30.12,5,Variable,4.6,0,0,Rain,Light Rain
2017-10-27,12:08 PM,59,59,34,39,30.12,9,Calm,0,0,0,None,Partly Cloudy
2017-10-27,12:02 PM,59,59,34,39,30.12,1.5,Variable,3.5,0,0,None,Haze
2017-12-05,12:33 PM,59,59,53.1,81,30.11,9,North,0,0,0,None,Overcast
2017-04-03,10:51 AM,59,59,30.9,35,30.11,10,Calm,0,0,0,None,Clear
2017-11-05,4:51 PM,59,59,57.9,96,30.11,5,Variable,3.5,0,0,None,Overcast
2017-04-12,5:51 AM,59,59,51.1,75,30.1,10,NE,3.5,0,0,None,Clear
2017-09-03,12:51 AM,59,59,57.9,96,30.09,4,Variable,3.5,0,0.03,Rain,Light Rain
2017-10-20,4:51 AM,59,59,46,62,30.09,10,Calm,0,0,0,None,Clear
2017-04-12,4:51 AM,59,59,51.1,75,30.09,10,ENE,3.5,0,0,None,Clear
2017-09-03,1:12 AM,59,59,57,93,30.09,6,Variable,5.8,0,0.01,None,Overcast
2017-04-20,12:51 PM,59,59,51.1,75,30.09,7,NE,6.9,0,0,None,Overcast
2017-05-31,7:32 AM,59,59,57.9,96,30.08,4,Variable,3.5,0,0.01,None,Overcast
2017-09-08,6:51 AM,59,59,52,78,30.08,10,Variable,3.5,0,0,None,Clear
2017-09-03,1:38 AM,59,59,57.9,96,30.08,9,Variable,5.8,0,0.01,None,Overcast
2017-12-05,12:51 PM,59,59,53.1,81,30.07,9,South,8.1,16.1,0,None,Mostly Cloudy
2017-05-22,2:22 PM,59,59,57.9,96,30.06,4,Calm,0,0,0.04,Rain,Light Rain
2017-09-08,5:51 AM,59,59,51.1,75,30.06,10,North,0,0,0,None,Clear
2017-10-28,8:51 AM,59,59,48,67,30.06,10,North,0,0,0,None,Clear
2017-05-31,4:28 AM,59,59,57.9,96,30.06,2.5,Calm,0,0,0,None,Overcast
2017-05-22,2:40 PM,59,59,57.9,96,30.05,2.5,Calm,0,0,0.05,Rain,Light Rain
2017-05-31,5:51 AM,59,59,57.9,96,30.05,1.5,Variable,3.5,0,0,None,Overcast
2017-05-31,7:51 AM,59,59,57.9,96,30.05,5,Variable,4.6,0,0.01,None,Overcast
2017-05-22,3:09 PM,59,59,59,100,30.04,1.2,Variable,4.6,0,0.05,Rain,Rain
2017-05-22,2:58 PM,59,59,57.9,96,30.04,2.5,Variable,5.8,0,0.01,Rain,Light Rain
2017-09-03,1:51 AM,59,59,57,93,30.04,8,Variable,6.9,0,0.01,None,Overcast
2017-09-03,3:59 AM,59,59,57.9,96,30.03,1.8,Calm,0,0,0.03,Rain,Light Rain
2017-09-03,4:07 AM,59,59,57.9,96,30.03,2,ENE,5.8,0,0.05,Rain,Rain
2017-09-03,4:25 AM,59,59,57.9,96,30.03,4,ENE,6.9,0,0.07,Rain,Light Rain
2017-09-03,3:17 AM,59,59,57.9,96,30.03,1.5,ENE,8.1,0,0.05,Rain,Heavy Rain
2017-05-12,2:51 PM,59,59,42.1,53,30.03,10,Variable,3.5,0,0,None,Scattered Clouds
2017-05-31,4:51 AM,59,59,57.9,96,30.03,2,Variable,4.6,0,0,None,Overcast
2017-05-22,4:07 PM,59,59,59,100,30.02,1.8,Calm,0,0,0.03,Rain,Light Rain
2017-05-22,4:17 PM,59,59,59,100,30.02,2,Calm,0,0,0.05,Rain,Light Rain
2017-05-22,2:51 PM,59,59,57.9,96,30.02,1.8,Variable,3.5,0,0.08,Rain,Light Rain
2017-05-10,10:51 AM,59,59,37.9,46,30.02,10,Variable,3.5,0,0,None,Clear
2017-05-22,3:51 PM,59,59,57.9,96,30.01,2,Calm,0,0,0.14,Rain,Light Rain
2017-09-03,3:51 AM,59,59,57.9,96,30.01,0.8,Calm,0,0,0.51,Rain,Heavy Rain
2017-09-03,2:51 AM,59,59,57.9,96,30.01,4,East,8.1,0,0,Rain,Light Rain
2017-06-04,3:51 AM,59,59,39.9,49,30.01,10,Calm,0,0,0,None,Clear
2017-09-30,3:51 AM,59,59,48.9,69,30.01,10,Calm,0,0,0,None,Clear
2017-06-08,6:51 AM,59,59,52,78,30.01,10,ENE,3.5,0,0,None,Clear
2017-06-08,1:51 AM,59,59,48.9,69,30.01,10,West,3.5,0,0,None,Clear
2017-05-22,4:32 PM,59,59,59,100,30.01,5,Variable,4.6,0,0.06,None,Overcast
2017-05-22,5:18 PM,59,59,59,100,30,3,North,0,0,0.02,Rain,Light Rain
2017-09-30,2:51 AM,59,59,50,72,30,10,Calm,0,0,0,None,Scattered Clouds
2017-09-29,1:51 AM,59,59,44.1,58,30,10,Variable,3.5,0,0,None,Clear
2017-05-22,4:51 PM,59,59,59,100,29.98,2,North,0,0,0.06,Rain,Light Rain
2017-06-02,4:51 AM,59,59,44.1,58,29.98,10,Calm,0,0,0,None,Clear
2017-06-03,9:51 AM,59,59,48.9,69,29.98,10,West,8.1,18.4,0,None,Mostly Cloudy
2017-05-11,4:51 PM,59,59,39.9,49,29.98,10,Variable,5.8,0,0,None,Clear
2017-09-03,4:51 AM,59,59,57.9,96,29.98,5,Variable,5.8,0,0.08,None,Overcast
2017-06-03,1:51 AM,59,59,39,48,29.97,10,Calm,0,0,0,None,Clear
2017-06-03,2:51 AM,59,59,39.9,49,29.97,10,West,3.5,0,0,None,Clear
2017-05-01,11:51 AM,59,59,51.1,75,29.96,5,ENE,5.8,0,0,None,Haze
2017-05-23,7:51 AM,59,59,51.1,75,29.96,10,ENE,6.9,0,0,None,Clear
2017-05-09,12:51 PM,59,59,28,31,29.96,10,Variable,6.9,0,0,None,Partly Cloudy
2017-06-01,5:51 AM,59,59,57,93,29.95,9,Calm,0,0,0,None,Clear
2017-05-23,3:14 AM,59,59,57,93,29.95,10,NNE,3.5,0,0,None,Mostly Cloudy
2017-05-23,1:51 AM,59,59,57,93,29.95,8,Variable,3.5,0,0,None,Overcast
2017-05-28,7:00 AM,59,59,57,93,29.95,3,East,4.6,0,0,None,Overcast
2017-05-23,4:10 AM,59,59,57,93,29.95,10,NE,4.6,0,0,None,Mostly Cloudy
2017-05-16,3:51 AM,59,59,44.1,58,29.95,10,West,5.8,0,0,None,Clear
2017-06-01,4:51 AM,59,59,57,93,29.94,10,Calm,0,0,0,None,Partly Cloudy
2017-05-23,4:51 AM,59,59,57,93,29.94,9,North,6.9,0,0,None,Overcast
2017-05-16,1:51 AM,59,59,44.1,58,29.93,10,Calm,0,0,0,None,Clear
2017-05-28,5:39 AM,59,59,55.9,90,29.93,6,ENE,3.5,0,0,None,Partly Cloudy
2017-05-23,2:51 AM,59,59,57,93,29.93,9,Variable,4.6,0,0,None,Overcast
2017-05-28,6:51 AM,59,59,57,93,29.93,3,East,5.8,0,0,None,Overcast
2017-02-24,6:51 AM,59,59,52,78,29.92,10,Calm,0,0,0,None,Clear
2017-04-27,7:01 AM,59,59,57.9,96,29.92,1.2,Calm,0,0,0,None,Overcast
2017-03-09,12:51 PM,59,59,14,17,29.92,10,WNW,10.4,27.6,0,None,Clear
2017-10-16,7:51 AM,59,59,46,62,29.92,10,Variable,4.6,0,0,None,Partly Cloudy
2017-02-24,4:51 AM,59,59,52,78,29.92,10,WSW,8.1,0,0,None,Clear
2017-02-24,3:51 AM,59,59,51.1,75,29.91,10,North,0,0,0,None,Clear
2017-04-27,7:51 AM,59,59,59,100,29.91,1.2,Calm,0,0,0,None,Overcast
2017-05-28,4:51 AM,59,59,57,93,29.91,7,NE,4.6,0,0,None,Overcast
2017-04-27,6:14 AM,59,59,57.9,96,29.9,2,Calm,0,0,0,None,Overcast
2017-04-27,6:32 AM,59,59,57.9,96,29.9,2,Calm,0,0,0,None,Overcast
2017-04-27,5:32 AM,59,59,57.9,96,29.89,1.8,Calm,0,0,0,None,Overcast
2017-04-27,6:51 AM,59,59,57.9,96,29.89,2.5,Calm,0,0,0,None,Overcast
2017-05-28,3:51 AM,59,59,57,93,29.89,7,East,3.5,0,0,None,Clear
2017-04-27,4:15 AM,59,59,57.9,96,29.88,2,Calm,0,0,0,None,Overcast
2017-04-27,4:24 AM,59,59,57.9,96,29.88,1.8,Calm,0,0,0,None,Overcast
2017-04-27,5:08 AM,59,59,57.9,96,29.88,1.5,Calm,0,0,0,None,Overcast
2017-05-03,10:51 AM,59,59,34,39,29.88,10,WNW,9.2,17.3,0,None,Overcast
2017-05-03,9:51 AM,59,59,37.9,46,29.88,10,WNW,8.1,19.6,0,None,Scattered Clouds
2017-04-27,8:51 PM,59,59,57.9,96,29.88,4,Variable,6.9,0,0,None,Overcast
2017-04-26,11:34 PM,59,59,57.9,96,29.87,2,Calm,0,0,0,None,Overcast
2017-04-26,11:42 PM,59,59,57.9,96,29.87,1.8,Calm,0,0,0,None,Overcast
2017-04-27,2:12 AM,59,59,57.9,96,29.87,2.5,Calm,0,0,0,None,Overcast
2017-04-27,2:49 AM,59,59,57.2,94,29.87,2,Calm,0,0,0,None,Overcast
2017-04-27,3:08 AM,59,59,57.9,96,29.87,2,Calm,0,0,0,None,Overcast
2017-04-27,4:01 AM,59,59,57.9,96,29.87,1.5,Calm,0,0,0,None,Overcast
2017-09-07,6:51 AM,59,59,57.9,96,29.87,10,Variable,4.6,0,0,None,Mostly Cloudy
2017-04-27,4:51 AM,59,59,57.9,96,29.86,2,Calm,0,0,0,None,Overcast
2017-04-27,5:51 AM,59,59,57.9,96,29.86,1.5,Calm,0,0,0,None,Overcast
2017-04-26,9:17 PM,59,59,57.9,96,29.85,5,Calm,0,0,0,None,Overcast
2017-04-27,12:51 AM,59,59,57.9,96,29.85,1,Calm,0,0,0,None,Overcast
2017-04-27,2:51 AM,59,59,57.9,96,29.85,2,Calm,0,0,0,None,Overcast
2017-04-27,3:51 AM,59,59,57.9,96,29.85,2,Calm,0,0,0,None,Overcast
2017-05-03,7:51 AM,59,59,37,44,29.85,10,West,8.1,21.9,0,None,Clear
2017-04-26,9:47 PM,59,59,57.2,94,29.85,5,SE,3.5,0,0,None,Overcast
2017-05-27,4:51 AM,59,59,54,83,29.85,10,West,4.6,0,0,None,Partly Cloudy
2017-04-26,10:51 PM,59,59,57.9,96,29.84,6,Calm,0,0,0,None,Overcast
2017-04-26,11:51 PM,59,59,57.9,96,29.84,1.5,Calm,0,0,0,None,Overcast
2017-06-05,12:51 AM,59,59,57,93,29.83,3,ENE,4.6,0,0.06,Rain,Light Rain
2017-04-26,8:43 PM,59,59,57.9,96,29.83,5,Calm,0,0,0,None,Overcast
2017-04-26,9:51 PM,59,59,57.9,96,29.83,5,Calm,0,0,0,None,Overcast
2017-06-05,2:48 AM,59,59,57.2,94,29.83,2,Calm,0,0,0,None,Scattered Clouds
2017-06-05,2:01 AM,59,59,57.9,96,29.83,3,NNE,4.6,0,0,None,Mostly Cloudy
2017-04-26,7:06 PM,59,59,57,93,29.82,4,Calm,0,0,0,None,Overcast
2017-05-03,5:51 AM,59,59,37,44,29.82,10,West,8.1,17.3,0,None,Scattered Clouds
2017-05-24,11:51 PM,59,59,51.1,75,29.82,10,Variable,3.5,0,0,None,Clear
2017-06-05,3:05 AM,59,59,57.9,96,29.81,3,East,3.5,0,0,Rain,Light Rain
2017-04-26,8:51 PM,59,59,57.9,96,29.81,5,Calm,0,0,0,None,Overcast
2017-05-25,12:51 AM,59,59,52,78,29.81,10,East,5.8,0,0,None,Partly Cloudy
2017-05-25,2:08 AM,59,59,52,78,29.81,10,ENE,5.8,0,0,None,Overcast
2017-04-26,6:51 PM,59,59,57,93,29.8,5,Calm,0,0,0,None,Overcast
2017-06-05,1:51 AM,59,59,57,93,29.8,6,Calm,0,0,0.02,None,Mostly Cloudy
2017-04-26,7:51 PM,59,59,57.9,96,29.8,5,ENE,3.5,0,0,None,Overcast
2017-04-26,4:15 PM,59,59,57,93,29.79,2,ENE,5.8,0,0,None,Overcast
2017-05-25,1:51 AM,59,59,51.1,75,29.79,10,ENE,6.9,0,0,None,Overcast
2017-04-26,3:19 PM,59,59,57,93,29.79,2,ESE,6.9,0,0,None,Overcast
2017-04-26,5:51 PM,59,59,57,93,29.78,5,Calm,0,0,0,None,Overcast
2017-06-05,5:12 AM,59,59,57.9,96,29.78,2,Calm,0,0,0,None,Overcast
2017-06-05,6:25 AM,59,59,59,100,29.78,1.2,Calm,0,0,0,None,Mostly Cloudy
2017-04-26,2:51 PM,59,59,55.9,90,29.78,6,ENE,3.5,0,0,None,Overcast
2017-06-05,4:25 AM,59,59,57.9,96,29.78,2.5,ENE,3.5,0,0,None,Overcast
2017-06-05,5:33 AM,59,59,57.2,94,29.78,2,Variable,3.5,0,0,None,Overcast
2017-04-26,4:37 PM,59,59,57,93,29.78,3,ENE,4.6,0,0,None,Overcast
2017-04-26,1:51 PM,59,59,55.9,90,29.78,10,ENE,10.4,0,0,None,Overcast
2017-06-05,5:23 AM,59,59,57.9,96,29.77,4,Calm,0,0,0,None,Overcast
2017-06-05,5:43 AM,59,59,57.9,96,29.77,4,Calm,0,0,0,None,Overcast
2017-06-05,4:39 AM,59,59,57.9,96,29.77,4,East,4.6,0,0,None,Overcast
2017-04-26,4:51 PM,59,59,57,93,29.76,4,Variable,4.6,0,0,None,Overcast
2017-06-06,12:26 AM,59,59,57,93,29.76,4,East,12.7,0,0,None,Overcast
2017-06-05,5:51 AM,59,59,57.9,96,29.75,2.5,NNE,3.5,0,0,None,Overcast
2017-05-24,8:51 AM,59,59,55,87,29.75,10,ENE,4.6,0,0,None,Overcast
2017-06-09,6:51 AM,59,59,46.9,64,29.75,10,Variable,4.6,0,0,None,Clear
2017-06-09,7:51 AM,59,59,46,62,29.75,10,Variable,4.6,0,0,None,Clear
2017-06-05,4:51 AM,59,59,57.9,96,29.75,4,NE,5.8,0,0,None,Overcast
2017-10-25,7:51 AM,59,59,51.1,75,29.74,10,Calm,0,0,0,None,Clear
2017-10-25,9:51 AM,59,59,48,67,29.74,10,Calm,0,0,0,None,Mostly Cloudy
2017-05-24,4:51 AM,59,59,50,72,29.73,10,Variable,3.5,0,0,Rain,Light Rain
2017-10-25,6:51 AM,59,59,53.1,81,29.73,10,Calm,0,0,0,None,Clear
2017-03-01,9:14 AM,59,59,55,87,29.73,8,WSW,9.2,17.3,0,None,Overcast
2017-05-15,10:51 AM,59,59,41,51,29.73,10,Variable,6.9,27.6,0,None,Overcast
2017-03-01,11:05 AM,59,59,55.9,90,29.72,1.8,Calm,0,0,0.01,Rain,Light Rain
2017-03-01,11:21 AM,59,59,57,93,29.71,3,Variable,3.5,0,0.06,Rain,Light Rain
2017-03-01,10:51 AM,59,59,55.9,90,29.7,6,Calm,0,0,0,None,Overcast
2017-03-01,9:51 AM,59,59,55,87,29.7,7,Variable,4.6,0,0,None,Overcast
2017-03-01,11:48 AM,59,59,57.2,94,29.69,4,WSW,6.9,17.3,0.11,Rain,Light Rain
2017-10-25,11:51 PM,59,59,37.9,46,29.68,10,Calm,0,0,0,None,Overcast
2017-02-19,1:51 AM,59,59,30.9,35,29.68,10,West,6.9,0,0,None,Clear
2017-02-19,12:51 AM,59,59,30.9,35,29.67,10,Variable,5.8,0,0,None,Clear
2017-03-01,11:51 AM,59,59,57,93,29.66,3,West,4.6,17.3,0.11,Rain,Light Rain
2017-05-05,7:21 PM,59,59,59,100,29.61,5,North,0,0,0,None,Overcast
2017-05-26,9:00 AM,59,59,57,93,29.61,10,Calm,0,0,0,None,Overcast
2017-05-26,9:14 AM,59,59,57,93,29.61,10,WNW,5.8,0,0,None,Mostly Cloudy
2017-05-05,7:00 PM,59,59,57.9,96,29.6,1.5,Variable,3.5,0,0,None,Overcast
2017-05-05,7:14 PM,59,59,57.9,96,29.6,2.5,Variable,5.8,0,0,None,Overcast
2017-05-26,8:51 AM,59,59,57,93,29.59,10,Variable,4.6,0,0,None,Overcast
2017-05-05,6:51 PM,59,59,57.9,96,29.58,1.2,East,3.5,0,0,None,Overcast
2017-05-05,7:51 PM,59,59,57.9,96,29.57,5,Variable,4.6,0,0,None,Overcast
2017-05-05,10:26 PM,59,59,57.9,96,29.56,2.5,SSE,5.8,0,0,None,Overcast
2017-05-05,8:51 PM,59,59,57.9,96,29.55,5,Calm,0,0,0,None,Overcast
2017-05-05,9:51 PM,59,59,57.9,96,29.54,6,SE,3.5,0,0,None,Overcast
2017-05-06,3:00 AM,59,59,59,100,29.46,3,South,11.5,20.7,0.03,Rain,Light Rain
2017-05-06,3:17 AM,59,59,59,100,29.45,2,North,0,0,0.03,None,Overcast
2017-05-06,2:51 AM,59,59,59,100,29.44,1.5,North,0,0,0.15,Rain,Rain
2017-05-06,8:59 AM,59,59,57.9,96,29.43,4,Variable,4.6,0,0,None,Mostly Cloudy
2017-05-06,8:13 PM,59,59,53.1,81,29.42,8,WSW,6.9,0,0,Rain,Light Rain
2017-05-06,3:51 AM,59,59,59,100,29.42,3,South,8.1,0,0.03,None,Overcast
2017-05-06,8:51 AM,59,59,57.9,96,29.4,4,SSE,8.1,0,0,None,Mostly Cloudy
2017-05-06,4:51 AM,59,59,59,100,29.4,2,South,10.4,0,0,None,Overcast
2017-10-03,7:51 PM,60.1,60.1,46.9,62,30.58,10,Variable,3.5,0,0,None,Clear
2017-10-03,8:51 PM,60.1,60.1,48.9,67,30.57,10,South,4.6,0,0,None,Clear
2017-10-02,11:51 PM,60.1,60.1,51.1,72,30.51,10,Calm,0,0,0,None,Clear
2017-10-04,8:51 AM,60.1,60.1,52,75,30.45,10,West,6.9,0,0,None,Clear
2017-10-13,10:51 AM,60.1,60.1,50,69,30.45,10,ENE,8.1,0,0,None,Mostly Cloudy
2017-10-01,10:51 AM,60.1,60.1,43,53,30.4,10,Variable,4.6,0,0,None,Clear
2017-10-12,11:35 AM,60.1,60.1,51.1,72,30.39,10,East,8.1,21.9,0,None,Overcast
2017-10-12,11:59 AM,60.1,60.1,50,69,30.39,10,ENE,15,25.3,0,None,Mostly Cloudy
2017-05-21,8:51 AM,60.1,60.1,41,49,30.38,10,Variable,3.5,0,0,None,Clear
2017-04-15,10:51 AM,60.1,60.1,35.1,39,30.37,10,Variable,3.5,0,0,None,Overcast
2017-10-12,7:51 PM,60.1,60.1,45,57,30.37,10,Variable,4.6,0,0,None,Clear
2017-10-22,4:51 AM,60.1,60.1,48.9,67,30.36,10,Calm,0,0,0,None,Clear
2017-04-13,7:51 PM,60.1,60.1,26.1,27,30.33,10,North,0,0,0,None,Clear
2017-10-21,8:51 AM,60.1,60.1,37,42,30.33,10,WNW,3.5,0,0,None,Clear
2017-09-11,8:51 AM,60.1,60.1,48.9,67,30.33,10,North,5.8,0,0,None,Clear
2017-04-13,1:51 PM,60.1,60.1,28,30,30.32,10,Variable,6.9,0,0,None,Clear
2017-10-01,10:51 PM,60.1,60.1,42.1,51,30.31,10,West,3.5,0,0,None,Clear
2017-05-20,6:51 PM,60.1,60.1,44.1,55,30.3,10,Calm,0,0,0,None,Clear
2017-05-20,12:51 PM,60.1,60.1,43,53,30.3,10,Variable,3.5,0,0,None,Overcast
2017-04-15,1:51 PM,60.1,60.1,39,46,30.3,10,South,5.8,0,0,None,Overcast
2017-05-21,6:51 PM,60.1,60.1,37,42,30.29,10,Variable,3.5,0,0,None,Clear
2017-05-20,10:51 AM,60.1,60.1,42.1,51,30.29,10,ENE,9.2,0,0,None,Overcast
2017-10-12,4:23 AM,60.1,60.1,55.9,86,30.27,10,ENE,6.9,0,0,Rain,Light Rain
2017-10-19,1:51 AM,60.1,60.1,45,57,30.27,10,Variable,4.6,0,0,None,Clear
2017-10-19,2:51 AM,60.1,60.1,45,57,30.26,10,West,5.8,0,0,None,Clear
2017-11-02,6:51 AM,60.1,60.1,57.9,93,30.25,8,Calm,0,0,0,None,Clear
2017-11-02,7:51 AM,60.1,60.1,57.9,93,30.25,6,Calm,0,0,0,None,Clear
2017-09-30,5:21 PM,60.1,60.1,48,64,30.25,10,Variable,6.9,17.3,0,None,Overcast
2017-05-20,8:51 AM,60.1,60.1,44.1,55,30.25,10,Variable,6.9,0,0,None,Overcast
2017-09-02,8:51 AM,60.1,60.1,46,60,30.24,10,ENE,5.8,0,0,None,Clear
2017-04-30,8:51 AM,60.1,60.1,37.9,44,30.24,10,ESE,6.9,0,0,None,Mostly Cloudy
2017-10-12,3:51 AM,60.1,60.1,57,90,30.22,9,ENE,5.8,0,0.01,Rain,Light Rain
2017-05-04,2:51 PM,60.1,60.1,28.9,31,30.22,10,Variable,3.5,0,0,None,Clear
2017-04-15,5:59 PM,60.1,60.1,48.9,67,30.21,10,South,11.5,17.3,0,None,Overcast
2017-10-12,1:51 AM,60.1,60.1,53.1,78,30.21,10,East,8.1,19.6,0.01,None,Mostly Cloudy
2017-09-30,4:51 PM,60.1,60.1,48,64,30.21,10,NE,8.1,0,0,None,Overcast
2017-05-04,3:51 PM,60.1,60.1,30.9,33,30.21,10,SSE,8.1,0,0,None,Clear
2017-04-15,6:44 PM,60.1,60.1,50,69,30.2,10,Variable,3.5,0,0,None,Mostly Cloudy
2017-09-02,1:51 AM,60.1,60.1,39.9,47,30.2,10,Variable,6.9,0,0,None,Clear
2017-09-08,11:51 PM,60.1,60.1,50,69,30.19,10,Calm,0,0,0,None,Clear
2017-09-09,12:51 AM,60.1,60.1,48.9,67,30.19,10,Variable,5.8,0,0,None,Clear
2017-04-15,5:51 PM,60.1,60.1,48,64,30.19,10,South,8.1,0,0,None,Overcast
2017-10-20,8:51 AM,60.1,60.1,43,53,30.17,9,West,5.8,0,0,None,Clear
2017-04-15,6:51 PM,60.1,60.1,50,69,30.17,10,SSE,6.9,0,0,None,Mostly Cloudy
2017-09-02,7:51 PM,60.1,60.1,55,83,30.15,4,Variable,5.8,0,0.03,Rain,Light Rain
2017-04-24,1:51 PM,60.1,60.1,42.1,51,30.15,10,ENE,3.5,0,0,None,Overcast
2017-04-15,7:51 PM,60.1,60.1,50,69,30.15,10,Variable,4.6,0,0,None,Overcast
2017-04-24,2:51 PM,60.1,60.1,42.1,51,30.14,10,Variable,4.6,0,0,None,Overcast
2017-09-30,10:19 AM,60.1,60.1,48.9,67,30.12,10,Calm,0,0,0,None,Mostly Cloudy
2017-09-01,9:51 AM,60.1,60.1,37.9,44,30.12,10,Variable,3.5,0,0,None,Clear
2017-11-05,5:51 PM,60.1,60.1,59,96,30.1,10,Variable,4.6,0,0,None,Overcast
2017-09-30,9:51 AM,60.1,60.1,48.9,67,30.09,10,North,0,0,0,None,Mostly Cloudy
2017-04-12,2:51 AM,60.1,60.1,52,75,30.09,10,Calm,0,0,0,None,Clear
2017-09-08,7:51 AM,60.1,60.1,51.1,72,30.09,10,Calm,0,0,0,None,Clear
2017-10-20,2:51 AM,60.1,60.1,46.9,62,30.08,10,North,0,0,0,None,Clear
2017-10-20,3:51 AM,60.1,60.1,46.9,62,30.08,10,Calm,0,0,0,None,Clear
2017-11-05,6:51 PM,60.1,60.1,59,96,30.08,7,Calm,0,0,0,None,Overcast
2017-11-05,10:23 PM,60.1,60.1,59,96,30.08,9,Calm,0,0,0,None,Mostly Cloudy
2017-09-12,4:51 AM,60.1,60.1,53.1,78,30.07,10,Calm,0,0,0,None,Clear
2017-11-05,7:51 PM,60.1,60.1,59,96,30.07,5,Calm,0,0,0,None,Mostly Cloudy
2017-10-27,4:51 PM,60.1,60.1,36,41,30.07,10,Variable,3.5,0,0,None,Clear
2017-05-31,8:51 AM,60.1,60.1,57.9,93,30.06,6,Calm,0,0,0,None,Overcast
2017-09-08,4:51 AM,60.1,60.1,51.1,72,30.06,10,Calm,0,0,0,None,Clear
2017-09-12,5:51 AM,60.1,60.1,53.1,78,30.06,10,Calm,0,0,0,None,Clear
2017-05-12,11:51 AM,60.1,60.1,42.1,51,30.06,10,Variable,4.6,0,0,None,Partly Cloudy
2017-09-08,3:51 AM,60.1,60.1,50,69,30.05,10,Calm,0,0,0,None,Clear
2017-04-03,1:51 PM,60.1,60.1,30,32,30.05,10,Variable,4.6,20.7,0,None,Clear
2017-09-01,3:51 AM,60.1,60.1,46,60,30.04,10,Variable,3.5,0,0,None,Clear
2017-11-05,10:51 PM,60.1,60.1,59,96,30.04,8,Variable,3.5,0,0,None,Mostly Cloudy
2017-01-12,11:51 AM,60.1,60.1,52,75,30.03,10,Variable,5.8,0,0,None,Partly Cloudy
2017-06-08,12:51 AM,60.1,60.1,48.9,67,30.02,10,Calm,0,0,0,None,Clear
2017-05-10,5:51 PM,60.1,60.1,38.1,44,30.02,10,Variable,3.5,0,0,None,Partly Cloudy
2017-05-03,6:51 PM,60.1,60.1,30,32,30.02,10,North,5.8,0,0,None,Clear
2017-06-07,10:25 AM,60.1,60.1,46.9,62,30.02,10,NE,9.2,0,0,None,Overcast
2017-12-05,2:51 PM,60.1,60.1,53.1,78,30.01,9,South,6.9,20.7,0,None,Overcast
2017-11-06,1:31 AM,60.1,60.1,59,96,30.01,9,Variable,4.6,0,0,None,Overcast
2017-05-22,6:08 PM,60.1,60.1,59,96,30,2.5,Variable,3.5,0,0.01,None,Overcast
2017-11-06,12:51 AM,60.1,60.1,57.9,93,30,10,Variable,3.5,0,0,None,Mostly Cloudy
2017-05-22,9:59 PM,60.1,60.1,60.1,100,30,2.5,West,3.5,0,0,None,Overcast
2017-06-07,10:51 AM,60.1,60.1,48,64,30,10,NE,9.2,0,0,None,Mostly Cloudy
2017-05-22,10:19 PM,60.1,60.1,60.1,100,29.99,3,Calm,0,0,0,None,Overcast
2017-06-02,6:51 AM,60.1,60.1,44.1,55,29.99,10,Calm,0,0,0,None,Clear
2017-05-22,10:36 PM,60.1,60.1,59,96,29.99,3,Variable,3.5,0,0,None,Mostly Cloudy
2017-05-22,6:15 PM,60.1,60.1,59,96,29.99,3,Variable,4.6,0,0.01,None,Overcast
2017-05-22,9:20 PM,60.1,60.1,60.1,100,29.99,3,WNW,4.6,0,0,None,Overcast
2017-05-22,9:11 PM,60.1,60.1,60.1,100,29.99,2.5,West,5.8,0,0,None,Overcast
2017-12-05,3:51 PM,60.1,60.1,54,80,29.99,10,South,6.9,0,0,None,Overcast
2017-09-29,12:51 AM,60.1,60.1,43,53,29.99,10,Variable,6.9,0,0,None,Clear
2017-05-23,1:20 AM,60.1,60.1,59,96,29.98,5,WNW,4.6,0,0,None,Overcast
2017-05-22,11:07 PM,60.1,60.1,59,96,29.98,5,WNW,5.8,0,0,None,Overcast
2017-05-22,5:51 PM,60.1,60.1,59,96,29.97,4,Calm,0,0,0.03,Rain,Light Rain
2017-05-22,6:51 PM,60.1,60.1,60.1,100,29.97,4,Calm,0,0,0.01,None,Overcast
2017-05-22,9:51 PM,60.1,60.1,60.1,100,29.97,3,Calm,0,0,0,None,Overcast
2017-05-28,7:40 AM,60.1,60.1,57,90,29.97,4,Variable,4.6,0,0,None,Overcast
2017-12-05,4:51 PM,60.1,60.1,54,80,29.97,10,SSE,5.8,0,0,None,Overcast
2017-09-03,5:51 AM,60.1,60.1,59,96,29.97,7,Variable,5.8,0,0,None,Overcast
2017-05-22,10:51 PM,60.1,60.1,59,96,29.96,4,Calm,0,0,0,None,Mostly Cloudy
2017-06-01,2:51 AM,60.1,60.1,55.9,86,29.96,10,Calm,0,0,0,None,Clear
2017-06-03,5:51 AM,60.1,60.1,41,49,29.96,10,Calm,0,0,0,None,Clear
2017-05-22,8:51 PM,60.1,60.1,60.1,100,29.96,3,WNW,3.5,0,0,None,Overcast
2017-09-03,6:51 AM,60.1,60.1,59,96,29.96,7,East,5.8,0,0,None,Overcast
2017-05-23,12:51 AM,60.1,60.1,57.9,93,29.96,6,WNW,5.8,0,0,None,Overcast
2017-06-04,3:51 PM,60.1,60.1,55,83,29.95,9,SSE,3.5,0,0.01,Rain,Light Rain
2017-04-27,9:33 AM,60.1,60.1,59,96,29.95,2,Calm,0,0,0,None,Overcast
2017-05-22,11:51 PM,60.1,60.1,59,96,29.95,5,Calm,0,0,0,None,Overcast
2017-04-27,8:59 AM,60.1,60.1,57.9,93,29.95,2,Variable,3.5,0,0,None,Overcast
2017-12-05,5:51 PM,60.1,60.1,54,80,29.95,10,Variable,4.6,0,0,None,Overcast
2017-02-24,7:51 AM,60.1,60.1,52,75,29.94,10,Calm,0,0,0,None,Clear
2017-04-27,8:35 AM,60.1,60.1,59,96,29.94,2,Calm,0,0,0,None,Overcast
2017-06-01,3:51 AM,60.1,60.1,57.9,93,29.94,10,East,3.5,0,0,None,Mostly Cloudy
2017-05-09,3:51 PM,60.1,60.1,30.9,33,29.94,10,ENE,6.9,0,0,None,Overcast
2017-09-03,7:51 AM,60.1,60.1,59,96,29.94,5,ESE,8.1,0,0,None,Overcast
2017-05-16,12:51 AM,60.1,60.1,43,53,29.94,10,WNW,8.1,0,0,None,Clear
2017-05-15,11:51 PM,60.1,60.1,42.1,51,29.93,10,Variable,4.6,0,0,None,Clear
2017-05-03,12:51 PM,60.1,60.1,33.1,36,29.92,10,WNW,10.4,19.6,0,None,Overcast
2017-04-27,8:51 AM,60.1,60.1,57.9,93,29.92,2,South,4.6,0,0,None,Overcast
2017-04-27,7:35 PM,60.1,60.1,59,96,29.91,3,North,0,0,0,None,Overcast
2017-05-28,12:51 AM,60.1,60.1,55.9,86,29.91,10,Calm,0,0,0,None,Clear
2017-05-28,1:51 AM,60.1,60.1,57,90,29.91,10,Calm,0,0,0,None,Overcast
2017-03-09,2:51 PM,60.1,60.1,14,16,29.91,10,WNW,11.5,24.2,0,None,Clear
2017-03-09,1:51 PM,60.1,60.1,15.1,17,29.91,10,West,12.7,31.1,0,None,Clear
2017-05-28,2:51 AM,60.1,60.1,57,90,29.91,9,NE,3.5,0,0,None,Overcast
2017-02-24,2:51 AM,60.1,60.1,51.1,72,29.91,10,SW,4.6,0,0,None,Clear
2017-02-24,1:51 AM,60.1,60.1,51.1,72,29.91,10,Variable,4.6,0,0,None,Partly Cloudy
2017-10-16,6:51 AM,60.1,60.1,46.9,62,29.91,10,Variable,6.9,0,0,None,Partly Cloudy
2017-02-19,7:51 PM,60.1,60.1,28.9,31,29.9,10,WNW,3.5,0,0,None,Clear
2017-04-27,8:26 PM,60.1,60.1,59,96,29.9,3,Variable,4.6,0,0,None,Overcast
2017-04-27,7:51 PM,60.1,60.1,60.1,100,29.88,2.5,SSE,8.1,0,0,None,Overcast
2017-09-07,5:38 AM,60.1,60.1,57.9,93,29.87,10,North,0,0,0,None,Mostly Cloudy
2017-09-07,7:51 AM,60.1,60.1,57.9,93,29.87,7,Variable,4.6,0,0,None,Partly Cloudy
2017-05-03,8:51 AM,60.1,60.1,37.9,44,29.86,10,WNW,12.7,23,0,None,Clear
2017-06-04,9:51 PM,60.1,60.1,55.9,86,29.86,10,East,4.6,0,0,None,Partly Cloudy
2017-02-24,8:51 PM,60.1,60.1,54,80,29.86,10,Variable,4.6,0,0,None,Clear
2017-02-24,11:51 PM,60.1,60.1,55.9,86,29.85,10,Calm,0,0,0,None,Scattered Clouds
2017-06-04,10:51 PM,60.1,60.1,55.9,86,29.85,10,North,3.5,0,0,None,Clear
2017-09-07,5:51 AM,60.1,60.1,57.9,93,29.85,10,WNW,4.6,0,0,None,Mostly Cloudy
2017-10-29,5:07 AM,60.1,60.1,59,96,29.85,9,Variable,6.9,0,0,None,Overcast
2017-06-08,9:51 PM,60.1,60.1,41,49,29.84,10,ENE,4.6,0,0,None,Clear
2017-06-08,10:51 PM,60.1,60.1,45,57,29.83,10,ENE,4.6,0,0,None,Clear
2017-05-24,9:51 PM,60.1,60.1,50,69,29.82,10,Variable,4.6,0,0,None,Partly Cloudy
2017-05-24,10:51 PM,60.1,60.1,50,69,29.82,10,Variable,5.8,0,0,None,Clear
2017-05-03,4:51 AM,60.1,60.1,37,42,29.8,10,West,8.1,17.3,0,None,Overcast
2017-10-29,5:51 AM,60.1,60.1,59,96,29.79,8,Variable,6.9,0,0,Rain,Light Rain
2017-05-03,3:51 AM,60.1,60.1,37,42,29.79,10,North,0,0,0,None,Overcast
2017-05-24,12:51 AM,60.1,60.1,50,69,29.76,10,Calm,0,0,0,None,Clear
2017-06-05,6:51 AM,60.1,60.1,59,96,29.76,2,NNE,3.5,0,0,None,Mostly Cloudy
2017-05-24,2:51 AM,60.1,60.1,51.1,72,29.75,10,Calm,0,0,0,None,Clear
2017-05-24,1:51 AM,60.1,60.1,48,64,29.75,10,NE,3.5,0,0,None,Mostly Cloudy
2017-06-05,11:51 PM,60.1,60.1,57.9,93,29.74,5,ENE,10.4,20.7,0,None,Overcast
2017-10-25,10:51 AM,60.1,60.1,46,60,29.74,10,NW,4.6,0,0,None,Overcast
2017-05-24,3:51 AM,60.1,60.1,48.9,67,29.74,10,Variable,4.6,0,0,None,Mostly Cloudy
2017-10-25,10:51 PM,60.1,60.1,39,46,29.7,10,Variable,4.6,0,0,None,Overcast
2017-05-26,9:25 AM,60.1,60.1,57.9,93,29.61,10,Calm,0,0,0,None,Mostly Cloudy
2017-05-26,9:51 AM,60.1,60.1,57,90,29.59,10,West,6.9,0,0,None,Overcast
2017-05-06,3:51 PM,60.1,60.1,52,75,29.39,8,Variable,5.8,16.1,0,None,Overcast
2017-05-06,7:51 PM,60.1,60.1,53.1,78,29.39,8,Variable,3.5,0,0,None,Mostly Cloudy
2017-05-11,11:51 AM,60.4,60.4,36,40,30.01,10,North,0,0,0,None,Partly Cloudy
2017-05-11,12:51 PM,60.4,60.4,36,40,30,10,Variable,3.5,0,0,None,Unknown
2017-05-11,1:51 PM,60.4,60.4,35.1,39,29.99,10,North,0,0,0,None,Clear
2017-09-03,9:48 AM,60.8,60.8,60.8,100,29.94,1.8,Calm,0,0,0.08,Rain,Light Rain
2017-04-27,7:49 PM,60.8,60.8,60.8,100,29.9,2.5,Variable,5.8,0,0,None,Overcast
2017-09-07,3:46 AM,60.8,60.8,60.8,100,29.86,5,Variable,5.8,0,0.01,None,Overcast
2017-06-05,6:46 AM,60.8,60.8,59,94,29.78,2.5,NNE,3.5,0,0,None,Mostly Cloudy
2017-06-05,11:21 PM,60.8,60.8,59,94,29.76,3,Variable,6.9,0,0,None,Overcast
2017-06-05,10:46 PM,60.8,60.8,59,94,29.76,4,ENE,10.4,0,0,None,Overcast
2017-10-03,6:51 PM,61,61,46,58,30.58,10,Variable,4.6,0,0,None,Clear
2017-10-03,12:51 AM,61,61,51.1,70,30.52,10,Calm,0,0,0,None,Clear
2017-10-02,10:51 PM,61,61,50,67,30.51,10,Calm,0,0,0,None,Clear
2017-10-13,11:51 AM,61,61,51.1,70,30.43,10,ENE,8.1,0,0,None,Mostly Cloudy
2017-10-02,9:51 AM,61,61,45,56,30.42,10,Variable,4.6,0,0,None,Clear
2017-04-14,11:51 AM,61,61,28.9,30,30.4,10,Calm,0,0,0,None,Scattered Clouds
2017-04-18,11:51 AM,61,61,33.1,35,30.38,10,Calm,0,0,0,None,Clear
2017-10-12,12:34 PM,61,61,48.9,64,30.38,10,ENE,13.8,25.3,0,None,Mostly Cloudy
2017-10-12,11:51 AM,61,61,51.1,70,30.37,10,East,10.4,21.9,0,None,Overcast
2017-10-12,6:51 PM,61,61,44.1,54,30.36,10,Variable,6.9,0,0,None,Clear
2017-10-12,12:51 PM,61,61,48.9,64,30.35,10,ENE,15,25.3,0,None,Mostly Cloudy
2017-10-12,5:51 PM,61,61,46.9,60,30.35,10,Variable,4.6,0,0,None,Clear
2017-04-15,11:51 AM,61,61,36,39,30.34,10,South,8.1,0,0,None,Overcast
2017-04-15,12:51 PM,61,61,37,41,30.32,10,SSE,6.9,0,0,None,Overcast
2017-10-01,8:51 PM,61,61,42.1,50,30.31,10,Calm,0,0,0,None,Clear
2017-10-01,9:51 PM,61,61,39.9,46,30.31,10,WNW,3.5,0,0,None,Clear
2017-05-20,1:51 PM,61,61,42.1,50,30.3,10,Calm,0,0,0,None,Overcast
2017-05-20,5:51 PM,61,61,44.1,54,30.3,10,Variable,5.8,0,0,None,Clear
2017-09-09,9:51 PM,61,61,48.9,64,30.29,10,Variable,3.5,0,0,None,Clear
2017-05-20,11:51 AM,61,61,42.1,50,30.29,10,ENE,8.1,0,0,None,Overcast
2017-10-14,2:51 AM,61,61,60.1,97,30.28,2.5,Calm,0,0,0.03,Rain,Rain
2017-09-09,9:51 AM,61,61,46.9,60,30.27,10,North,0,0,0,None,Clear
2017-10-19,12:51 AM,61,61,46.9,60,30.27,10,WSW,8.1,0,0,None,Clear
2017-11-02,6:26 AM,61,61,57.9,90,30.26,9,Variable,3.5,0,0,None,Scattered Clouds
2017-10-19,9:51 AM,61,61,45,56,30.25,9,Calm,0,0,0,None,Clear
2017-11-02,5:51 AM,61,61,57.9,90,30.25,9,Calm,0,0,0,None,Mostly Cloudy
2017-05-04,12:51 PM,61,61,28,29,30.25,10,South,9.2,18.4,0,None,Clear
2017-11-02,4:51 AM,61,61,59,93,30.25,9,Variable,3.5,0,0,None,Overcast
2017-10-12,3:10 AM,61,61,55,81,30.25,10,Variable,4.6,0,0,None,Overcast
2017-09-02,9:51 AM,61,61,48.9,64,30.25,10,ENE,8.1,0,0,None,Clear
2017-11-02,3:51 AM,61,61,57.9,90,30.24,9,Calm,0,0,0,None,Overcast
2017-04-30,10:51 AM,61,61,39.9,46,30.23,10,ESE,8.1,0,0,None,Overcast
2017-10-12,2:51 AM,61,61,54,78,30.21,10,Variable,4.6,0,0,None,Overcast
2017-04-10,9:51 AM,61,61,36,39,30.2,10,Variable,3.5,0,0,None,Clear
2017-10-12,12:51 AM,61,61,55.9,83,30.19,6,East,9.2,0,0,Rain,Light Rain
2017-09-30,3:51 PM,61,61,48.9,64,30.19,10,NNE,11.5,20.7,0,None,Overcast
2017-04-30,5:51 AM,61,61,44.1,54,30.18,10,Variable,4.6,0,0,None,Scattered Clouds
2017-10-20,9:51 AM,61,61,39.9,46,30.18,10,West,8.1,0,0,None,Clear
2017-04-15,8:51 PM,61,61,52,72,30.14,10,South,6.9,0,0,None,Partly Cloudy
2017-05-20,4:51 AM,61,61,46.9,60,30.13,10,Variable,5.8,16.1,0,None,Overcast
2017-04-15,9:51 PM,61,61,53.1,75,30.13,10,South,5.8,0,0,None,Clear
2017-04-12,7:51 AM,61,61,51.1,70,30.12,10,Calm,0,0,0,None,Clear
2017-05-20,3:51 AM,61,61,46,58,30.12,10,Variable,5.8,0,0,None,Clear
2017-10-27,12:51 PM,61,61,36,39,30.09,10,Variable,3.5,0,0,None,Clear
2017-11-05,9:10 PM,61,61,59,93,30.09,7,Variable,3.5,0,0,None,Overcast
2017-04-03,11:51 AM,61,61,30,31,30.09,10,Variable,4.6,0,0,None,Clear
2017-10-27,1:51 PM,61,61,34,36,30.08,10,Variable,3.5,0,0,None,Clear
2017-11-05,9:33 PM,61,61,59,93,30.08,7,Variable,3.5,0,0,None,Overcast
2017-10-20,1:51 AM,61,61,46.9,60,30.08,10,Variable,5.8,0,0,None,Clear
2017-11-05,10:14 PM,61,61,59,93,30.07,9,Calm,0,0,0,None,Mostly Cloudy
2017-09-29,9:51 AM,61,61,39.9,46,30.07,10,NE,3.5,0,0,None,Clear
2017-09-12,6:51 AM,61,61,55,81,30.07,10,Variable,3.5,0,0,None,Clear
2017-11-05,9:51 PM,61,61,59,93,30.06,7,Calm,0,0,0,None,Overcast
2017-09-29,10:51 AM,61,61,43,52,30.06,10,Variable,3.5,0,0,None,Clear
2017-11-05,8:51 PM,61,61,60.1,97,30.06,7,Variable,3.5,0,0,None,Overcast
2017-05-31,9:51 AM,61,61,59,93,30.05,5,Calm,0,0,0,None,Overcast
2017-09-12,7:51 AM,61,61,55.9,83,30.05,10,Calm,0,0,0,None,Clear
2017-06-27,6:05 AM,61,61,60.1,97,30.04,4,Calm,0,0,0.04,Rain,Light Rain
2017-09-08,2:51 AM,61,61,50,67,30.04,10,Calm,0,0,0,None,Clear
2017-05-12,1:51 PM,61,61,44.1,54,30.04,10,Variable,4.6,0,0,None,Mostly Cloudy
2017-06-27,5:51 AM,61,61,59,93,30.03,2,Calm,0,0,0.12,Rain,Heavy Rain
2017-09-08,1:51 AM,61,61,50,67,30.03,10,North,0,0,0,None,Clear
2017-09-29,10:51 PM,61,61,44.1,54,30.03,10,Calm,0,0,0,None,Clear
2017-04-03,2:51 PM,61,61,30,31,30.03,10,South,8.1,19.6,0,None,Clear
2017-09-01,2:51 AM,61,61,46.9,60,30.03,10,North,9.2,0,0,None,Clear
2017-08-30,12:51 AM,61,61,59,93,30.02,5,Calm,0,0,0.02,Rain,Light Rain
2017-06-07,11:51 PM,61,61,48.9,64,30.02,10,Calm,0,0,0,None,Clear
2017-12-05,1:51 PM,61,61,53.1,75,30.02,9,SSE,6.9,0,0,None,Mostly Cloudy
2017-04-20,6:51 PM,61,61,51.1,70,30.02,7,South,8.1,0,0,None,Overcast
2017-08-29,11:51 PM,61,61,59,93,30.01,8,Variable,6.9,0,0.02,Rain,Light Rain
2017-05-22,7:39 PM,61,61,60.1,97,30,1.8,Calm,0,0,0,None,Overcast
2017-06-27,6:51 AM,61,61,60.1,97,30,7,Calm,0,0,0.05,None,Overcast
2017-05-22,7:10 PM,61,61,60.1,97,29.99,2,Calm,0,0,0,None,Overcast
2017-05-22,7:17 PM,61,61,60.1,97,29.99,1.8,Calm,0,0,0,None,Overcast
2017-05-22,7:22 PM,61,61,60.1,97,29.99,3,Calm,0,0,0,None,Overcast
2017-05-22,8:07 PM,61,61,60.1,97,29.99,5,Calm,0,0,0,None,Overcast
2017-05-22,8:37 PM,61,61,60.1,97,29.99,2.5,Calm,0,0,0,None,Overcast
2017-06-03,6:51 AM,61,61,43,52,29.99,10,Calm,0,0,0,None,Scattered Clouds
2017-06-02,3:51 AM,61,61,43,52,29.99,10,Variable,3.5,0,0,None,Clear
2017-11-06,1:51 AM,61,61,57.9,90,29.99,10,Variable,3.5,0,0,None,Overcast
2017-11-06,4:06 AM,61,61,59,93,29.98,8,Variable,4.6,0,0,None,Overcast
2017-05-11,2:51 PM,61,61,35.1,38,29.98,10,Variable,5.8,0,0,None,Clear
2017-05-11,3:51 PM,61,61,35.1,38,29.98,10,Variable,5.8,0,0,None,Clear
2017-08-30,7:51 AM,61,61,55.9,83,29.98,10,Variable,6.9,0,0,None,Partly Cloudy
2017-08-30,4:13 AM,61,61,57,87,29.97,10,North,0,0,0,None,Overcast
2017-05-22,7:50 PM,61,61,60.1,97,29.97,2.5,Calm,0,0,0,None,Overcast
2017-06-03,12:51 AM,61,61,37.9,42,29.97,10,Calm,0,0,0,None,Clear
2017-09-28,11:51 PM,61,61,43,52,29.97,10,Variable,3.5,0,0,None,Clear
2017-08-30,1:51 AM,61,61,59,93,29.97,10,Variable,4.6,0,0.01,None,Overcast
2017-11-06,2:51 AM,61,61,59,93,29.97,9,Variable,4.6,0,0,None,Overcast
2017-11-06,5:51 PM,61,61,51.1,70,29.97,10,Variable,5.8,0,0,None,Overcast
2017-08-30,4:30 AM,61,61,57,87,29.97,10,Variable,6.9,0,0,None,Overcast
2017-05-23,8:51 AM,61,61,48,62,29.96,10,Variable,6.9,0,0,None,Clear
2017-08-30,6:51 AM,61,61,55.9,83,29.96,10,Variable,6.9,0,0,None,Overcast
2017-08-30,2:51 AM,61,61,59,93,29.96,10,NE,8.1,0,0,None,Overcast
2017-09-03,8:25 AM,61,61,60.1,97,29.95,2.5,East,8.1,0,0,Rain,Light Rain
2017-04-27,10:10 AM,61,61,57.9,90,29.95,3,Calm,0,0,0,None,Overcast
2017-02-24,8:51 AM,61,61,52,72,29.95,10,WSW,11.5,20.7,0,None,Clear
2017-11-06,3:51 AM,61,61,59,93,29.95,9,Variable,3.5,0,0,None,Overcast
2017-11-06,4:51 AM,61,61,59,93,29.95,8,Variable,4.6,0,0,None,Overcast
2017-08-30,5:51 AM,61,61,55,81,29.95,10,Variable,6.9,0,0,None,Overcast
2017-09-03,8:38 AM,61,61,60.1,97,29.95,4,Variable,6.9,0,0,None,Overcast
2017-05-09,1:51 PM,61,61,25,25,29.95,10,NE,8.1,0,0,None,Partly Cloudy
2017-09-03,9:19 AM,61,61,60.1,97,29.94,1.5,Calm,0,0,0,Rain,Light Rain
2017-09-03,9:31 AM,61,61,60.1,97,29.94,0.8,Calm,0,0,0.06,Rain,Rain
2017-09-03,9:43 AM,61,61,60.1,97,29.94,1.2,Calm,0,0,0.08,Rain,Light Rain
2017-05-28,7:51 AM,61,61,57,87,29.94,4,Variable,4.6,0,0,None,Overcast
2017-08-30,4:51 AM,61,61,57,87,29.94,10,Variable,5.8,0,0,None,Overcast
2017-08-30,3:51 AM,61,61,57.9,90,29.94,10,Variable,6.9,0,0,None,Overcast
2017-05-28,11:51 PM,61,61,51.1,70,29.92,10,Variable,5.8,0,0,None,Partly Cloudy
2017-09-03,8:51 AM,61,61,60.1,97,29.92,3,East,6.9,0,0,None,Overcast
2017-09-03,9:51 AM,61,61,60.1,97,29.91,1.8,ENE,4.6,0,0.09,Rain,Light Rain
2017-04-27,7:20 PM,61,61,57.9,90,29.91,2.5,Variable,4.6,0,0,None,Overcast
2017-09-06,10:00 PM,61,61,60.1,97,29.9,3,Variable,3.5,0,0.01,Rain,Light Rain
2017-03-09,3:51 PM,61,61,17.1,18,29.9,10,Variable,3.5,17.3,0,None,Scattered Clouds
2017-05-29,12:51 AM,61,61,51.1,70,29.9,10,Variable,4.6,0,0,None,Overcast
2017-05-15,10:51 PM,61,61,43,52,29.9,10,Variable,5.8,0,0,None,Clear
2017-06-04,4:51 PM,61,61,55,81,29.9,10,Variable,5.8,0,0.01,None,Overcast
2017-05-27,6:18 AM,61,61,54,78,29.89,10,WNW,3.5,0,0,None,Scattered Clouds
2017-05-29,1:51 AM,61,61,52,72,29.89,10,Variable,4.6,0,0,None,Mostly Cloudy
2017-10-16,5:51 AM,61,61,51.1,70,29.88,10,North,0,0,0,None,Overcast
2017-02-19,6:51 PM,61,61,28.9,30,29.88,10,Calm,0,0,0,None,Clear
2017-04-27,5:51 PM,61,61,57,87,29.88,8,SSE,10.4,18.4,0,None,Overcast
2017-06-04,5:51 PM,61,61,52,72,29.88,10,South,3.5,0,0,None,Overcast
2017-05-29,2:51 AM,61,61,52,72,29.88,10,Variable,6.9,0,0,None,Overcast
2017-09-07,8:51 AM,61,61,57,87,29.88,8,Variable,6.9,0,0,None,Clear
2017-04-27,3:02 AM,61,61,57.9,90,29.87,1.8,Calm,0,0,0,None,Overcast
2017-06-08,7:51 PM,61,61,44.1,54,29.87,10,NE,4.6,0,0,None,Partly Cloudy
2017-05-27,6:51 AM,61,61,55,81,29.87,10,Variable,4.6,0,0,None,Clear
2017-10-29,4:39 AM,61,61,59,93,29.86,7,SE,9.2,18.4,0.01,None,Overcast
2017-02-24,9:51 PM,61,61,55.9,83,29.86,10,Variable,4.6,0,0,None,Clear
2017-02-24,10:51 PM,61,61,55.9,83,29.86,10,Variable,4.6,0,0,None,Mostly Cloudy
2017-05-27,5:51 AM,61,61,54,78,29.86,10,WNW,4.6,0,0,None,Overcast
2017-09-07,2:51 AM,61,61,60.1,97,29.85,3,West,3.5,0,0,None,Overcast
2017-06-08,8:51 PM,61,61,37.9,42,29.85,10,ENE,5.8,0,0,None,Clear
2017-09-07,4:51 AM,61,61,59,93,29.84,6,Variable,3.5,0,0,Rain,Light Rain
2017-10-29,3:51 AM,61,61,59,93,29.84,9,Variable,5.8,17.3,0.02,None,Overcast
2017-10-29,6:04 AM,61,61,59,93,29.83,8,Calm,0,0,0,None,Overcast
2017-06-04,11:51 PM,61,61,55.9,83,29.83,10,Variable,4.6,0,0,None,Overcast
2017-05-24,9:29 PM,61,61,50,67,29.83,10,Variable,5.8,0,0,None,Partly Cloudy
2017-10-29,4:51 AM,61,61,59,93,29.83,8,Variable,5.8,0,0.01,None,Overcast
2017-09-07,3:51 AM,61,61,60.1,97,29.83,5,West,8.1,0,0.01,None,Overcast
2017-05-27,2:51 AM,61,61,53.1,75,29.82,10,NW,5.8,0,0,None,Clear
2017-10-29,5:38 AM,61,61,59,93,29.82,8,East,8.1,0,0,None,Overcast
2017-05-24,8:51 PM,61,61,50,67,29.81,10,SE,5.8,0,0,None,Clear
2017-02-19,11:51 AM,61,61,34,36,29.81,10,NW,8.1,0,0,None,Clear
2017-02-19,10:51 AM,61,61,36,39,29.81,10,West,8.1,0,0,None,Clear
2017-10-29,6:59 AM,61,61,60.1,97,29.8,2,Calm,0,0,0.01,Rain,Light Rain
2017-05-03,1:51 AM,61,61,37,41,29.79,10,Variable,5.8,0,0,None,Overcast
2017-10-29,6:51 AM,61,61,60.1,97,29.78,3,ESE,5.8,0,0.04,Rain,Light Rain
2017-05-03,2:51 AM,61,61,37,41,29.78,10,North,0,0,0,None,Overcast
2017-06-05,11:09 PM,61,61,59,93,29.77,2.5,Variable,4.6,0,0,None,Overcast
2017-06-09,8:51 AM,61,61,45,56,29.76,10,Calm,0,0,0,None,Clear
2017-06-05,7:51 AM,61,61,60.1,97,29.75,2.5,Variable,3.5,0,0,None,Mostly Cloudy
2017-05-24,9:51 AM,61,61,53.1,75,29.75,10,ENE,5.8,0,0,None,Overcast
2017-10-29,11:31 AM,61,61,60.1,97,29.74,2.5,Variable,4.6,0,0.03,Rain,Light Rain
2017-10-25,5:51 AM,61,61,57,87,29.74,10,Variable,3.5,0,0,None,Clear
2017-06-05,10:51 PM,61,61,59,93,29.74,3,Variable,6.9,0,0,None,Overcast
2017-10-25,11:51 AM,61,61,46,58,29.73,10,Calm,0,0,0,None,Overcast
2017-05-15,11:51 AM,61,61,41,48,29.73,10,WNW,10.4,20.7,0,None,Mostly Cloudy
2017-10-25,9:51 PM,61,61,43,52,29.69,10,Calm,0,0,0,None,Clear
2017-10-25,8:51 PM,61,61,45,56,29.69,10,West,3.5,0,0,None,Clear
2017-10-25,7:51 PM,61,61,44.1,54,29.68,10,Calm,0,0,0,None,Clear
2017-05-06,11:51 AM,61,61,52,72,29.41,9,Variable,5.8,0,0,None,Mostly Cloudy
2017-05-06,4:51 PM,61,61,53.1,75,29.39,8,North,0,0,0,None,Overcast
2017-10-29,11:39 PM,61,61,60.1,97,28.95,10,West,18.4,28.8,0.13,None,Overcast
2017-10-02,9:51 PM,62.1,62.1,48.9,62,30.49,10,South,4.6,0,0,None,Clear
2017-10-04,9:51 AM,62.1,62.1,53.1,72,30.44,10,West,10.4,20.7,0,None,Clear
2017-10-22,8:51 AM,62.1,62.1,48,60,30.42,9,Calm,0,0,0,None,Clear
2017-10-22,11:51 PM,62.1,62.1,57,84,30.38,10,Calm,0,0,0,None,Clear
2017-04-18,12:51 PM,62.1,62.1,30.9,31,30.37,10,Variable,3.5,0,0,None,Clear
2017-09-10,11:51 PM,62.1,62.1,48.9,62,30.36,10,Calm,0,0,0,None,Clear
2017-04-18,3:51 PM,62.1,62.1,36,38,30.36,10,SSE,9.2,16.1,0,None,Clear
2017-09-10,8:51 AM,62.1,62.1,50,65,30.36,10,North,10.4,20.7,0,None,Clear
2017-09-11,12:51 AM,62.1,62.1,50,65,30.36,10,Variable,3.5,0,0,None,Clear
2017-10-23,12:51 AM,62.1,62.1,57.9,86,30.36,10,Variable,3.5,0,0,None,Clear
2017-04-18,2:51 PM,62.1,62.1,36,38,30.36,10,SSE,8.1,0,0,None,Clear
2017-10-22,3:51 AM,62.1,62.1,45,53,30.35,10,Calm,0,0,0,None,Clear
2017-10-23,1:51 AM,62.1,62.1,59,90,30.35,10,Calm,0,0,0,None,Clear
2017-10-12,1:51 PM,62.1,62.1,48.9,62,30.35,10,Variable,6.9,20.7,0,None,Mostly Cloudy
2017-10-23,3:28 AM,62.1,62.1,60.1,93,30.35,9,SSE,3.5,0,0,None,Mostly Cloudy
2017-10-22,2:51 AM,62.1,62.1,44.1,52,30.35,10,WNW,3.5,0,0,None,Clear
2017-10-14,12:04 AM,62.1,62.1,57.9,86,30.34,6,ENE,5.8,0,0,None,Overcast
2017-10-12,4:51 PM,62.1,62.1,46,56,30.34,10,ENE,10.4,0,0,None,Clear
2017-10-14,1:08 AM,62.1,62.1,57.9,86,30.33,9,ENE,4.6,0,0,None,Overcast
2017-10-13,11:51 PM,62.1,62.1,57,84,30.33,9,NE,4.6,0,0,None,Overcast
2017-10-23,2:51 AM,62.1,62.1,59,90,30.33,9,SSE,4.6,0,0,None,Mostly Cloudy
2017-04-14,5:51 PM,62.1,62.1,30,30,30.33,10,South,6.9,0,0,None,Clear
2017-09-11,2:51 AM,62.1,62.1,48.9,62,30.32,10,Calm,0,0,0,None,Clear
2017-10-23,3:51 AM,62.1,62.1,60.1,93,30.32,8,SSE,4.6,0,0,None,Overcast
2017-10-14,2:36 AM,62.1,62.1,60.1,93,30.31,3,ENE,4.6,0,0.01,Rain,Light Rain
2017-04-13,2:51 PM,62.1,62.1,28,28,30.31,10,Variable,4.6,0,0,None,Clear
2017-10-14,12:51 AM,62.1,62.1,57.9,86,30.31,8,Variable,5.8,0,0,None,Overcast
2017-04-13,6:51 PM,62.1,62.1,26.1,25,30.3,10,North,0,0,0,None,Clear
2017-10-14,1:51 AM,62.1,62.1,59,90,30.3,7,Variable,3.5,0,0,None,Overcast
2017-10-14,3:19 AM,62.1,62.1,61,96,30.3,4,Variable,4.6,0,0.05,None,Overcast
2017-09-09,8:51 PM,62.1,62.1,46.9,58,30.29,10,Calm,0,0,0,None,Clear
2017-10-14,4:05 AM,62.1,62.1,61,96,30.29,3,Calm,0,0,0,None,Overcast
2017-05-21,5:51 PM,62.1,62.1,36,38,30.29,10,SSE,5.8,0,0,None,Clear
2017-10-18,11:51 PM,62.1,62.1,46.9,58,30.28,10,Variable,5.8,0,0,None,Clear
2017-05-20,9:51 AM,62.1,62.1,41,46,30.28,10,ENE,8.1,0,0,None,Overcast
2017-08-26,6:51 AM,62.1,62.1,53.1,72,30.27,10,NNW,3.5,0,0,None,Clear
2017-10-14,3:51 AM,62.1,62.1,61,96,30.27,2.5,Variable,3.5,0,0.05,None,Overcast
2017-05-04,11:51 AM,62.1,62.1,30.9,31,30.27,10,Variable,5.8,0,0,None,Mostly Cloudy
2017-11-02,8:51 AM,62.1,62.1,60.1,93,30.26,7,North,0,0,0,None,Scattered Clouds
2017-10-14,6:51 AM,62.1,62.1,61,96,30.26,5,NE,3.5,0,0,None,Overcast
2017-10-14,8:51 AM,62.1,62.1,61,96,30.26,4,Variable,4.6,0,0,None,Overcast
2017-10-14,4:51 AM,62.1,62.1,61,96,30.26,6,ENE,5.8,0,0,None,Overcast
2017-10-14,5:51 AM,62.1,62.1,61,96,30.26,4,ENE,5.8,0,0,None,Overcast
2017-10-14,7:51 AM,62.1,62.1,61,96,30.26,4,NE,5.8,0,0,None,Overcast
2017-08-26,5:51 AM,62.1,62.1,52,70,30.25,10,Calm,0,0,0,None,Clear
2017-04-30,12:51 PM,62.1,62.1,42.1,48,30.25,10,ESE,9.2,17.3,0,None,Overcast
2017-10-21,1:51 AM,62.1,62.1,35.1,37,30.24,10,WNW,4.6,0,0,None,Clear
2017-10-21,12:51 AM,62.1,62.1,36,38,30.22,10,Calm,0,0,0,None,Clear
2017-09-02,12:51 AM,62.1,62.1,39.9,44,30.2,10,East,6.9,0,0,None,Clear
2017-05-20,5:51 AM,62.1,62.1,39.9,44,30.19,10,NE,8.1,18.4,0,None,Mostly Cloudy
2017-04-15,4:51 PM,62.1,62.1,45,53,30.19,10,Variable,4.6,0,0,None,Overcast
2017-09-08,10:51 PM,62.1,62.1,48.9,62,30.18,10,Variable,4.6,0,0,None,Clear
2017-09-30,2:15 PM,62.1,62.1,48.9,62,30.17,10,NNE,9.2,19.6,0,None,Overcast
2017-09-30,12:11 PM,62.1,62.1,48,60,30.15,10,NE,5.8,0,0,None,Overcast
2017-04-17,10:51 PM,62.1,62.1,25,24,30.14,10,Calm,0,0,0,None,Clear
2017-04-11,5:51 AM,62.1,62.1,45,53,30.12,10,West,11.5,21.9,0,None,Clear
2017-04-11,6:51 AM,62.1,62.1,46,56,30.12,10,WSW,8.1,0,0,None,Clear
2017-09-30,10:51 AM,62.1,62.1,50,65,30.11,10,Variable,6.9,0,0,None,Overcast
2017-05-20,2:51 AM,62.1,62.1,48.9,62,30.11,10,ENE,9.2,0,0,None,Partly Cloudy
2017-04-11,11:51 PM,62.1,62.1,51.1,67,30.1,10,Calm,0,0,0,None,Clear
2017-04-12,1:51 AM,62.1,62.1,51.1,67,30.1,10,Calm,0,0,0,None,Clear
2017-11-03,7:51 PM,62.1,62.1,50,65,30.1,10,WNW,8.1,21.9,0,None,Clear
2017-04-12,12:51 AM,62.1,62.1,51.1,67,30.1,10,NE,5.8,0,0,None,Clear
2017-04-15,10:51 PM,62.1,62.1,54,75,30.1,10,SSW,6.9,0,0,None,Mostly Cloudy
2017-06-28,6:51 AM,62.1,62.1,50,65,30.1,10,Variable,6.9,0,0,None,Clear
2017-04-11,10:51 PM,62.1,62.1,51.1,67,30.09,10,Variable,3.5,0,0,None,Clear
2017-04-15,11:51 PM,62.1,62.1,55,78,30.09,10,Variable,4.6,0,0,None,Mostly Cloudy
2017-06-28,5:51 AM,62.1,62.1,51.1,67,30.09,10,Variable,4.6,0,0,None,Clear
2017-09-08,8:51 AM,62.1,62.1,50,65,30.09,10,West,4.6,0,0,None,Clear
2017-10-19,11:51 PM,62.1,62.1,46,56,30.08,10,Variable,5.8,0,0,None,Clear
2017-10-20,12:51 AM,62.1,62.1,46,56,30.08,10,West,8.1,0,0,None,Clear
2017-08-29,10:37 PM,62.1,62.1,60.1,93,30.07,8,Variable,4.6,0,0.01,Rain,Light Rain
2017-09-12,3:51 AM,62.1,62.1,54,75,30.07,10,Calm,0,0,0,None,Clear
2017-06-28,4:51 AM,62.1,62.1,50,65,30.07,10,Variable,3.5,0,0,None,Clear
2017-10-27,2:51 PM,62.1,62.1,34,35,30.07,10,Variable,3.5,0,0,None,Clear
2017-08-29,8:51 PM,62.1,62.1,59,90,30.06,8,ENE,8.1,0,0.02,Rain,Light Rain
2017-10-27,3:51 PM,62.1,62.1,36,38,30.06,10,Variable,6.9,0,0,None,Clear
2017-10-28,9:51 AM,62.1,62.1,44.1,52,30.05,10,North,0,0,0,None,Clear
2017-05-12,12:51 PM,62.1,62.1,41,46,30.04,10,Variable,6.9,0,0,None,Partly Cloudy
2017-08-29,9:51 PM,62.1,62.1,59,90,30.03,10,East,11.5,19.6,0.03,Rain,Light Rain
2017-08-29,10:51 PM,62.1,62.1,59,90,30.03,9,Variable,5.8,0,0.02,Rain,Light Rain
2017-09-29,8:51 PM,62.1,62.1,44.1,52,30.03,10,Calm,0,0,0,None,Clear
2017-09-29,9:51 PM,62.1,62.1,44.1,52,30.03,10,Calm,0,0,0,None,Clear
2017-05-31,10:51 AM,62.1,62.1,59,90,30.03,7,ENE,3.5,0,0,None,Overcast
2017-09-01,1:51 AM,62.1,62.1,46.9,58,30.03,10,Variable,4.6,0,0,None,Clear
2017-06-04,7:51 AM,62.1,62.1,43,50,30.02,10,Calm,0,0,0,None,Clear
2017-06-07,10:51 PM,62.1,62.1,48.9,62,30.02,10,Calm,0,0,0,None,Clear
2017-09-30,1:51 AM,62.1,62.1,48.9,62,30.02,10,Calm,0,0,0,None,Overcast
2017-06-04,2:51 AM,62.1,62.1,39,43,30.02,10,NNW,3.5,0,0,None,Clear
2017-09-29,11:51 PM,62.1,62.1,45,53,30.02,10,Variable,3.5,0,0,None,Overcast
2017-06-07,9:51 PM,62.1,62.1,48.9,62,30.02,10,WSW,3.5,0,0,None,Clear
2017-06-08,7:51 AM,62.1,62.1,51.1,67,30.02,10,ENE,4.6,0,0,None,Clear
2017-05-16,8:51 AM,62.1,62.1,45,53,30.02,10,Variable,5.8,0,0,None,Clear
2017-06-07,8:51 PM,62.1,62.1,48.9,62,30.01,10,Calm,0,0,0,None,Clear
2017-06-04,1:51 AM,62.1,62.1,39.9,44,30.01,10,Variable,3.5,0,0,None,Clear
2017-05-03,5:51 PM,62.1,62.1,30.9,31,29.99,10,WNW,12.7,21.9,0,None,Clear
2017-06-07,11:51 AM,62.1,62.1,48,60,29.99,10,Variable,4.6,0,0,None,Overcast
2017-06-07,12:51 PM,62.1,62.1,46.9,58,29.99,10,NE,6.9,0,0,None,Overcast
2017-06-04,2:51 PM,62.1,62.1,53.1,72,29.97,10,Variable,3.5,0,0,Rain,Light Rain
2017-05-01,12:32 PM,62.1,62.1,53.1,72,29.97,5,Calm,0,0,0,None,Haze
2017-09-04,6:51 AM,62.1,62.1,55.9,80,29.97,10,Calm,0,0,0,None,Clear
2017-11-06,5:05 AM,62.1,62.1,59,90,29.97,10,Variable,4.6,0,0,None,Overcast
2017-06-03,10:51 AM,62.1,62.1,50,65,29.96,10,Variable,3.5,0,0,None,Clear
2017-09-04,5:51 AM,62.1,62.1,55.9,80,29.96,10,Variable,4.6,0,0,None,Clear
2017-09-28,10:51 PM,62.1,62.1,43,50,29.96,10,Variable,5.8,0,0,None,Clear
2017-06-01,6:51 AM,62.1,62.1,57.9,86,29.95,10,Calm,0,0,0,None,Clear
2017-06-01,1:51 AM,62.1,62.1,55,78,29.95,10,ENE,4.6,0,0,None,Clear
2017-05-23,9:51 AM,62.1,62.1,48.9,62,29.95,10,NNE,4.6,0,0,None,Clear
2017-09-04,4:51 AM,62.1,62.1,55.9,80,29.94,10,Variable,3.5,0,0,None,Clear
2017-09-06,9:34 PM,62.1,62.1,61,96,29.93,2,West,4.6,0,0.09,Rain,Rain
2017-09-03,10:04 AM,62.1,62.1,61,96,29.93,2,ENE,5.8,0,0.01,Rain,Light Rain
2017-05-03,1:51 PM,62.1,62.1,35.1,37,29.93,10,WNW,12.7,21.9,0,None,Mostly Cloudy
2017-05-28,10:51 PM,62.1,62.1,50,65,29.93,10,SE,4.6,0,0,None,Partly Cloudy
2017-05-28,9:51 PM,62.1,62.1,50,65,29.93,10,Variable,4.6,0,0,None,Scattered Clouds
2017-09-04,3:51 AM,62.1,62.1,55.9,80,29.93,10,Variable,4.6,0,0,None,Clear
2017-11-06,5:51 AM,62.1,62.1,59,90,29.93,6,Variable,4.6,0,0,None,Overcast
2017-09-06,8:44 PM,62.1,62.1,61,96,29.92,2.5,NNE,3.5,0,0.03,Rain,Rain
2017-09-06,10:28 PM,62.1,62.1,61,96,29.92,2.5,West,3.5,0,0.04,Rain,Rain
2017-04-27,6:19 PM,62.1,62.1,57,84,29.92,8,Calm,0,0,0,None,Overcast
2017-11-06,6:51 AM,62.1,62.1,60.1,93,29.92,9,Variable,4.6,0,0,None,Overcast
2017-09-03,10:20 AM,62.1,62.1,61,96,29.92,7,East,5.8,0,0.01,None,Overcast
2017-09-03,10:13 AM,62.1,62.1,61,96,29.92,5,ENE,5.8,0,0.01,None,Overcast
2017-09-06,10:37 PM,62.1,62.1,61,96,29.91,1.2,Calm,0,0,0.07,Rain,Heavy Rain
2017-09-06,5:51 PM,62.1,62.1,57.9,86,29.91,7,Variable,6.9,0,0,Rain,Light Rain
2017-09-07,9:16 AM,62.1,62.1,57,84,29.91,8,Variable,4.6,17.3,0,None,Mostly Cloudy
2017-09-07,9:33 AM,62.1,62.1,57,84,29.91,8,Variable,3.5,0,0,None,Mostly Cloudy
2017-09-07,9:44 AM,62.1,62.1,55.9,80,29.91,9,Variable,5.8,0,0,None,Scattered Clouds
2017-09-06,8:51 PM,62.1,62.1,61,96,29.9,4,Calm,0,0,0.04,Rain,Light Rain
2017-09-06,10:56 PM,62.1,62.1,60.1,93,29.9,3,Calm,0,0,0,Rain,Light Rain
2017-09-06,10:16 PM,62.1,62.1,60.1,93,29.9,3,Variable,3.5,0,0.03,Rain,Light Rain
2017-02-24,12:51 AM,62.1,62.1,50,65,29.9,10,WSW,9.2,0,0,None,Mostly Cloudy
2017-05-03,11:51 AM,62.1,62.1,32,32,29.89,10,West,10.4,21.9,0,None,Mostly Cloudy
2017-09-07,9:51 AM,62.1,62.1,57,84,29.89,9,Variable,5.8,0,0,None,Partly Cloudy
2017-09-06,9:51 PM,62.1,62.1,60.1,93,29.88,2.5,Variable,3.5,0,0.11,Rain,Rain
2017-09-06,10:51 PM,62.1,62.1,60.1,93,29.88,1.8,Variable,4.6,0,0.13,Rain,Light Rain
2017-04-27,6:51 PM,62.1,62.1,57,84,29.88,8,North,0,0,0,None,Overcast
2017-09-07,12:26 AM,62.1,62.1,61,96,29.88,3,NE,3.5,0,0.02,None,Overcast
2017-06-08,6:51 PM,62.1,62.1,45,53,29.88,10,Variable,3.5,0,0,None,Clear
2017-09-07,12:20 AM,62.1,62.1,61,96,29.88,1.8,Variable,3.5,0,0.02,None,Overcast
2017-09-06,11:51 PM,62.1,62.1,61,96,29.87,2.5,Calm,0,0,0.04,Rain,Light Rain
2017-02-19,5:51 PM,62.1,62.1,28.9,29,29.87,10,Variable,3.5,0,0,None,Clear
2017-06-04,6:51 PM,62.1,62.1,55,78,29.87,10,SSE,4.6,0,0,None,Overcast
2017-09-07,3:11 AM,62.1,62.1,60.1,93,29.86,4,West,4.6,0,0,Rain,Light Rain
2017-09-07,3:28 AM,62.1,62.1,61,96,29.86,2.5,Calm,0,0,0,None,Overcast
2017-02-24,7:51 PM,62.1,62.1,54,75,29.86,10,South,5.8,0,0,None,Clear
2017-10-16,4:51 AM,62.1,62.1,55.9,80,29.85,8,Calm,0,0,0.01,Rain,Light Rain
2017-09-07,12:51 AM,62.1,62.1,60.1,93,29.83,5,Variable,5.8,0,0.03,Rain,Light Rain
2017-05-23,10:51 PM,62.1,62.1,48,60,29.82,10,Calm,0,0,0,None,Clear
2017-05-27,1:51 AM,62.1,62.1,53.1,72,29.82,10,Variable,3.5,0,0,None,Clear
2017-09-07,1:51 AM,62.1,62.1,61,96,29.82,4,Variable,4.6,0,0,None,Overcast
2017-10-29,7:10 AM,62.1,62.1,61,96,29.81,5,Variable,3.5,0,0.02,Rain,Light Rain
2017-10-29,9:04 AM,62.1,62.1,61,96,29.79,4,North,0,0,0,Rain,Light Rain
2017-05-24,7:51 PM,62.1,62.1,51.1,67,29.79,10,South,3.5,0,0,None,Clear
2017-05-23,11:51 PM,62.1,62.1,50,65,29.78,10,Calm,0,0,0,None,Clear
2017-10-29,8:51 AM,62.1,62.1,61,96,29.78,7,Calm,0,0,0,None,Overcast
2017-06-05,7:58 AM,62.1,62.1,60.1,93,29.78,3,NE,3.5,0,0,None,Mostly Cloudy
2017-10-29,7:51 AM,62.1,62.1,61,96,29.78,8,Variable,4.6,0,0.02,None,Overcast
2017-10-29,9:34 AM,62.1,62.1,61,96,29.78,5,SE,5.8,0,0.03,None,Overcast
2017-06-05,9:51 AM,62.1,62.1,59,90,29.78,4,ENE,6.9,0,0,None,Overcast
2017-10-29,10:38 AM,62.1,62.1,60.1,93,29.76,8,Variable,4.6,0,0,None,Overcast
2017-10-29,11:09 AM,62.1,62.1,60.1,93,29.75,5,SE,3.5,0,0.01,Rain,Light Rain
2017-10-29,9:51 AM,62.1,62.1,60.1,93,29.75,7,Variable,3.5,17.3,0.03,None,Overcast
2017-10-29,10:51 AM,62.1,62.1,60.1,93,29.73,6,SSE,4.6,0,0.01,Rain,Light Rain
2017-06-05,9:51 PM,62.1,62.1,59,90,29.73,6,Variable,3.5,0,0,None,Overcast
2017-10-25,4:51 AM,62.1,62.1,60.1,93,29.73,7,WNW,5.8,0,0,None,Partly Cloudy
2017-10-29,11:40 AM,62.1,62.1,61,96,29.72,4,East,4.6,0,0.04,Rain,Light Rain
2017-10-25,12:51 PM,62.1,62.1,46,56,29.71,10,Calm,0,0,0,None,Overcast
2017-10-29,11:51 AM,62.1,62.1,61,96,29.7,4,East,5.8,0,0.05,Rain,Light Rain
2017-10-29,12:18 PM,62.1,62.1,61,96,29.69,2,Variable,4.6,0,0.03,Rain,Rain
2017-10-29,12:27 PM,62.1,62.1,61,96,29.68,1.8,ENE,8.1,0,0.06,Rain,Rain
2017-10-29,1:02 PM,62.1,62.1,61,96,29.66,2,ESE,6.9,0,0.08,Rain,Light Rain
2017-10-29,1:24 PM,62.1,62.1,62.1,100,29.63,1.5,East,8.1,0,0.13,Rain,Rain
2017-03-01,12:51 PM,62.1,62.1,57.9,86,29.58,7,North,0,0,0.01,None,Overcast
2017-10-29,1:51 PM,62.1,62.1,62.1,100,29.57,1,Variable,4.6,0,0.54,Rain,Rain
2017-05-06,2:51 PM,62.1,62.1,53.1,72,29.41,8,Calm,0,0,0,None,Overcast
2017-05-06,1:51 PM,62.1,62.1,53.1,72,29.4,8,Variable,5.8,21.9,0,None,Overcast
2017-05-06,6:51 PM,62.1,62.1,53.1,72,29.37,8,Variable,4.6,0,0,None,Overcast
2017-10-29,11:51 PM,62.1,62.1,60.1,93,28.94,10,West,16.1,35.7,0.13,None,Overcast
2017-11-02,9:46 AM,62.6,62.6,59,88,30.3,9,Variable,4.6,0,0,None,Mostly Cloudy
2017-09-07,1:47 AM,62.6,62.6,60.8,94,29.84,6,Calm,0,0,0,None,Overcast
2017-10-03,8:51 AM,63,63,53.1,70,30.61,10,East,4.6,0,0,None,Partly Cloudy
2017-10-03,5:51 PM,63,63,45,52,30.58,10,Variable,5.8,0,0,None,Clear
2017-10-02,8:51 PM,63,63,48,58,30.48,10,SSE,5.8,0,0,None,Clear
2017-10-02,10:51 AM,63,63,44.1,50,30.43,10,ENE,5.8,0,0,None,Clear
2017-10-01,11:51 AM,63,63,42.1,46,30.39,10,ENE,5.8,0,0,None,Clear
2017-04-14,12:51 PM,63,63,28.9,28,30.39,10,Variable,5.8,0,0,None,Clear
2017-05-21,9:51 AM,63,63,35.1,35,30.38,10,Variable,3.5,0,0,None,Clear
2017-10-22,10:51 PM,63,63,54,72,30.38,10,Variable,3.5,0,0,None,Clear
2017-09-10,9:51 PM,63,63,48,58,30.36,10,Calm,0,0,0,None,Clear
2017-09-10,10:51 PM,63,63,48,58,30.36,10,Calm,0,0,0,None,Clear
2017-10-22,12:51 AM,63,63,46.9,56,30.36,10,West,3.5,0,0,None,Clear
2017-10-13,9:35 PM,63,63,55.9,78,30.36,10,SE,4.6,0,0,None,Overcast
2017-10-13,11:42 PM,63,63,57,81,30.35,9,Calm,0,0,0,None,Overcast
2017-10-23,4:38 AM,63,63,61,93,30.35,8,Calm,0,0,0,None,Mostly Cloudy
2017-10-13,6:51 PM,63,63,55.9,78,30.35,10,Variable,4.6,0,0,None,Overcast
2017-10-13,11:28 PM,63,63,57,81,30.35,10,ENE,5.8,0,0,None,Overcast
2017-10-12,3:51 PM,63,63,46,54,30.34,10,North,0,0,0,None,Partly Cloudy
2017-09-11,9:51 AM,63,63,51.1,65,30.34,10,Calm,0,0,0,None,Clear
2017-10-12,2:51 PM,63,63,46.9,56,30.34,10,ENE,15,23,0,None,Scattered Clouds
2017-10-13,7:51 PM,63,63,55.9,78,30.34,10,Variable,3.5,0,0,None,Overcast
2017-10-13,8:51 PM,63,63,55.9,78,30.34,10,Variable,3.5,0,0,None,Overcast
2017-10-13,9:51 PM,63,63,55.9,78,30.34,10,Variable,3.5,0,0,None,Overcast
2017-10-13,10:51 PM,63,63,57,81,30.33,10,Variable,4.6,0,0,None,Overcast
2017-09-11,1:51 AM,63,63,48.9,60,30.33,10,Variable,5.8,0,0,None,Clear
2017-10-23,4:51 AM,63,63,61,93,30.32,9,Calm,0,0,0,None,Mostly Cloudy
2017-05-20,2:51 PM,63,63,42.1,46,30.3,10,Calm,0,0,0,None,Overcast
2017-05-20,4:51 PM,63,63,46.9,56,30.3,10,Calm,0,0,0,None,Clear
2017-05-21,4:51 PM,63,63,34,34,30.3,10,Variable,4.6,18.4,0,None,Clear
2017-04-13,5:51 PM,63,63,26.1,25,30.3,10,Variable,3.5,0,0,None,Clear
2017-08-28,6:51 AM,63,63,55.9,78,30.29,10,Calm,0,0,0,None,Clear
2017-10-01,7:51 PM,63,63,43,48,30.29,10,Calm,0,0,0,None,Clear
2017-11-02,9:51 AM,63,63,59,87,30.28,9,Variable,5.8,0,0,None,Mostly Cloudy
2017-09-09,7:51 PM,63,63,46,54,30.27,10,Variable,3.5,0,0,None,Clear
2017-08-27,7:51 AM,63,63,51.1,65,30.27,10,ENE,5.8,0,0,None,Clear
2017-08-27,5:51 AM,63,63,48.9,60,30.26,10,Calm,0,0,0,None,Clear
2017-08-28,5:51 AM,63,63,55,75,30.26,10,East,3.5,0,0,None,Clear
2017-04-15,2:51 PM,63,63,41,45,30.25,10,Variable,3.5,0,0,None,Mostly Cloudy
2017-08-28,4:51 AM,63,63,55,75,30.25,10,Variable,3.5,0,0,None,Clear
2017-09-02,10:51 AM,63,63,46.9,56,30.25,10,Variable,3.5,0,0,None,Clear
2017-04-12,11:51 PM,63,63,39.9,43,30.25,10,NNE,4.6,0,0,None,Clear
2017-08-26,4:51 AM,63,63,52,67,30.24,10,Calm,0,0,0,None,Clear
2017-10-19,10:51 AM,63,63,46,54,30.24,9,Variable,4.6,0,0,None,Clear
2017-05-04,1:51 PM,63,63,28.9,28,30.23,10,Variable,4.6,0,0,None,Clear
2017-04-12,11:51 AM,63,63,57,81,30.19,10,West,3.5,0,0.01,Rain,Light Rain
2017-10-20,9:51 PM,63,63,37.9,40,30.19,10,Calm,0,0,0,None,Clear
2017-09-01,10:51 PM,63,63,44.1,50,30.18,10,Variable,3.5,0,0,None,Clear
2017-09-01,11:51 PM,63,63,43,48,30.18,10,Variable,3.5,0,0,None,Clear
2017-10-11,11:51 PM,63,63,55.9,78,30.18,10,NE,5.8,0,0,None,Mostly Cloudy
2017-09-30,2:06 PM,63,63,50,63,30.17,9,NE,12.7,19.6,0,None,Overcast
2017-09-30,2:51 PM,63,63,48.9,60,30.16,10,NNE,11.5,23,0,None,Overcast
2017-04-30,4:51 AM,63,63,45,52,30.16,10,NE,8.1,0,0,None,Scattered Clouds
2017-11-03,12:51 AM,63,63,57.9,84,30.15,10,Calm,0,0,0,None,Clear
2017-09-30,12:51 PM,63,63,48.9,60,30.14,10,ENE,8.1,16.1,0,None,Overcast
2017-04-11,7:51 AM,63,63,46,54,30.14,10,Variable,3.5,17.3,0,None,Clear
2017-09-01,10:51 AM,63,63,37.9,40,30.14,10,Variable,4.6,0,0,None,Clear
2017-08-29,6:09 PM,63,63,61,93,30.12,8,ENE,9.2,0,0,Rain,Light Rain
2017-09-30,11:51 AM,63,63,50,63,30.12,10,Variable,5.8,0,0,None,Mostly Cloudy
2017-04-17,9:51 PM,63,63,26.1,25,30.12,10,North,11.5,0,0,None,Clear
2017-06-28,7:51 AM,63,63,51.1,65,30.11,10,West,8.1,0,0,None,Clear
2017-08-29,5:51 PM,63,63,60.1,90,30.1,10,ENE,10.4,18.4,0.02,Rain,Light Rain
2017-04-11,3:51 AM,63,63,45,52,30.1,10,North,0,0,0,None,Clear
2017-04-11,4:51 AM,63,63,45,52,30.1,10,WSW,10.4,0,0,None,Clear
2017-10-19,10:51 PM,63,63,45,52,30.09,10,North,0,0,0,None,Clear
2017-08-29,7:05 PM,63,63,57.9,84,30.09,10,ENE,15,24.2,0,None,Mostly Cloudy
2017-11-03,4:51 AM,63,63,59,87,30.09,10,Variable,3.5,0,0,None,Clear
2017-11-03,5:51 AM,63,63,59,87,30.09,10,Variable,3.5,0,0,None,Clear
2017-08-29,7:24 PM,63,63,59,87,30.09,10,East,8.1,0,0,None,Mostly Cloudy
2017-09-12,2:51 AM,63,63,52,67,30.08,10,Calm,0,0,0,None,Clear
2017-08-29,6:51 PM,63,63,59,87,30.08,10,ENE,12.7,21.9,0,None,Mostly Cloudy
2017-04-20,1:51 PM,63,63,51.1,65,30.08,9,ENE,4.6,0,0,None,Scattered Clouds
2017-08-29,7:51 PM,63,63,57.9,84,30.07,10,NE,9.2,20.7,0.01,Rain,Light Rain
2017-04-03,12:51 PM,63,63,30,29,30.07,10,South,9.2,0,0,None,Clear
2017-06-28,3:51 AM,63,63,50,63,30.06,10,Calm,0,0,0,None,Clear
2017-01-12,10:51 PM,63,63,51.1,65,30.06,10,Variable,6.9,18.4,0,None,Overcast
2017-11-06,6:56 PM,63,63,54,72,30.06,10,NW,6.9,0,0,None,Mostly Cloudy
2017-08-25,5:51 AM,63,63,55.9,78,30.05,10,Calm,0,0,0,None,Clear
2017-06-28,2:51 AM,63,63,50,63,30.05,10,WNW,4.6,0,0,None,Clear
2017-09-29,11:51 AM,63,63,44.1,50,30.05,10,WSW,4.6,0,0,None,Mostly Cloudy
2017-05-31,11:25 AM,63,63,59,87,30.05,10,East,8.1,0,0,None,Scattered Clouds
2017-09-07,11:51 PM,63,63,50,63,30.02,10,Calm,0,0,0,None,Clear
2017-06-08,8:51 AM,63,63,51.1,65,30.02,10,Variable,4.6,0,0,None,Clear
2017-06-27,4:51 AM,63,63,55.9,78,30.01,9,Calm,0,0,0.01,Rain,Light Rain
2017-07-25,5:51 AM,63,63,59,87,30.01,10,Calm,0,0,0,None,Overcast
2017-06-27,7:51 AM,63,63,61,93,30.01,7,NE,3.5,0,0,None,Mostly Cloudy
2017-07-25,4:41 AM,63,63,59,87,30.01,10,Variable,4.6,0,0,None,Overcast
2017-01-12,12:51 PM,63,63,52,67,30,10,SSW,10.4,19.6,0,None,Clear
2017-07-25,3:30 AM,63,63,57.9,84,30,10,ENE,6.9,0,0,None,Overcast
2017-06-02,7:51 AM,63,63,43,48,29.99,10,Calm,0,0,0,None,Clear
2017-06-04,1:51 PM,63,63,48.9,60,29.99,10,Calm,0,0,0,None,Overcast
2017-07-25,4:51 AM,63,63,59,87,29.99,10,Variable,4.6,0,0,None,Overcast
2017-07-25,2:51 AM,63,63,57.9,84,29.99,10,NE,5.8,0,0,None,Overcast
2017-06-02,11:51 PM,63,63,37.9,40,29.98,10,Variable,3.5,0,0,None,Clear
2017-09-04,7:51 AM,63,63,55.9,78,29.98,10,Variable,5.8,0,0,None,Clear
2017-05-03,4:51 PM,63,63,34,34,29.97,10,NW,10.4,20.7,0,None,Clear
2017-06-02,2:51 AM,63,63,45,52,29.97,10,Variable,3.5,0,0,None,Clear
2017-07-25,3:51 AM,63,63,59,87,29.97,9,East,5.8,0,0,None,Overcast
2017-06-01,12:51 AM,63,63,57,81,29.96,10,East,3.5,0,0,None,Partly Cloudy
2017-05-23,10:51 AM,63,63,50,63,29.96,10,Variable,3.5,0,0,None,Clear
2017-11-06,9:36 AM,63,63,59,87,29.95,6,West,8.1,17.3,0,None,Overcast
2017-02-24,9:51 AM,63,63,53.1,70,29.95,10,Variable,5.8,0,0,None,Clear
2017-05-28,8:51 AM,63,63,57.9,84,29.95,6,Variable,5.8,0,0,None,Haze
2017-05-03,2:51 PM,63,63,35.1,35,29.94,10,North,0,0,0,None,Mostly Cloudy
2017-05-28,8:51 PM,63,63,50,63,29.94,10,Variable,4.6,0,0,None,Scattered Clouds
2017-05-27,10:51 PM,63,63,55.9,78,29.93,10,Variable,3.5,0,0,None,Overcast
2017-09-06,5:12 PM,63,63,59,87,29.93,10,Variable,6.9,0,0,None,Overcast
2017-09-04,2:51 AM,63,63,57,81,29.93,10,West,8.1,0,0,None,Clear
2017-09-06,9:13 PM,63,63,61,93,29.92,2,Variable,3.5,0,0.05,Rain,Rain
2017-05-27,11:51 PM,63,63,55.9,78,29.92,10,Variable,4.6,0,0,None,Overcast
2017-11-06,7:51 AM,63,63,60.1,90,29.92,5,Variable,5.8,0,0,None,Overcast
2017-11-06,9:51 AM,63,63,59,87,29.92,7,Variable,5.8,0,0,None,Overcast
2017-09-07,10:15 AM,63,63,57,81,29.92,9,Variable,6.9,0,0,None,Mostly Cloudy
2017-09-06,2:28 PM,63,63,60.1,90,29.91,2,Variable,3.5,0,0.02,Rain,Rain
2017-04-27,10:51 AM,63,63,59,87,29.91,5,Calm,0,0,0,None,Overcast
2017-09-06,6:27 PM,63,63,57.9,84,29.91,10,ENE,5.8,0,0,None,Overcast
2017-06-08,5:51 PM,63,63,45,52,29.91,10,SSE,6.9,0,0,None,Clear
2017-09-06,7:51 PM,63,63,60.1,90,29.9,5,Calm,0,0,0.01,Rain,Light Rain
2017-09-06,1:51 PM,63,63,59,87,29.9,9,Variable,4.6,0,0,None,Overcast
2017-09-03,12:21 PM,63,63,62.1,97,29.9,4,Variable,5.8,0,0.02,None,Overcast
2017-09-03,10:51 AM,63,63,62.1,97,29.89,5,East,3.5,0,0.01,None,Overcast
2017-05-15,9:51 PM,63,63,42.1,46,29.89,10,Variable,5.8,0,0,None,Clear
2017-09-06,2:51 PM,63,63,60.1,90,29.89,7,Variable,5.8,0,0.04,None,Overcast
2017-09-06,4:51 PM,63,63,60.1,90,29.89,9,Variable,5.8,0,0,None,Overcast
2017-09-06,3:51 PM,63,63,60.1,90,29.89,6,Variable,6.9,0,0,None,Overcast
2017-06-04,7:51 PM,63,63,55.9,78,29.88,10,Calm,0,0,0,None,Overcast
2017-05-27,7:51 AM,63,63,55,75,29.88,10,Variable,3.5,0,0,None,Scattered Clouds
2017-06-04,8:51 PM,63,63,57,81,29.87,10,ENE,5.8,0,0,None,Mostly Cloudy
2017-02-24,6:51 PM,63,63,52,67,29.86,10,South,5.8,0,0,None,Clear
2017-10-29,2:51 AM,63,63,59,87,29.86,8,SSE,9.2,0,0,None,Overcast
2017-07-24,12:27 PM,63,63,62.1,97,29.85,7,NE,12.7,18.4,0.01,None,Overcast
2017-07-24,12:51 PM,63,63,61,93,29.84,10,NE,9.2,0,0.01,None,Overcast
2017-05-23,9:51 PM,63,63,48,58,29.83,10,Calm,0,0,0,None,Clear
2017-02-19,12:51 PM,63,63,35.1,35,29.8,10,WNW,6.9,0,0,None,Clear
2017-05-03,12:51 AM,63,63,35.1,35,29.79,10,West,9.2,16.1,0,None,Overcast
2017-05-02,11:51 PM,63,63,35.1,35,29.78,10,West,8.1,0,0,None,Overcast
2017-06-05,8:51 AM,63,63,60.1,90,29.77,3,Calm,0,0,0,None,Overcast
2017-05-24,10:51 AM,63,63,53.1,70,29.77,10,ENE,3.5,0,0,None,Overcast
2017-05-15,12:51 PM,63,63,42.1,46,29.74,10,NW,8.1,23,0,None,Mostly Cloudy
2017-05-15,1:51 PM,63,63,42.1,46,29.74,10,WNW,10.4,28.8,0,None,Mostly Cloudy
2017-06-05,8:51 PM,63,63,60.1,90,29.73,8,SE,3.5,0,0,None,Overcast
2017-10-25,6:51 PM,63,63,45,52,29.7,10,Calm,0,0,0,None,Partly Cloudy
2017-10-25,5:51 PM,63,63,45,52,29.68,10,Calm,0,0,0,None,Overcast
2017-10-25,4:51 PM,63,63,45,52,29.67,10,Calm,0,0,0,None,Partly Cloudy
2017-03-01,1:13 PM,63,63,59,87,29.58,6,Variable,3.5,0,0,None,Mostly Cloudy
2017-03-01,1:51 PM,63,63,57.9,84,29.56,7,Variable,4.6,0,0,None,Overcast
2017-05-06,10:51 AM,63,63,54,72,29.41,8,South,10.4,16.1,0,None,Partly Cloudy
2017-05-06,5:51 PM,63,63,54,72,29.37,8,Variable,4.6,0,0,None,Mostly Cloudy
2017-10-29,9:09 PM,63,63,62.1,97,29.15,1.8,ENE,13.8,20.7,0.09,Rain,Heavy Rain
2017-10-29,9:59 PM,63,63,63,100,29.04,1.5,East,8.1,16.1,0.06,Rain,Rain
2017-10-29,9:51 PM,63,63,62.1,97,29.03,0.8,ENE,8.1,19.6,0.37,Rain,Heavy Rain
2017-10-29,11:32 PM,63,63,62.1,97,28.94,3,WSW,11.5,26.5,0.13,Rain,Light Rain
2017-10-03,9:40 AM,64,64,52,65,30.65,10,East,5.8,0,0,None,Scattered Clouds
2017-10-03,9:51 AM,64,64,53.1,67,30.63,10,Variable,3.5,0,0,None,Scattered Clouds
2017-10-02,7:51 PM,64,64,46.9,54,30.44,10,South,3.5,0,0,None,Clear
2017-10-13,12:51 PM,64,64,52,65,30.41,10,ENE,9.2,0,0,None,Mostly Cloudy
2017-10-13,1:51 PM,64,64,52,65,30.39,10,Variable,5.8,0,0,None,Overcast
2017-10-22,9:51 PM,64,64,52,65,30.38,10,Calm,0,0,0,None,Clear
2017-09-10,9:51 AM,64,64,51.1,63,30.37,10,Variable,6.9,18.4,0,None,Clear
2017-10-22,8:51 PM,64,64,51.1,63,30.37,10,Variable,4.6,0,0,None,Clear
2017-10-22,7:51 PM,64,64,52,65,30.37,10,South,5.8,0,0,None,Clear
2017-10-22,1:51 AM,64,64,45,50,30.36,10,Calm,0,0,0,None,Clear
2017-04-14,2:51 PM,64,64,25,23,30.36,10,Variable,4.6,0,0,None,Clear
2017-09-10,8:51 PM,64,64,46,52,30.35,10,NE,3.5,0,0,None,Clear
2017-10-13,5:51 PM,64,64,55,73,30.35,10,Variable,5.8,0,0,None,Overcast
2017-10-21,9:51 AM,64,64,37,37,30.34,10,Calm,0,0,0,None,Clear
2017-10-23,6:08 AM,64,64,61,90,30.34,10,Calm,0,0,0,None,Overcast
2017-10-23,6:20 AM,64,64,61,90,30.34,10,Calm,0,0,0,None,Overcast
2017-04-14,3:51 PM,64,64,23,21,30.34,10,Variable,3.5,0,0,None,Clear
2017-10-23,6:40 AM,64,64,61,90,30.33,10,Variable,3.5,0,0,None,Overcast
2017-04-14,4:51 PM,64,64,28,26,30.33,10,South,4.6,0,0,None,Clear
2017-10-23,5:51 AM,64,64,61,90,30.32,10,Calm,0,0,0,None,Mostly Cloudy
2017-05-21,3:51 PM,64,64,34,33,30.32,10,SSE,10.4,18.4,0,None,Clear
2017-10-18,11:51 AM,64,64,42.1,45,30.32,10,Variable,4.6,0,0,None,Clear
2017-10-23,7:51 AM,64,64,61,90,30.3,8,Variable,3.5,0,0,None,Mostly Cloudy
2017-10-23,6:51 AM,64,64,61,90,30.3,10,Variable,4.6,0,0,None,Overcast
2017-04-13,4:51 PM,64,64,26.1,24,30.3,10,Variable,5.8,0,0,None,Clear
2017-04-13,3:51 PM,64,64,28,26,30.29,10,North,0,0,0,None,Clear
2017-10-18,9:51 PM,64,64,46.9,54,30.29,10,North,0,0,0,None,Clear
2017-05-20,3:51 PM,64,64,42.1,45,30.29,10,Calm,0,0,0,None,Scattered Clouds
2017-10-01,6:51 PM,64,64,44.1,48,30.28,10,Calm,0,0,0,None,Clear
2017-10-18,8:51 PM,64,64,46.9,54,30.28,10,Variable,3.5,0,0,None,Clear
2017-10-18,10:51 PM,64,64,46.9,54,30.28,10,West,8.1,0,0,None,Clear
2017-10-18,7:51 PM,64,64,50,60,30.27,10,SW,3.5,0,0,None,Clear
2017-08-26,7:51 AM,64,64,53.1,67,30.27,10,Variable,3.5,0,0,None,Clear
2017-08-27,6:51 AM,64,64,48,56,30.27,10,NNE,4.6,0,0,None,Clear
2017-09-09,10:51 AM,64,64,46,52,30.27,10,Variable,4.6,0,0,None,Clear
2017-10-14,9:51 AM,64,64,62.1,93,30.26,6,NNE,4.6,0,0,None,Overcast
2017-09-09,6:51 PM,64,64,46,52,30.26,10,North,6.9,0,0,None,Clear
2017-08-27,2:51 AM,64,64,51.1,63,30.25,10,Calm,0,0,0,None,Clear
2017-08-27,3:51 AM,64,64,48,56,30.25,10,Calm,0,0,0,None,Clear
2017-08-27,4:51 AM,64,64,50,60,30.25,10,NNE,3.5,0,0,None,Clear
2017-04-30,11:51 AM,64,64,42.1,45,30.23,10,Variable,3.5,0,0,None,Overcast
2017-10-20,11:51 PM,64,64,35.1,34,30.22,10,WNW,4.6,0,0,None,Clear
2017-10-20,10:51 PM,64,64,36,35,30.21,10,Variable,3.5,0,0,None,Clear
2017-04-12,12:51 PM,64,64,57,78,30.19,4,Calm,0,0,0,Rain,Rain
2017-09-01,9:51 PM,64,64,42.1,45,30.17,10,Variable,3.5,0,0,None,Clear
2017-11-02,11:51 PM,64,64,57.9,80,30.17,10,Variable,3.5,0,0,None,Partly Cloudy
2017-09-08,9:51 PM,64,64,48.9,58,30.17,10,Variable,6.9,0,0,None,Partly Cloudy
2017-10-11,10:51 PM,64,64,57.9,80,30.17,10,East,8.1,0,0,None,Overcast
2017-09-02,5:51 PM,64,64,52,65,30.16,10,Variable,3.5,0,0,None,Overcast
2017-09-02,6:51 PM,64,64,51.1,63,30.15,10,Variable,6.9,0,0,Rain,Light Rain
2017-04-30,3:51 AM,64,64,43,46,30.14,10,Variable,3.5,0,0,None,Clear
2017-11-03,1:51 AM,64,64,57.9,80,30.14,10,SSW,4.6,0,0,None,Clear
2017-09-30,1:51 PM,64,64,48.9,58,30.14,10,Variable,5.8,0,0,None,Mostly Cloudy
2017-04-11,8:51 AM,64,64,46,52,30.14,10,West,5.8,0,0,None,Clear
2017-08-29,3:51 PM,64,64,61,90,30.13,5,ENE,10.4,19.6,0.05,Rain,Light Rain
2017-08-29,4:39 PM,64,64,62.1,93,30.13,4,Variable,5.8,0,0.05,Rain,Light Rain
2017-11-03,2:51 AM,64,64,57.9,80,30.13,10,Variable,3.5,0,0,None,Clear
2017-08-29,5:05 PM,64,64,61,90,30.12,7,ENE,9.2,17.3,0.01,Rain,Light Rain
2017-09-12,12:51 AM,64,64,52,65,30.12,10,Calm,0,0,0,None,Clear
2017-04-11,1:51 AM,64,64,45,50,30.12,10,Variable,6.9,0,0,None,Clear
2017-09-08,9:51 AM,64,64,50,60,30.11,10,Variable,4.6,18.4,0,None,Clear
2017-11-03,3:51 AM,64,64,59,84,30.11,10,Variable,4.6,0,0,None,Clear
2017-08-29,4:51 PM,64,64,62.1,93,30.1,6,ENE,8.1,0,0.06,Rain,Light Rain
2017-04-11,9:51 PM,64,64,51.1,63,30.09,10,Calm,0,0,0,None,Clear
2017-10-19,9:51 PM,64,64,45,50,30.09,10,Calm,0,0,0,None,Clear
2017-04-17,8:51 PM,64,64,27,25,30.09,10,Variable,5.8,0,0,None,Clear
2017-05-20,1:51 AM,64,64,50,60,30.08,10,NE,9.2,17.3,0,None,Scattered Clouds
2017-08-25,6:51 AM,64,64,55.9,75,30.07,10,Calm,0,0,0,None,Clear
2017-11-03,6:51 AM,64,64,57.9,80,30.07,10,Variable,4.6,0,0,None,Clear
2017-11-03,7:51 AM,64,64,57.9,80,30.07,10,Variable,4.6,0,0,None,Clear
2017-01-12,9:51 PM,64,64,51.1,63,30.06,10,West,9.2,18.4,0,None,Partly Cloudy
2017-08-06,6:51 AM,64,64,52,65,30.06,10,Variable,3.5,0,0,None,Clear
2017-07-25,8:51 AM,64,64,59,84,30.06,10,NE,4.6,0,0,None,Overcast
2017-11-03,8:51 AM,64,64,59,84,30.06,10,Variable,5.8,0,0,None,Clear
2017-08-25,4:51 AM,64,64,55,73,30.04,10,North,0,0,0,None,Clear
2017-07-25,7:51 AM,64,64,59,84,30.04,10,Variable,4.6,0,0,None,Overcast
2017-01-12,7:51 PM,64,64,51.1,63,30.04,10,Variable,5.8,0,0,None,Overcast
2017-08-07,4:17 PM,64,64,63,96,30.03,2.5,Variable,3.5,0,0.03,Rain,Light Rain
2017-07-25,6:51 AM,64,64,59,84,30.03,10,Variable,3.5,0,0,None,Overcast
2017-09-30,12:51 AM,64,64,46,52,30.03,10,Variable,3.5,0,0,None,Overcast
2017-08-12,2:51 AM,64,64,63,96,30.02,4,NNE,3.5,0,0.08,Rain,Light Rain
2017-08-07,4:33 PM,64,64,63,96,30.02,2.5,SSE,6.9,0,0.05,Rain,Light Rain
2017-09-29,7:51 PM,64,64,43,46,30.02,10,Calm,0,0,0,None,Clear
2017-09-01,12:51 AM,64,64,46.9,54,30.02,10,Variable,3.5,0,0,None,Clear
2017-06-08,9:51 AM,64,64,54,70,30.02,10,ENE,4.6,0,0,None,Clear
2017-06-16,1:51 AM,64,64,57,78,30.02,10,Variable,4.6,0,0,None,Clear
2017-06-26,5:51 AM,64,64,51.1,63,30.02,10,West,4.6,0,0,None,Clear
2017-09-29,6:51 PM,64,64,43,46,30.02,10,West,4.6,0,0,None,Clear
2017-04-20,5:51 PM,64,64,50,60,30.02,10,ENE,5.8,0,0,None,Mostly Cloudy
2017-06-07,7:51 PM,64,64,48.9,58,30.01,10,Calm,0,0,0,None,Clear
2017-06-04,12:51 AM,64,64,39.9,41,30.01,10,NW,3.5,0,0,None,Clear
2017-06-16,2:51 AM,64,64,57,78,30.01,10,Variable,3.5,0,0,None,Partly Cloudy
2017-06-16,4:51 AM,64,64,57.9,80,30,10,East,4.6,0,0,None,Mostly Cloudy
2017-06-16,3:51 AM,64,64,57,78,30,10,Variable,5.8,0,0,None,Partly Cloudy
2017-06-16,5:51 AM,64,64,57.9,80,30,10,ESE,6.9,0,0,None,Mostly Cloudy
2017-01-12,4:51 PM,64,64,51.1,63,29.99,10,North,0,0,0,None,Clear
2017-01-12,5:51 PM,64,64,51.1,63,29.99,10,Variable,4.6,0,0,None,Partly Cloudy
2017-06-07,1:51 PM,64,64,48.9,58,29.98,10,Variable,3.5,0,0,None,Overcast
2017-08-30,8:51 AM,64,64,55,73,29.98,10,Variable,4.6,0,0,None,Clear
2017-07-25,1:51 AM,64,64,57.9,80,29.98,10,Variable,5.8,0,0,None,Overcast
2017-05-28,9:18 AM,64,64,57.9,80,29.97,7,Calm,0,0,0,None,Scattered Clouds
2017-06-04,12:51 PM,64,64,46.9,54,29.97,10,Calm,0,0,0,None,Overcast
2017-06-01,12:01 AM,64,64,61,90,29.97,7,Variable,3.5,0,0,None,Mostly Cloudy
2017-05-28,9:11 AM,64,64,57.9,80,29.97,7,SSE,5.8,0,0,None,Mostly Cloudy
2017-07-25,12:51 AM,64,64,57.9,80,29.97,10,Variable,6.9,0,0,None,Overcast
2017-05-28,5:51 PM,64,64,50,60,29.95,10,North,0,0,0,None,Clear
2017-10-28,5:59 PM,64,64,55.9,75,29.95,10,North,0,0,0,None,Mostly Cloudy
2017-10-28,9:21 PM,64,64,59,84,29.95,9,North,0,0,0,None,Scattered Clouds
2017-06-01,7:51 AM,64,64,59,84,29.95,10,Calm,0,0,0,None,Clear
2017-10-28,6:15 PM,64,64,55.9,75,29.95,10,Variable,4.6,0,0,None,Scattered Clouds
2017-09-28,9:51 PM,64,64,44.1,48,29.94,10,North,0,0,0,None,Clear
2017-05-28,7:51 PM,64,64,50,60,29.94,10,Calm,0,0,0,None,Clear
2017-07-30,5:51 AM,64,64,52,65,29.94,10,Calm,0,0,0,None,Clear
2017-05-28,6:51 PM,64,64,48.9,58,29.94,10,South,12.7,18.4,0,None,Clear
2017-06-08,4:51 PM,64,64,51.1,63,29.94,10,Variable,3.5,0,0,None,Clear
2017-10-28,5:51 PM,64,64,55.9,75,29.93,10,South,5.8,0,0,None,Mostly Cloudy
2017-11-06,8:51 AM,64,64,60.1,87,29.93,7,SW,6.9,0,0,None,Overcast
2017-09-07,10:26 AM,64,64,57,78,29.93,9,West,6.9,0,0,None,Scattered Clouds
2017-09-04,12:51 AM,64,64,57.9,80,29.93,10,West,9.2,0,0,None,Clear
2017-10-28,8:51 PM,64,64,59,84,29.92,10,North,0,0,0,None,Mostly Cloudy
2017-05-27,9:51 PM,64,64,55.9,75,29.92,10,Calm,0,0,0,None,Overcast
2017-10-28,9:51 PM,64,64,60.1,87,29.92,9,Variable,3.5,0,0,None,Mostly Cloudy
2017-10-28,10:51 PM,64,64,60.1,87,29.92,9,Variable,5.8,0,0,None,Mostly Cloudy
2017-09-04,1:51 AM,64,64,57,78,29.92,10,West,5.8,0,0,None,Clear
2017-10-28,6:51 PM,64,64,57,78,29.92,10,Variable,6.9,0,0,None,Scattered Clouds
2017-10-28,7:51 PM,64,64,59,84,29.92,10,Variable,6.9,0,0,None,Mostly Cloudy
2017-11-06,4:51 PM,64,64,59,84,29.92,10,Variable,6.9,0,0,None,Partly Cloudy
2017-09-06,2:42 PM,64,64,61,90,29.91,5,NE,8.1,0,0.04,None,Overcast
2017-09-03,11:58 AM,64,64,63,96,29.9,1.8,Variable,4.6,0,0.01,Rain,Light Rain
2017-09-03,11:43 AM,64,64,63,96,29.9,1.8,West,5.8,0,0.01,Rain,Light Rain
2017-09-03,12:05 PM,64,64,63,96,29.9,2.5,WNW,5.8,0,0.01,Rain,Light Rain
2017-09-07,10:51 AM,64,64,55.9,75,29.9,9,WSW,8.1,0,0,None,Mostly Cloudy
2017-11-06,3:51 PM,64,64,59,84,29.89,10,North,0,0,0.01,None,Scattered Clouds
2017-09-06,6:51 PM,64,64,59,84,29.89,10,Variable,5.8,0,0,None,Overcast
2017-11-06,10:51 AM,64,64,59,84,29.89,9,Variable,5.8,0,0,None,Mostly Cloudy
2017-09-03,11:51 AM,64,64,63,96,29.88,0.8,West,6.9,0,0.03,Rain,Light Rain
2017-05-15,8:51 PM,64,64,41,43,29.88,10,NW,8.1,23,0,None,Clear
2017-09-03,1:51 PM,64,64,62.1,93,29.88,10,WNW,6.9,0,0,None,Overcast
2017-07-24,2:05 PM,64,64,60.1,87,29.87,10,Variable,6.9,20.7,0,None,Overcast
2017-09-03,12:51 PM,64,64,62.1,93,29.87,10,Variable,5.8,0,0.02,None,Overcast
2017-02-24,5:51 PM,64,64,52,65,29.86,10,South,10.4,17.3,0,None,Clear
2017-02-19,4:51 PM,64,64,28,26,29.84,10,WNW,8.1,18.4,0,None,Clear
2017-07-24,1:51 PM,64,64,61,90,29.84,10,Variable,6.9,0,0,None,Overcast
2017-05-23,8:51 PM,64,64,48,56,29.83,10,Calm,0,0,0,None,Clear
2017-07-24,11:21 AM,64,64,62.1,93,29.82,4,NE,9.2,17.3,0.03,Rain,Light Rain
2017-07-24,11:06 AM,64,64,62.1,93,29.82,5,NE,10.4,17.3,0.02,Rain,Light Rain
2017-07-24,10:58 AM,64,64,63,96,29.82,2,NE,11.5,17.3,0.02,Rain,Light Rain
2017-07-24,11:41 AM,64,64,62.1,93,29.82,5,NNE,8.1,0,0.04,Rain,Light Rain
2017-02-19,3:51 PM,64,64,30.9,29,29.82,10,WNW,8.1,0,0,None,Clear
2017-07-24,11:34 AM,64,64,63,96,29.81,2.5,Variable,6.9,0,0.04,Rain,Light Rain
2017-05-27,12:51 AM,64,64,53.1,67,29.81,10,Variable,5.8,0,0,None,Clear
2017-06-05,10:58 AM,64,64,60.1,87,29.8,5,ENE,5.8,0,0,None,Scattered Clouds
2017-07-24,11:51 AM,64,64,62.1,93,29.8,8,NE,8.1,0,0.04,None,Overcast
2017-07-24,10:51 AM,64,64,63,96,29.79,1.2,NE,9.2,0,0.28,Rain,Heavy Rain
2017-02-19,1:51 PM,64,64,33.1,31,29.79,10,Variable,6.9,0,0,None,Clear
2017-05-24,6:51 PM,64,64,53.1,67,29.78,10,Calm,0,0,0,None,Scattered Clouds
2017-06-05,10:51 AM,64,64,60.1,87,29.78,5,ENE,6.9,0,0,None,Mostly Cloudy
2017-05-02,10:51 PM,64,64,34,33,29.77,10,Variable,6.9,20.7,0,None,Overcast
2017-06-05,7:51 PM,64,64,61,90,29.75,5,North,0,0,0,None,Overcast
2017-05-15,2:51 PM,64,64,42.1,45,29.74,10,NW,12.7,25.3,0,None,Mostly Cloudy
2017-10-25,3:51 AM,64,64,62.1,93,29.72,7,West,3.5,0,0,None,Clear
2017-10-25,2:51 PM,64,64,41,43,29.68,10,Calm,0,0,0,None,Scattered Clouds
2017-10-25,3:51 PM,64,64,44.1,48,29.67,10,Calm,0,0,0,None,Scattered Clouds
2017-05-01,10:51 PM,64,64,59,84,29.67,8,SSE,8.1,0,0,None,Clear
2017-05-26,10:51 AM,64,64,59,84,29.59,10,North,0,0,0,None,Overcast
2017-10-29,2:31 PM,64,64,63,96,29.57,1.2,North,0,0,0.11,Rain,Rain
2017-10-29,2:13 PM,64,64,63,96,29.57,2.5,SE,10.4,26.5,0.06,Rain,Light Rain
2017-03-01,1:42 PM,64,64,57.9,80,29.57,7,Variable,5.8,0,0,None,Mostly Cloudy
2017-10-29,2:51 PM,64,64,63,96,29.54,0.8,North,0,0,0.22,Rain,Heavy Rain
2017-03-01,2:29 PM,64,64,57.9,80,29.54,7,SSE,6.9,0,0,None,Scattered Clouds
2017-10-29,3:38 PM,64,64,63,96,29.53,1.2,SE,9.2,23,0.43,Rain,Rain
2017-03-01,2:51 PM,64,64,57,78,29.51,7,South,4.6,0,0,None,Clear
2017-10-29,3:51 PM,64,64,63,96,29.5,1,Variable,6.9,23,0.51,Rain,Rain
2017-03-01,3:51 PM,64,64,57,78,29.49,7,Variable,3.5,0,0,None,Overcast
2017-10-29,5:51 PM,64,64,64,100,29.43,4,Variable,4.6,0,0.15,Rain,Light Rain
2017-03-01,11:51 PM,64,64,50,60,29.41,10,WSW,10.4,17.3,0,None,Clear
2017-10-29,8:24 PM,64,64,64,100,29.26,2.5,ESE,11.5,25.3,0.07,Rain,Rain
2017-10-29,8:51 PM,64,64,63,96,29.18,2,ESE,4.6,0,0.18,Rain,Heavy Rain
2017-10-29,10:08 PM,64,64,63,96,29.02,2,East,10.4,18.4,0.1,Rain,Rain
2017-10-15,5:46 AM,64.4,64.4,62.6,94,30.12,4,Variable,5.8,0,0,None,Overcast
2017-04-20,3:46 PM,64.4,64.4,50,59,30.07,10,Variable,4.6,0,0,None,Scattered Clouds
2017-08-07,3:49 PM,64.4,64.4,64.4,100,30.05,3,Variable,3.5,0,0.12,Rain,Light Rain
2017-08-12,6:48 AM,64.4,64.4,64.4,100,29.99,7,NE,3.5,0,0,None,Scattered Clouds
2017-09-03,1:48 PM,64.4,64.4,62.6,94,29.9,10,North,0,0,0,None,Overcast
2017-10-29,1:49 AM,64.4,64.4,60.8,88,29.89,9,Calm,0,0,0,None,Overcast
2017-04-27,4:46 PM,64.4,64.4,57.2,77,29.89,7,South,9.2,17.3,0,None,Mostly Cloudy
2017-10-29,2:47 AM,64.4,64.4,60.8,88,29.88,8,North,0,0,0,None,Overcast
2017-07-24,10:49 AM,64.4,64.4,62.6,94,29.82,1,NE,9.2,0,0.27,Rain,Heavy Rain
2017-10-29,4:46 PM,64.4,64.4,64.4,100,29.5,2,SSE,9.2,0,0.16,Rain,Light Rain
2017-10-03,4:51 PM,64.9,64.9,45,48,30.58,10,SE,3.5,0,0,None,Clear
2017-10-02,6:51 PM,64.9,64.9,42.1,43,30.43,10,Variable,4.6,0,0,None,Clear
2017-10-04,10:51 AM,64.9,64.9,54,68,30.42,10,Calm,0,0,0,None,Clear
2017-10-22,9:51 AM,64.9,64.9,48,54,30.41,8,Calm,0,0,0,None,Clear
2017-05-21,10:51 AM,64.9,64.9,33.1,31,30.38,10,Calm,0,0,0,None,Clear
2017-04-14,1:51 PM,64.9,64.9,27,24,30.38,10,ENE,4.6,0,0,None,Clear
2017-10-13,5:03 PM,64.9,64.9,53.1,65,30.37,10,East,5.8,0,0,None,Overcast
2017-10-13,2:51 PM,64.9,64.9,52,63,30.37,10,ENE,8.1,0,0,None,Overcast
2017-10-01,12:51 PM,64.9,64.9,42.1,43,30.36,10,NE,4.6,0,0,None,Clear
2017-10-13,3:51 PM,64.9,64.9,52,63,30.36,10,ENE,6.9,0,0,None,Mostly Cloudy
2017-10-21,11:51 PM,64.9,64.9,46.9,52,30.35,10,Variable,3.5,0,0,None,Clear
2017-10-22,6:51 PM,64.9,64.9,50,58,30.35,10,Variable,3.5,0,0,None,Clear
2017-10-13,4:51 PM,64.9,64.9,53.1,65,30.35,10,East,5.8,0,0,None,Overcast
2017-10-01,1:51 PM,64.9,64.9,41,42,30.34,10,Calm,0,0,0,None,Clear
2017-05-21,2:51 PM,64.9,64.9,32,29,30.33,10,SSE,9.2,18.4,0,None,Clear
2017-08-28,7:51 AM,64.9,64.9,57.9,78,30.31,10,ENE,4.6,0,0,None,Clear
2017-11-02,10:43 AM,64.9,64.9,59,81,30.3,8,Calm,0,0,0,None,Overcast
2017-10-18,6:51 PM,64.9,64.9,48.9,56,30.26,10,Variable,3.5,0,0,None,Clear
2017-09-09,5:51 PM,64.9,64.9,48,54,30.26,10,North,9.2,0,0,None,Overcast
2017-08-27,1:51 AM,64.9,64.9,53.1,65,30.25,10,NNE,3.5,0,0,None,Clear
2017-08-28,2:51 AM,64.9,64.9,55.9,73,30.24,10,Calm,0,0,0,None,Clear
2017-07-26,5:51 AM,64.9,64.9,57,75,30.24,10,NNE,3.5,0,0,None,Overcast
2017-09-02,11:51 AM,64.9,64.9,46.9,52,30.24,10,Variable,3.5,0,0,None,Clear
2017-08-28,3:51 AM,64.9,64.9,55.9,73,30.24,10,Variable,4.6,0,0,None,Clear
2017-08-26,3:51 AM,64.9,64.9,51.1,61,30.23,10,Calm,0,0,0,None,Clear
2017-07-26,4:51 AM,64.9,64.9,57.9,78,30.22,10,North,3.5,0,0,None,Mostly Cloudy
2017-08-26,2:51 AM,64.9,64.9,48.9,56,30.22,10,Variable,3.5,0,0,None,Clear
2017-08-29,5:51 AM,64.9,64.9,55.9,73,30.22,10,ENE,5.8,0,0,None,Clear
2017-04-12,10:51 PM,64.9,64.9,45,48,30.22,10,NE,5.8,0,0,None,Clear
2017-04-15,3:51 PM,64.9,64.9,43,45,30.22,10,SSE,8.1,0,0,None,Mostly Cloudy
2017-10-11,10:07 PM,64.9,64.9,59,81,30.18,10,ENE,11.5,17.3,0,None,Overcast
2017-11-02,10:51 PM,64.9,64.9,57.9,78,30.18,10,Variable,3.5,0,0,None,Clear
2017-08-29,1:51 PM,64.9,64.9,59,81,30.17,8,ENE,10.4,18.4,0.01,Rain,Light Rain
2017-09-30,1:58 PM,64.9,64.9,48.9,56,30.17,10,Variable,5.8,0,0,None,Overcast
2017-10-11,9:51 PM,64.9,64.9,60.1,84,30.17,10,East,9.2,0,0,None,Overcast
2017-10-20,8:51 PM,64.9,64.9,37,36,30.16,10,Variable,3.5,0,0,None,Clear
2017-09-08,8:51 PM,64.9,64.9,48.9,56,30.16,10,West,5.8,0,0,None,Clear
2017-08-29,2:51 PM,64.9,64.9,61,87,30.14,6,ENE,9.2,0,0.03,Rain,Light Rain
2017-04-30,2:51 AM,64.9,64.9,44.1,47,30.14,10,Variable,4.6,0,0,None,Overcast
2017-10-11,7:51 PM,64.9,64.9,63,93,30.14,9,Variable,4.6,0,0.01,None,Overcast
2017-10-11,6:51 PM,64.9,64.9,64,97,30.13,6,SE,4.6,0,0.05,Rain,Light Rain
2017-06-28,8:51 AM,64.9,64.9,50,58,30.13,10,Variable,6.9,0,0,None,Clear
2017-07-14,8:59 AM,64.9,64.9,63,93,30.12,3,Variable,5.8,0,0.01,Rain,Light Rain
2017-07-25,11:51 AM,64.9,64.9,59,81,30.11,10,Variable,4.6,0,0,None,Overcast
2017-09-12,1:51 AM,64.9,64.9,53.1,65,30.1,10,Calm,0,0,0,None,Clear
2017-10-15,6:17 AM,64.9,64.9,63,93,30.1,6,Calm,0,0,0,None,Overcast
2017-04-11,2:51 AM,64.9,64.9,45,48,30.1,10,WSW,9.2,23,0,None,Clear
2017-10-15,5:51 AM,64.9,64.9,63,93,30.09,4,Calm,0,0,0,None,Overcast
2017-07-14,7:51 AM,64.9,64.9,64,97,30.09,8,Variable,5.8,0,0.01,None,Overcast
2017-07-25,10:51 AM,64.9,64.9,59,81,30.09,10,Variable,6.9,0,0,None,Overcast
2017-04-11,8:51 PM,64.9,64.9,52,63,30.08,10,NE,3.5,0,0,None,Clear
2017-04-20,3:22 PM,64.9,64.9,50,58,30.08,10,Variable,4.6,0,0,None,Mostly Cloudy
2017-10-19,8:51 PM,64.9,64.9,44.1,47,30.08,10,Variable,4.6,0,0,None,Clear
2017-08-25,7:51 AM,64.9,64.9,55.9,73,30.08,10,NNW,5.8,0,0,None,Clear
2017-08-06,7:51 AM,64.9,64.9,53.1,65,30.08,10,WNW,6.9,0,0,None,Clear
2017-07-25,9:51 AM,64.9,64.9,59,81,30.07,10,Variable,4.6,0,0,None,Overcast
2017-08-07,3:34 PM,64.9,64.9,64,97,30.06,2,Variable,5.8,0,0.1,Rain,Light Rain
2017-04-20,2:51 PM,64.9,64.9,50,58,30.06,9,Variable,6.9,0,0,None,Partly Cloudy
2017-06-15,10:51 PM,64.9,64.9,55,70,30.04,10,North,0,0,0,None,Clear
2017-06-15,11:51 PM,64.9,64.9,55,70,30.04,10,Calm,0,0,0,None,Clear
2017-09-29,12:51 PM,64.9,64.9,42.1,43,30.04,10,Calm,0,0,0,None,Mostly Cloudy
2017-01-12,8:51 PM,64.9,64.9,51.1,61,30.04,10,WSW,11.5,18.4,0,None,Overcast
2017-08-06,5:51 AM,64.9,64.9,52,63,30.04,10,Variable,3.5,0,0,None,Clear
2017-06-15,5:51 AM,64.9,64.9,57,75,30.04,10,ESE,4.6,0,0,None,Clear
2017-04-20,3:51 PM,64.9,64.9,50,58,30.04,10,Variable,4.6,0,0,None,Partly Cloudy
2017-06-16,12:51 AM,64.9,64.9,55.9,73,30.04,10,SSE,6.9,0,0,None,Clear
2017-08-07,3:51 PM,64.9,64.9,64,97,30.03,3,South,5.8,0,0.12,Rain,Light Rain
2017-08-07,4:24 PM,64.9,64.9,63,93,30.03,4,Variable,5.8,0,0.04,Rain,Light Rain
2017-08-25,3:51 AM,64.9,64.9,54,68,30.03,10,Calm,0,0,0,None,Clear
2017-09-08,12:51 AM,64.9,64.9,48.9,56,30.03,10,Variable,3.5,0,0,None,Clear
2017-08-06,4:51 AM,64.9,64.9,52,63,30.03,10,Variable,5.8,0,0,None,Clear
2017-04-20,4:51 PM,64.9,64.9,50,58,30.03,10,NE,6.9,0,0,None,Overcast
2017-10-28,10:51 AM,64.9,64.9,39.9,40,30.03,10,South,8.1,0,0,None,Clear
2017-05-16,9:51 AM,64.9,64.9,45,48,30.02,10,NW,5.8,0,0,None,Clear
2017-06-27,8:51 AM,64.9,64.9,61,87,30.01,10,Calm,0,0,0,None,Clear
2017-07-25,1:29 AM,64.9,64.9,59,81,30.01,10,Variable,3.5,0,0,None,Overcast
2017-01-12,6:51 PM,64.9,64.9,51.1,61,30.01,10,Variable,4.6,0,0,None,Clear
2017-09-07,10:51 PM,64.9,64.9,48.9,56,30,10,North,0,0,0,None,Clear
2017-06-03,11:51 PM,64.9,64.9,39.9,40,30,10,Calm,0,0,0,None,Clear
2017-06-26,4:51 AM,64.9,64.9,50,58,30,10,Calm,0,0,0,None,Clear
2017-06-07,6:51 PM,64.9,64.9,50,58,30,10,SSW,3.5,0,0,None,Clear
2017-08-12,4:20 AM,64.9,64.9,64,97,30,9,East,4.6,0,0,None,Overcast
2017-08-07,4:51 PM,64.9,64.9,63,93,29.99,3,North,0,0,0.08,Rain,Light Rain
2017-08-07,6:01 PM,64.9,64.9,64,97,29.99,6,Variable,4.6,0,0,Rain,Light Rain
2017-06-07,3:51 PM,64.9,64.9,48.9,56,29.99,10,Calm,0,0,0,None,Mostly Cloudy
2017-06-07,5:51 PM,64.9,64.9,50,58,29.99,10,Calm,0,0,0,None,Mostly Cloudy
2017-08-12,7:11 AM,64.9,64.9,64,97,29.99,8,Calm,0,0,0,None,Mostly Cloudy
2017-08-12,7:26 AM,64.9,64.9,64,97,29.99,7,Calm,0,0,0,None,Scattered Clouds
2017-06-02,8:51 AM,64.9,64.9,44.1,47,29.99,10,WNW,3.5,0,0,None,Clear
2017-01-12,3:51 PM,64.9,64.9,51.1,61,29.98,10,SW,9.2,18.4,0,None,Clear
2017-06-02,10:51 PM,64.9,64.9,39,39,29.98,10,Variable,3.5,0,0,None,Clear
2017-06-07,2:51 PM,64.9,64.9,48.9,56,29.98,10,Variable,3.5,0,0,None,Overcast
2017-09-04,8:51 AM,64.9,64.9,55.9,73,29.98,10,Variable,3.5,0,0,None,Clear
2017-06-08,1:51 PM,64.9,64.9,51.1,61,29.98,10,Variable,5.8,0,0,None,Clear
2017-01-12,1:51 PM,64.9,64.9,52,63,29.98,10,SW,8.1,0,0,None,Scattered Clouds
2017-01-12,2:51 PM,64.9,64.9,51.1,61,29.97,10,SW,8.1,19.6,0,None,Clear
2017-08-12,5:51 AM,64.9,64.9,64,97,29.97,10,ENE,3.5,0,0,None,Overcast
2017-08-12,6:51 AM,64.9,64.9,64,97,29.97,8,ENE,3.5,0,0,None,Scattered Clouds
2017-08-12,3:51 AM,64.9,64.9,64,97,29.97,7,Variable,4.6,0,0.02,None,Overcast
2017-06-02,1:51 AM,64.9,64.9,44.1,47,29.97,10,North,5.8,0,0,None,Clear
2017-08-07,5:51 PM,64.9,64.9,64,97,29.96,6,Variable,5.8,0,0.03,Rain,Light Rain
2017-06-03,11:51 AM,64.9,64.9,43,45,29.96,10,North,0,0,0,None,Mostly Cloudy
2017-07-24,11:51 PM,64.9,64.9,57.9,78,29.96,10,East,5.8,0,0,None,Overcast
2017-08-12,4:51 AM,64.9,64.9,64,97,29.96,7,East,5.8,0,0,None,Overcast
2017-07-30,6:51 AM,64.9,64.9,51.1,61,29.96,10,Variable,5.8,0,0,None,Clear
2017-05-31,11:51 PM,64.9,64.9,62.1,90,29.95,7,Variable,3.5,17.3,0,None,Mostly Cloudy
2017-05-03,3:51 PM,64.9,64.9,34,32,29.95,10,NW,11.5,18.4,0,None,Scattered Clouds
2017-05-28,9:51 AM,64.9,64.9,59,81,29.94,8,Calm,0,0,0,None,Partly Cloudy
2017-05-01,1:09 PM,64.9,64.9,53.1,65,29.94,5,East,3.5,0,0,None,Haze
2017-05-31,10:51 PM,64.9,64.9,62.1,90,29.94,10,Variable,4.6,0,0,None,Partly Cloudy
2017-07-24,10:51 PM,64.9,64.9,57.9,78,29.94,10,Variable,5.8,0,0,None,Overcast
2017-11-06,11:16 AM,64.9,64.9,57.9,78,29.93,9,North,0,0,0,None,Mostly Cloudy
2017-05-01,12:51 PM,64.9,64.9,54,68,29.93,5,Calm,0,0,0,None,Haze
2017-05-23,11:51 AM,64.9,64.9,48.9,56,29.93,10,Calm,0,0,0,None,Clear
2017-07-30,4:51 AM,64.9,64.9,52,63,29.93,10,NNW,3.5,0,0,None,Clear
2017-09-07,10:39 AM,64.9,64.9,57.9,78,29.93,10,WNW,5.8,0,0,None,Mostly Cloudy
2017-05-23,12:51 PM,64.9,64.9,48,54,29.93,10,North,6.9,0,0,None,Clear
2017-11-06,11:03 AM,64.9,64.9,59,81,29.93,9,WSW,8.1,0,0,None,Scattered Clouds
2017-09-06,10:40 AM,64.9,64.9,61,87,29.92,8,Calm,0,0,0,None,Overcast
2017-10-28,4:51 PM,64.9,64.9,55,70,29.92,10,Variable,3.5,0,0,None,Mostly Cloudy
2017-09-06,11:01 AM,64.9,64.9,61,87,29.92,9,Variable,5.8,0,0,None,Overcast
2017-09-03,11:51 PM,64.9,64.9,57.9,78,29.92,10,WSW,5.8,0,0,None,Clear
2017-09-06,11:31 AM,64.9,64.9,59,81,29.92,9,Variable,6.9,0,0,None,Overcast
2017-07-24,9:20 PM,64.9,64.9,59,81,29.92,10,East,8.1,0,0,None,Mostly Cloudy
2017-10-29,1:21 AM,64.9,64.9,60.1,84,29.91,9,SSE,4.6,0,0,None,Overcast
2017-11-06,12:10 PM,64.9,64.9,57.9,78,29.91,10,Variable,4.6,0,0,None,Overcast
2017-07-24,9:51 PM,64.9,64.9,57.9,78,29.91,10,Variable,6.9,0,0,None,Overcast
2017-11-06,2:51 PM,64.9,64.9,57.9,78,29.9,6,Variable,3.5,17.3,0,Rain,Light Rain
2017-09-06,10:51 AM,64.9,64.9,61,87,29.9,8,North,0,0,0,None,Overcast
2017-10-28,11:51 PM,64.9,64.9,61,87,29.9,9,North,0,0,0,None,Overcast
2017-05-27,8:51 PM,64.9,64.9,57,75,29.9,10,Calm,0,0,0,None,Scattered Clouds
2017-11-06,11:51 AM,64.9,64.9,59,81,29.9,9,Variable,3.5,0,0,None,Overcast
2017-09-03,2:36 PM,64.9,64.9,62.1,90,29.89,10,Variable,3.5,0,0,None,Overcast
2017-10-29,12:51 AM,64.9,64.9,61,87,29.89,9,Variable,4.6,0,0,None,Overcast
2017-08-08,5:51 AM,64.9,64.9,64,97,29.88,4,Calm,0,0,0,None,Overcast
2017-11-06,12:51 PM,64.9,64.9,57.9,78,29.88,10,Variable,3.5,0,0,None,Overcast
2017-05-27,8:51 AM,64.9,64.9,54,68,29.88,10,North,5.8,0,0,None,Clear
2017-09-06,11:51 AM,64.9,64.9,57.9,78,29.88,10,Variable,6.9,0,0,None,Overcast
2017-09-06,12:51 PM,64.9,64.9,57.9,78,29.88,10,Variable,6.9,0,0,None,Overcast
2017-10-29,1:51 AM,64.9,64.9,60.1,84,29.87,9,North,0,0,0,None,Overcast
2017-04-27,4:51 PM,64.9,64.9,57.9,78,29.87,7,South,8.1,17.3,0,None,Mostly Cloudy
2017-02-24,4:51 PM,64.9,64.9,52,63,29.86,10,South,8.1,0,0,None,Clear
2017-05-15,7:51 PM,64.9,64.9,41,42,29.84,10,WNW,11.5,24.2,0,None,Clear
2017-05-23,7:51 PM,64.9,64.9,48,54,29.83,10,Calm,0,0,0,None,Clear
2017-07-24,10:21 AM,64.9,64.9,63,93,29.8,1.5,NNE,9.2,19.6,0.02,Rain,Rain
2017-05-26,11:51 PM,64.9,64.9,52,63,29.8,10,Variable,3.5,0,0,None,Clear
2017-05-24,11:41 AM,64.9,64.9,51.1,61,29.79,10,East,5.8,0,0,None,Overcast
2017-05-24,11:32 AM,64.9,64.9,53.1,65,29.79,10,Variable,6.9,0,0,None,Overcast
2017-02-19,2:51 PM,64.9,64.9,30,27,29.79,10,West,6.9,0,0,None,Clear
2017-10-25,2:51 AM,64.9,64.9,62.1,90,29.74,8,WNW,3.5,0,0,None,Clear
2017-06-05,6:51 PM,64.9,64.9,60.1,84,29.73,7,Variable,3.5,0,0,None,Overcast
2017-06-05,5:51 PM,64.9,64.9,60.1,84,29.73,7,ENE,5.8,0,0,None,Overcast
2017-10-25,1:51 PM,64.9,64.9,44.1,47,29.68,10,Calm,0,0,0,None,Mostly Cloudy
2017-05-01,11:51 PM,64.9,64.9,60.1,84,29.65,8,Variable,5.8,0,0,None,Clear
2017-05-02,1:51 AM,64.9,64.9,60.1,84,29.61,8,SSE,6.9,0,0,None,Clear
2017-10-29,5:17 PM,64.9,64.9,64,97,29.49,2.5,Variable,5.8,18.4,0.06,Rain,Light Rain
2017-10-29,6:10 PM,64.9,64.9,64,97,29.44,2.5,SE,9.2,17.3,0.04,Rain,Light Rain
2017-10-29,6:19 PM,64.9,64.9,64,97,29.44,3,SE,10.4,17.3,0.06,Rain,Light Rain
2017-03-01,10:51 PM,64.9,64.9,48.9,56,29.42,10,WSW,10.4,19.6,0,None,Clear
2017-03-01,9:51 PM,64.9,64.9,50,58,29.42,10,WSW,5.8,0,0,None,Clear
2017-05-06,12:51 PM,64.9,64.9,53.1,65,29.4,9,North,0,0,0,None,Partly Cloudy
2017-10-29,6:51 PM,64.9,64.9,64,97,29.37,5,SE,9.2,17.3,0.11,Rain,Light Rain
2017-10-29,7:28 PM,64.9,64.9,64,97,29.36,3,Variable,4.6,21.9,0.09,Rain,Light Rain
2017-10-29,7:51 PM,64.9,64.9,64,97,29.3,6,East,8.1,0,0.12,Rain,Light Rain
2017-10-03,10:51 AM,66,66,50,56,30.64,10,SSE,3.5,0,0,None,Mostly Cloudy
2017-10-02,11:51 AM,66,66,44.1,45,30.42,10,Calm,0,0,0,None,Clear
2017-09-10,10:51 AM,66,66,50,56,30.37,10,North,11.5,17.3,0,None,Clear
2017-05-21,11:51 AM,66,66,34,30,30.37,10,South,8.1,0,0,None,Clear
2017-04-18,1:51 PM,66,66,30,26,30.36,10,Calm,0,0,0,None,Clear
2017-10-21,8:51 PM,66,66,43,43,30.35,10,Calm,0,0,0,None,Clear
2017-10-21,7:51 PM,66,66,41,40,30.34,10,Calm,0,0,0,None,Clear
2017-10-21,6:51 PM,66,66,41,40,30.33,10,Calm,0,0,0,None,Clear
2017-10-23,8:59 AM,66,66,62.1,87,30.33,9,Calm,0,0,0,None,Overcast
2017-09-11,10:51 AM,66,66,50,56,30.32,10,Variable,3.5,0,0,None,Clear
2017-10-01,2:51 PM,66,66,42.1,42,30.31,10,Variable,3.5,0,0,None,Clear
2017-10-23,8:51 AM,66,66,62.1,87,30.31,8,Variable,3.5,0,0,None,Overcast
2017-10-01,3:51 PM,66,66,42.1,42,30.29,10,Calm,0,0,0,None,Clear
2017-10-01,5:51 PM,66,66,39,37,30.28,10,Calm,0,0,0,None,Clear
2017-08-27,12:51 AM,66,66,52,60,30.26,10,East,4.6,0,0,None,Clear
2017-08-26,8:51 AM,66,66,55,68,30.26,10,Variable,5.8,0,0,None,Clear
2017-08-29,12:51 AM,66,66,55,68,30.26,10,Variable,5.8,0,0,None,Clear
2017-10-18,5:51 PM,66,66,48.9,54,30.25,10,North,0,0,0,None,Clear
2017-07-26,7:51 AM,66,66,57,73,30.25,10,Variable,3.5,0,0,None,Clear
2017-08-29,1:51 AM,66,66,55,68,30.25,10,Variable,3.5,0,0,None,Clear
2017-10-14,10:51 AM,66,66,62.1,87,30.25,8,Variable,4.6,0,0,None,Overcast
2017-08-28,1:51 AM,66,66,55.9,70,30.25,10,East,5.8,0,0,None,Clear
2017-09-09,4:51 PM,66,66,48.9,54,30.25,10,Variable,6.9,0,0,None,Mostly Cloudy
2017-08-29,8:16 AM,66,66,57.9,75,30.23,10,ENE,10.4,17.3,0,None,Mostly Cloudy
2017-08-29,10:35 AM,66,66,59,78,30.23,10,East,11.5,18.4,0,None,Overcast
2017-07-26,4:25 AM,66,66,57,73,30.23,10,ENE,3.5,0,0,None,Overcast
2017-08-29,6:51 AM,66,66,55.9,70,30.22,10,ENE,10.4,18.4,0,None,Overcast
2017-07-26,2:51 AM,66,66,57,73,30.22,10,Variable,4.6,0,0,None,Overcast
2017-08-29,4:51 AM,66,66,55.9,70,30.22,10,Variable,4.6,0,0,None,Clear
2017-08-29,2:51 AM,66,66,55.9,70,30.22,10,ENE,6.9,0,0,None,Clear
2017-08-29,3:51 AM,66,66,55,68,30.22,10,Variable,6.9,0,0,None,Clear
2017-09-02,12:51 PM,66,66,46.9,50,30.22,10,ENE,8.1,0,0,None,Clear
2017-08-29,7:51 AM,66,66,57.9,75,30.22,10,East,12.7,0,0,None,Mostly Cloudy
2017-07-26,3:51 AM,66,66,57,73,30.21,10,ENE,5.8,0,0,None,Overcast
2017-08-29,8:51 AM,66,66,59,78,30.21,10,ENE,9.2,0,0,None,Scattered Clouds
2017-08-29,1:29 PM,66,66,57.9,75,30.2,8,East,6.9,0,0.01,Rain,Light Rain
2017-08-29,9:51 AM,66,66,59,78,30.2,10,ENE,9.2,18.4,0,None,Scattered Clouds
2017-11-02,9:51 PM,66,66,57.9,75,30.19,10,Calm,0,0,0,None,Clear
2017-09-02,2:51 PM,66,66,48,52,30.19,10,Variable,3.5,0,0,None,Clear
2017-04-10,10:51 AM,66,66,36,33,30.18,10,Variable,4.6,0,0,None,Clear
2017-10-11,9:17 PM,66,66,61,84,30.18,10,ENE,10.4,0,0,None,Overcast
2017-10-20,10:51 AM,66,66,28.9,25,30.17,10,Calm,0,0,0,None,Clear
2017-10-11,9:30 PM,66,66,60.1,81,30.17,10,East,5.8,16.1,0,None,Overcast
2017-09-02,4:51 PM,66,66,48.9,54,30.17,10,Variable,6.9,0,0,None,Clear
2017-10-11,8:51 PM,66,66,62.1,87,30.16,10,Variable,4.6,0,0,None,Overcast
2017-09-01,8:51 PM,66,66,43,43,30.15,10,Variable,4.6,0,0,None,Clear
2017-09-11,11:51 PM,66,66,50,56,30.13,10,Calm,0,0,0,None,Clear
2017-09-01,11:51 AM,66,66,37,34,30.13,10,Variable,3.5,0,0,None,Clear
2017-04-10,10:51 PM,66,66,44.1,45,30.13,10,Variable,5.8,0,0,None,Clear
2017-08-07,10:59 AM,66,66,64.9,96,30.12,1.8,Calm,0,0,0.01,Rain,Rain
2017-08-07,11:11 AM,66,66,64.9,96,30.12,2,Calm,0,0,0.02,Rain,Light Rain
2017-07-14,9:27 AM,66,66,64.9,96,30.12,1.8,Variable,3.5,0,0.06,Rain,Light Rain
2017-08-07,11:59 AM,66,66,64.9,96,30.12,2.5,Variable,4.6,0,0.02,Rain,Light Rain
2017-07-14,9:38 AM,66,66,64,93,30.12,3,Variable,5.8,0,0.09,Rain,Light Rain
2017-04-12,8:51 AM,66,66,51.1,59,30.12,9,NW,3.5,0,0,None,Mostly Cloudy
2017-04-30,1:51 AM,66,66,48,52,30.12,10,Variable,3.5,0,0,None,Overcast
2017-07-25,12:51 PM,66,66,59,78,30.12,10,Variable,6.9,0,0,None,Overcast
2017-08-07,12:28 PM,66,66,64.9,96,30.11,3,NNE,4.6,0,0.05,Rain,Light Rain
2017-10-15,8:16 AM,66,66,64,93,30.1,3,Calm,0,0,0,None,Overcast
2017-10-15,8:26 AM,66,66,64.9,96,30.1,3,Calm,0,0,0,None,Overcast
2017-10-11,4:51 AM,66,66,55.9,70,30.1,10,Variable,3.5,0,0,None,Clear
2017-10-15,7:30 AM,66,66,63,90,30.1,8,Variable,3.5,0,0,None,Overcast
2017-08-07,9:51 AM,66,66,64.9,96,30.1,4,WNW,3.5,0,0.11,None,Overcast
2017-08-07,11:51 AM,66,66,64.9,96,30.09,1.8,Variable,3.5,0,0.06,Rain,Rain
2017-07-14,10:51 AM,66,66,64,93,30.09,6,Variable,4.6,0,0.06,Rain,Light Rain
2017-07-14,6:51 AM,66,66,63,90,30.09,5,East,5.8,0,0,Rain,Light Rain
2017-07-14,9:51 AM,66,66,64.9,96,30.09,4,East,5.8,0,0.1,Rain,Light Rain
2017-07-14,8:51 AM,66,66,64,93,30.09,1.2,ENE,6.9,0,0.05,Rain,Heavy Rain
2017-10-19,7:51 PM,66,66,43,43,30.09,10,Variable,4.6,0,0,None,Clear
2017-07-27,2:51 AM,66,66,60.1,81,30.09,10,Variable,5.8,0,0,None,Clear
2017-10-15,6:51 AM,66,66,63,90,30.08,7,North,0,0,0,None,Overcast
2017-07-27,3:51 AM,66,66,60.1,81,30.08,10,Variable,3.5,0,0,None,Clear
2017-10-19,6:51 PM,66,66,43,43,30.08,10,Variable,5.8,0,0,None,Clear
2017-08-07,2:26 PM,66,66,64.9,96,30.07,2.5,East,5.8,0,0.06,Rain,Light Rain
2017-07-27,5:51 AM,66,66,60.1,81,30.07,10,Calm,0,0,0,None,Clear
2017-10-15,7:51 AM,66,66,64,93,30.07,3,Calm,0,0,0,None,Overcast
2017-07-14,5:51 AM,66,66,63,90,30.07,8,ENE,8.1,0,0,None,Overcast
2017-08-07,2:38 PM,66,66,64.9,96,30.06,1.8,Variable,4.6,0,0.08,Rain,Rain
2017-04-17,7:51 PM,66,66,27,23,30.06,10,Variable,6.9,17.3,0,None,Clear
2017-05-20,12:51 AM,66,66,51.1,59,30.06,10,NNE,10.4,18.4,0,None,Partly Cloudy
2017-09-12,8:51 AM,66,66,55.9,70,30.05,10,Variable,3.5,0,0,None,Clear
2017-07-27,4:51 AM,66,66,60.1,81,30.05,10,SW,4.6,0,0,None,Clear
2017-08-07,2:51 PM,66,66,64.9,96,30.04,0.8,Calm,0,0,0.12,Rain,Rain
2017-06-15,9:51 PM,66,66,54,65,30.04,10,North,0,0,0,None,Clear
2017-06-15,6:51 AM,66,66,57.9,75,30.04,10,Calm,0,0,0,None,Clear
2017-11-03,9:51 AM,66,66,57.9,75,30.04,10,Variable,6.9,0,0,None,Clear
2017-06-26,6:51 AM,66,66,53.1,63,30.03,10,Calm,0,0,0,None,Clear
2017-06-28,1:51 AM,66,66,48.9,54,30.03,10,Variable,5.8,0,0,None,Clear
2017-10-28,11:51 AM,66,66,37,34,30.02,10,North,0,0,0,None,Clear
2017-06-04,8:51 AM,66,66,43,43,30.02,10,Calm,0,0,0,None,Clear
2017-06-15,3:51 AM,66,66,54,65,30.02,10,Calm,0,0,0,None,Clear
2017-09-29,1:51 PM,66,66,44.1,45,30.02,9,Calm,0,0,0,None,Overcast
2017-06-15,4:51 AM,66,66,55.9,70,30.02,10,Variable,4.6,0,0,None,Clear
2017-08-06,3:51 AM,66,66,52,60,30.02,10,Variable,5.8,0,0,None,Clear
2017-05-10,11:51 AM,66,66,37,34,30.01,10,Calm,0,0,0,None,Clear
2017-06-27,11:51 PM,66,66,51.1,59,30.01,10,WNW,3.5,0,0,None,Clear
2017-05-31,11:51 AM,66,66,59,78,30.01,10,ENE,5.8,0,0,None,Clear
2017-09-29,2:51 PM,66,66,43,43,30.01,10,WNW,5.8,0,0,None,Overcast
2017-09-29,5:51 PM,66,66,42.1,42,30.01,10,WNW,6.9,0,0,None,Clear
2017-06-08,12:51 PM,66,66,50,56,30,10,Variable,3.5,0,0,None,Clear
2017-06-26,3:51 AM,66,66,51.1,59,30,10,Variable,4.6,0,0,None,Clear
2017-06-16,6:51 AM,66,66,59,78,30,10,Variable,5.8,0,0,None,Overcast
2017-08-07,6:59 PM,66,66,64.9,96,29.99,3,Calm,0,0,0.01,Rain,Light Rain
2017-09-07,9:51 PM,66,66,50,56,29.99,10,Variable,3.5,0,0,None,Clear
2017-06-27,3:51 AM,66,66,50,56,29.99,10,Variable,4.6,0,0,None,Scattered Clouds
2017-05-10,4:51 PM,66,66,36,33,29.99,10,ENE,5.8,0,0,None,Clear
2017-08-07,6:27 PM,66,66,64,93,29.98,2.5,Calm,0,0,0.02,Rain,Light Rain
2017-08-07,7:14 PM,66,66,64.9,96,29.98,2.5,Variable,5.8,0,0.03,Rain,Light Rain
2017-08-07,7:22 PM,66,66,64.9,96,29.98,5,South,6.9,0,0.03,Rain,Light Rain
2017-07-30,7:51 AM,66,66,52,60,29.98,10,NE,4.6,0,0,None,Clear
2017-08-30,9:51 AM,66,66,53.1,63,29.98,10,NNE,8.1,0,0,None,Clear
2017-09-07,8:51 PM,66,66,48.9,54,29.97,10,Calm,0,0,0,None,Clear
2017-08-12,7:51 AM,66,66,64.9,96,29.97,10,ENE,3.5,0,0,None,Scattered Clouds
2017-06-08,2:51 PM,66,66,42.1,42,29.97,10,SE,4.6,0,0,None,Clear
2017-06-16,11:13 PM,66,66,63,90,29.97,8,ENE,5.8,0,0,None,Overcast
2017-08-07,6:51 PM,66,66,64.9,96,29.96,3,Calm,0,0,0.05,Rain,Light Rain
2017-08-07,8:20 PM,66,66,64.9,96,29.96,4,SE,4.6,0,0.04,Rain,Light Rain
2017-08-07,8:13 PM,66,66,64.9,96,29.96,4,Variable,5.8,0,0.03,Rain,Light Rain
2017-06-08,3:51 PM,66,66,46,48,29.96,10,Variable,3.5,0,0,None,Clear
2017-06-01,8:51 AM,66,66,60.1,81,29.96,7,West,3.5,0,0,None,Mostly Cloudy
2017-06-16,10:22 PM,66,66,63,90,29.96,6,ENE,5.8,0,0,None,Overcast
2017-06-17,12:37 AM,66,66,63,90,29.96,4,ENE,5.8,0,0,None,Overcast
2017-06-17,4:26 AM,66,66,64,93,29.95,8,Calm,0,0,0,None,Overcast
2017-08-07,7:51 PM,66,66,64.9,96,29.95,5,Calm,0,0,0.03,None,Overcast
2017-06-17,3:02 AM,66,66,63,90,29.95,6,ENE,3.5,0,0,None,Overcast
2017-08-07,9:37 PM,66,66,64.9,96,29.95,7,NNE,3.5,0,0,None,Overcast
2017-06-16,11:51 PM,66,66,63,90,29.95,6,Variable,3.5,0,0,None,Overcast
2017-08-08,8:15 AM,66,66,64,93,29.95,7,Variable,3.5,0,0,None,Overcast
2017-08-08,12:19 AM,66,66,64.9,96,29.94,2.5,Calm,0,0,0,None,Overcast
2017-08-08,12:33 AM,66,66,64.9,96,29.94,4,NNE,3.5,0,0,None,Overcast
2017-06-16,9:51 PM,66,66,63,90,29.94,7,Variable,3.5,0,0,None,Overcast
2017-06-17,12:51 AM,66,66,63,90,29.94,4,East,4.6,0,0,None,Overcast
2017-06-16,6:51 PM,66,66,63,90,29.94,8,ENE,4.6,0,0,None,Overcast
2017-06-16,7:51 PM,66,66,62.1,87,29.94,7,ENE,4.6,0,0,None,Overcast
2017-06-16,8:51 PM,66,66,63,90,29.94,8,ENE,4.6,0,0,None,Overcast
2017-08-07,9:51 PM,66,66,64,93,29.94,7,NNE,4.6,0,0,None,Overcast
2017-06-16,5:51 PM,66,66,62.1,87,29.94,8,Variable,5.8,0,0,None,Overcast
2017-08-07,8:51 PM,66,66,64,93,29.93,6,Calm,0,0,0.05,Rain,Light Rain
2017-06-17,1:51 AM,66,66,64,93,29.93,7,Calm,0,0,0,None,Overcast
2017-06-17,3:51 AM,66,66,64,93,29.93,7,Calm,0,0,0,None,Overcast
2017-06-17,4:51 AM,66,66,63,90,29.93,8,Calm,0,0,0,None,Overcast
2017-08-24,6:51 AM,66,66,55,68,29.93,10,Calm,0,0,0,None,Clear
2017-08-08,12:12 AM,66,66,64.9,96,29.93,3,Variable,3.5,0,0,None,Overcast
2017-06-16,10:51 PM,66,66,63,90,29.93,8,ENE,6.9,0,0,None,Overcast
2017-10-28,3:51 PM,66,66,53.1,63,29.93,10,South,8.1,0,0,None,Partly Cloudy
2017-08-07,10:51 PM,66,66,64,93,29.92,7,Calm,0,0,0,None,Overcast
2017-08-08,6:17 AM,66,66,64,93,29.92,7,Calm,0,0,0,None,Overcast
2017-08-08,7:12 AM,66,66,64,93,29.92,4,Calm,0,0,0,None,Overcast
2017-09-28,8:51 PM,66,66,44.1,45,29.92,10,NNE,3.5,0,0,None,Clear
2017-04-17,7:51 AM,66,66,55.9,70,29.92,10,Variable,3.5,0,0,None,Scattered Clouds
2017-06-17,2:51 AM,66,66,63,90,29.92,7,Variable,3.5,0,0,None,Overcast
2017-09-03,10:51 PM,66,66,59,78,29.92,10,Variable,4.6,0,0,None,Overcast
2017-08-08,7:51 AM,66,66,64,93,29.91,7,Calm,0,0,0,None,Overcast
2017-05-23,1:51 PM,66,66,50,56,29.91,10,Variable,3.5,0,0,None,Clear
2017-09-03,9:51 PM,66,66,59,78,29.91,10,Variable,4.6,0,0,None,Partly Cloudy
2017-08-07,11:51 PM,66,66,64,93,29.91,5,NE,5.8,0,0,None,Overcast
2017-04-17,6:51 AM,66,66,57.9,75,29.91,10,Variable,5.8,0,0,None,Clear
2017-07-30,3:51 AM,66,66,53.1,63,29.91,10,Variable,5.8,0,0,None,Clear
2017-09-03,8:51 PM,66,66,59,78,29.9,10,Variable,4.6,0,0,None,Partly Cloudy
2017-08-08,6:51 AM,66,66,64,93,29.89,6,Calm,0,0,0,None,Overcast
2017-08-08,12:51 AM,66,66,64.9,96,29.89,5,NE,4.6,0,0,None,Overcast
2017-05-27,9:51 AM,66,66,54,65,29.88,10,Calm,0,0,0,None,Partly Cloudy
2017-08-08,1:51 AM,66,66,64,93,29.88,4,Calm,0,0,0,None,Overcast
2017-08-08,4:51 AM,66,66,64,93,29.88,4,Calm,0,0,0,None,Overcast
2017-08-08,2:51 AM,66,66,64,93,29.88,7,Variable,3.5,0,0,None,Overcast
2017-08-08,3:51 AM,66,66,64,93,29.88,5,Variable,3.5,0,0,None,Overcast
2017-11-06,1:51 PM,66,66,57.9,75,29.88,10,Variable,3.5,0,0,None,Overcast
2017-04-17,5:51 AM,66,66,57.9,75,29.88,10,West,6.9,0,0,None,Clear
2017-07-24,8:51 PM,66,66,59,78,29.88,10,ENE,8.1,0,0,None,Mostly Cloudy
2017-09-03,2:51 PM,66,66,63,90,29.87,10,Calm,0,0,0,None,Overcast
2017-04-17,4:51 AM,66,66,57.9,75,29.86,10,West,4.6,0,0,None,Clear
2017-02-24,3:51 PM,66,66,52,60,29.86,10,South,9.2,0,0,None,Clear
2017-04-17,3:51 AM,66,66,57.9,75,29.85,10,West,6.9,0,0,None,Clear
2017-07-24,2:51 PM,66,66,59,78,29.84,10,NE,8.1,0,0,None,Overcast
2017-10-16,3:51 AM,66,66,53.1,63,29.84,10,NW,9.2,0,0,None,Overcast
2017-05-15,6:51 PM,66,66,39.9,38,29.81,10,WNW,15,26.5,0,None,Clear
2017-06-05,11:51 AM,66,66,61,84,29.77,5,NNE,3.5,0,0,None,Haze
2017-05-24,5:51 PM,66,66,51.1,59,29.77,10,Variable,4.6,0,0,None,Overcast
2017-05-24,12:51 PM,66,66,51.1,59,29.77,10,ENE,11.5,0,0,None,Overcast
2017-06-05,1:51 PM,66,66,60.1,81,29.76,5,Calm,0,0,0,None,Haze
2017-06-05,5:00 PM,66,66,61,84,29.76,6,Variable,4.6,0,0,None,Haze
2017-07-24,9:51 AM,66,66,64,93,29.75,4,ENE,11.5,20.7,0.01,Rain,Light Rain
2017-06-09,9:51 AM,66,66,48,52,29.75,10,North,0,0,0,None,Clear
2017-05-02,9:51 PM,66,66,34,30,29.75,10,WNW,12.7,23,0,None,Overcast
2017-06-05,4:27 PM,66,66,60.1,81,29.75,8,East,8.1,0,0,None,Scattered Clouds
2017-06-05,2:51 PM,66,66,60.1,81,29.75,6,ENE,8.1,0,0,None,Haze
2017-05-15,3:51 PM,66,66,39.9,38,29.74,10,Variable,5.8,24.2,0,None,Scattered Clouds
2017-06-05,3:51 PM,66,66,60.1,81,29.74,7,Variable,4.6,0,0,None,Overcast
2017-10-25,1:51 AM,66,66,64,93,29.74,8,WSW,4.6,0,0,None,Mostly Cloudy
2017-06-05,4:51 PM,66,66,60.1,81,29.73,5,Variable,5.8,0,0,None,Haze
2017-05-02,12:51 AM,66,66,60.1,81,29.64,8,Variable,5.8,0,0,None,Clear
2017-05-26,11:25 AM,66,66,57.9,75,29.62,10,WNW,8.1,0,0,None,Overcast
2017-05-02,2:51 AM,66,66,61,84,29.6,9,South,5.8,0,0,None,Clear
2017-03-01,8:51 PM,66,66,50,56,29.44,10,WSW,12.7,31.1,0,None,Clear
2017-10-29,10:33 PM,66,66,64.9,96,28.96,5,North,0,0,0.16,Rain,Light Rain
2017-10-29,11:10 PM,66,66,64.9,96,28.93,3,Variable,5.8,18.4,0.01,Rain,Light Rain
2017-10-29,11:17 PM,66,66,64.9,96,28.93,1.8,SSE,9.2,26.5,0.02,Rain,Rain
2017-07-26,12:48 AM,66.2,66.2,57.2,73,30.25,10,NE,6.9,0,0,None,Overcast
2017-07-25,12:47 PM,66.2,66.2,59,78,30.14,10,ENE,8.1,0,0,None,Overcast
2017-07-14,8:47 AM,66.2,66.2,64.4,94,30.13,1.8,Variable,3.5,0,0.01,Rain,Rain
2017-08-07,9:49 AM,66.2,66.2,64.4,94,30.12,4,Variable,3.5,0,0.11,Rain,Light Rain
2017-07-14,9:47 AM,66.2,66.2,64.4,94,30.12,3,ENE,5.8,0,0.1,Rain,Light Rain
2017-10-15,6:46 AM,66.2,66.2,62.6,88,30.1,7,Calm,0,0,0,None,Overcast
2017-10-15,8:47 AM,66.2,66.2,64.4,94,30.1,8,Calm,0,0,0,None,Overcast
2017-08-07,2:47 PM,66.2,66.2,64.4,94,30.06,0.8,Calm,0,0,0.11,Rain,Rain
2017-05-02,7:49 AM,66.2,66.2,64.4,94,29.61,8,Calm,0,0,0,None,Overcast
2017-10-29,10:48 PM,66.2,66.2,66.2,100,28.95,2.5,SSE,12.7,25.3,0.18,Rain,Light Rain
2017-10-03,3:51 PM,66.9,66.9,46.9,49,30.58,10,Variable,3.5,0,0,None,Clear
2017-05-21,12:51 PM,66.9,66.9,34,30,30.36,10,Variable,5.8,0,0,None,Clear
2017-10-22,5:51 PM,66.9,66.9,53.1,61,30.35,10,North,0,0,0,None,Clear
2017-10-21,9:51 PM,66.9,66.9,44.1,44,30.35,10,Variable,4.6,0,0,None,Clear
2017-10-21,10:51 PM,66.9,66.9,46,47,30.35,10,Variable,5.8,0,0,None,Clear
2017-05-21,1:51 PM,66.9,66.9,32,27,30.34,10,North,0,0,0,None,Clear
2017-10-21,10:51 AM,66.9,66.9,39.9,37,30.34,10,Variable,3.5,0,0,None,Clear
2017-09-10,7:51 PM,66.9,66.9,44.1,44,30.34,10,NNE,5.8,0,0,None,Clear
2017-10-01,4:51 PM,66.9,66.9,41,39,30.28,10,Calm,0,0,0,None,Clear
2017-08-27,10:51 PM,66.9,66.9,53.1,61,30.27,10,Variable,3.5,0,0,None,Clear
2017-10-14,10:58 AM,66.9,66.9,62.1,84,30.27,8,Variable,3.5,0,0,None,Overcast
2017-08-27,8:51 AM,66.9,66.9,48,51,30.27,10,NE,5.8,0,0,None,Clear
2017-09-09,11:51 AM,66.9,66.9,46.9,49,30.27,10,Variable,5.8,0,0,None,Clear
2017-08-26,11:51 PM,66.9,66.9,48.9,52,30.26,10,East,3.5,0,0,None,Clear
2017-08-26,10:51 PM,66.9,66.9,48.9,52,30.26,10,ENE,3.5,0,0,None,Clear
2017-08-28,11:51 PM,66.9,66.9,54,63,30.26,10,Variable,3.5,0,0,None,Clear
2017-07-26,12:25 AM,66.9,66.9,57,70,30.25,10,ENE,9.2,0,0,None,Overcast
2017-07-26,6:51 AM,66.9,66.9,57,70,30.24,10,ENE,3.5,0,0,None,Overcast
2017-07-26,1:51 AM,66.9,66.9,57,70,30.23,10,Variable,5.8,0,0,None,Overcast
2017-07-26,12:51 AM,66.9,66.9,57,70,30.23,10,ENE,6.9,0,0,None,Overcast
2017-10-19,11:51 AM,66.9,66.9,45,45,30.22,9,Calm,0,0,0,None,Clear
2017-07-25,11:51 PM,66.9,66.9,57,70,30.22,10,ENE,5.8,0,0,None,Overcast
2017-09-02,1:51 PM,66.9,66.9,46.9,49,30.2,10,North,0,0,0,None,Clear
2017-10-04,11:51 PM,66.9,66.9,57,70,30.2,10,WSW,9.2,20.7,0,None,Clear
2017-08-29,10:51 AM,66.9,66.9,60.1,79,30.2,10,Variable,4.6,0,0,None,Mostly Cloudy
2017-11-02,6:51 PM,66.9,66.9,59,76,30.19,10,Variable,3.5,0,0,None,Clear
2017-11-02,7:51 PM,66.9,66.9,57.9,73,30.19,10,South,4.6,0,0,None,Clear
2017-08-29,12:51 PM,66.9,66.9,59,76,30.18,10,ENE,10.4,19.6,0,Rain,Light Rain
2017-11-02,8:51 PM,66.9,66.9,57.9,73,30.18,10,Calm,0,0,0,None,Clear
2017-04-12,1:51 PM,66.9,66.9,55.9,68,30.15,10,Calm,0,0,0.01,None,Mostly Cloudy
2017-04-11,9:51 AM,66.9,66.9,46.9,49,30.15,10,West,5.8,0,0,None,Clear
2017-07-26,11:51 PM,66.9,66.9,55.9,68,30.14,10,Calm,0,0,0,None,Clear
2017-09-11,10:51 PM,66.9,66.9,48,51,30.14,10,Calm,0,0,0,None,Clear
2017-08-07,9:26 AM,66.9,66.9,64.9,93,30.13,1.2,West,6.9,0,0.09,Rain,Light Rain
2017-10-15,2:51 AM,66.9,66.9,62.1,84,30.13,10,WSW,5.8,0,0,None,Overcast
2017-10-15,4:36 AM,66.9,66.9,62.1,84,30.13,10,WSW,5.8,0,0,None,Overcast
2017-09-01,7:51 PM,66.9,66.9,41,39,30.13,10,WNW,6.9,0,0,None,Clear
2017-08-07,11:19 AM,66.9,66.9,64.9,93,30.12,3,North,3.5,0,0.03,Rain,Light Rain
2017-08-07,11:29 AM,66.9,66.9,66,97,30.12,2.5,Variable,3.5,0,0.03,Rain,Light Rain
2017-08-07,9:37 AM,66.9,66.9,64.9,93,30.12,2,Variable,4.6,0,0.1,Rain,Rain
2017-08-07,10:44 AM,66.9,66.9,64.9,93,30.12,5,Calm,0,0,0,None,Overcast
2017-04-11,12:51 AM,66.9,66.9,44.1,44,30.12,10,SW,9.2,19.6,0,None,Clear
2017-09-01,12:51 PM,66.9,66.9,35.1,31,30.12,10,WSW,3.5,0,0,None,Clear
2017-10-11,5:51 AM,66.9,66.9,55.9,68,30.12,10,NE,4.6,0,0,None,Clear
2017-08-07,12:17 PM,66.9,66.9,64.9,93,30.11,2,NNE,3.5,0,0.05,Rain,Light Rain
2017-08-07,12:38 PM,66.9,66.9,64.9,93,30.11,2,Variable,3.5,0,0.07,Rain,Rain
2017-08-07,10:51 AM,66.9,66.9,64.9,93,30.11,3,Variable,4.6,0,0,Rain,Light Rain
2017-07-27,1:51 AM,66.9,66.9,57.9,73,30.11,10,Calm,0,0,0,None,Clear
2017-10-11,1:51 AM,66.9,66.9,57,70,30.11,10,Calm,0,0,0,None,Clear
2017-10-15,3:51 AM,66.9,66.9,62.1,84,30.11,10,Variable,3.5,0,0,None,Overcast
2017-10-11,6:51 AM,66.9,66.9,55.9,68,30.11,10,East,5.8,0,0,None,Clear
2017-09-08,6:51 PM,66.9,66.9,48.9,52,30.11,10,Variable,5.8,0,0,None,Overcast
2017-08-25,8:51 AM,66.9,66.9,57,70,30.1,10,Calm,0,0,0,None,Clear
2017-10-15,4:51 AM,66.9,66.9,63,87,30.1,5,Calm,0,0,0,None,Overcast
2017-10-15,8:36 AM,66.9,66.9,64.9,93,30.1,5,Calm,0,0,0,None,Overcast
2017-09-08,10:51 AM,66.9,66.9,50,54,30.1,10,Variable,3.5,21.9,0,None,Clear
2017-10-11,2:51 AM,66.9,66.9,57,70,30.1,10,NE,3.5,0,0,None,Clear
2017-08-06,8:51 AM,66.9,66.9,52,59,30.1,10,WNW,3.5,0,0,None,Clear
2017-08-07,1:09 PM,66.9,66.9,66,97,30.09,4,ENE,3.5,0,0,Rain,Light Rain
2017-08-07,1:35 PM,66.9,66.9,64.9,93,30.09,2.5,ENE,3.5,0,0.01,Rain,Light Rain
2017-10-11,3:51 AM,66.9,66.9,57,70,30.09,10,Calm,0,0,0,None,Clear
2017-08-07,12:51 PM,66.9,66.9,64.9,93,30.08,4,Variable,3.5,0,0.08,Rain,Light Rain
2017-08-07,1:53 PM,66.9,66.9,64.9,93,30.08,1.8,ENE,5.8,0,0,Rain,Light Rain
2017-07-14,11:51 AM,66.9,66.9,64.9,93,30.08,9,Calm,0,0,0.01,None,Overcast
2017-10-15,8:51 AM,66.9,66.9,64.9,93,30.07,8,Variable,4.6,0,0,None,Overcast
2017-08-07,3:14 PM,66.9,66.9,64.9,93,30.06,1.5,Variable,3.5,0,0.06,Rain,Rain
2017-08-07,3:19 PM,66.9,66.9,64.9,93,30.06,1.5,Variable,3.5,0,0.07,Rain,Rain
2017-08-07,1:51 PM,66.9,66.9,64.9,93,30.06,2.5,ENE,5.8,0,0.03,Rain,Light Rain
2017-07-27,6:51 AM,66.9,66.9,61,81,30.06,10,Calm,0,0,0,None,Clear
2017-11-03,6:51 PM,66.9,66.9,55,66,30.06,10,WNW,9.2,0,0,None,Mostly Cloudy
2017-07-14,4:51 AM,66.9,66.9,64.9,93,30.05,6,ENE,11.5,17.3,0,None,Overcast
2017-09-12,9:51 AM,66.9,66.9,57,70,30.05,10,Variable,4.6,0,0,None,Clear
2017-06-26,7:51 AM,66.9,66.9,53.1,61,30.04,10,Calm,0,0,0,None,Clear
2017-06-15,8:51 PM,66.9,66.9,54,63,30.03,10,North,0,0,0,None,Clear
2017-06-28,12:51 AM,66.9,66.9,48.9,52,30.03,10,Variable,5.8,0,0,None,Clear
2017-08-12,1:51 AM,66.9,66.9,61,81,30.02,7,WNW,5.8,0,0.01,Rain,Light Rain
2017-08-25,2:51 AM,66.9,66.9,54,63,30.02,10,Calm,0,0,0,None,Clear
2017-06-08,10:51 AM,66.9,66.9,55,66,30.01,10,Variable,4.6,0,0,None,Clear
2017-06-16,9:32 AM,66.9,66.9,60.1,79,30.01,10,Variable,4.6,0,0,None,Overcast
2017-06-27,9:51 AM,66.9,66.9,60.1,79,30,10,Calm,0,0,0,None,Mostly Cloudy
2017-08-06,2:51 AM,66.9,66.9,51.1,57,30,10,Calm,0,0,0,None,Clear
2017-08-25,1:51 AM,66.9,66.9,54,63,30,10,Calm,0,0,0,None,Clear
2017-09-29,4:51 PM,66.9,66.9,42.1,40,30,10,Variable,3.5,0,0,None,Partly Cloudy
2017-06-16,7:51 AM,66.9,66.9,59,76,30,10,Variable,5.8,0,0,None,Overcast
2017-09-29,3:51 PM,66.9,66.9,43,42,30,10,West,5.8,0,0,None,Scattered Clouds
2017-06-27,10:51 AM,66.9,66.9,61,81,30,10,West,6.9,0,0,None,Partly Cloudy
2017-06-03,10:51 PM,66.9,66.9,39,36,29.99,10,Calm,0,0,0,None,Clear
2017-06-07,4:51 PM,66.9,66.9,48,51,29.99,10,Calm,0,0,0,None,Overcast
2017-08-12,7:59 AM,66.9,66.9,64.9,93,29.99,9,Calm,0,0,0,None,Mostly Cloudy
2017-08-12,8:27 AM,66.9,66.9,64,90,29.99,10,Calm,0,0,0,None,Scattered Clouds
2017-06-04,11:51 AM,66.9,66.9,45,45,29.99,10,Variable,3.5,0,0,None,Overcast
2017-06-02,9:51 AM,66.9,66.9,44.1,44,29.99,10,Variable,4.6,0,0,None,Clear
2017-06-16,8:51 AM,66.9,66.9,60.1,79,29.99,10,East,5.8,0,0,None,Overcast
2017-06-26,2:51 AM,66.9,66.9,48.9,52,29.98,10,NNW,4.6,0,0,None,Clear
2017-04-17,10:51 AM,66.9,66.9,41,39,29.97,10,North,0,0,0,None,Overcast
2017-06-16,12:51 PM,66.9,66.9,62.1,84,29.97,9,ESE,5.8,0,0,None,Overcast
2017-06-02,12:51 AM,66.9,66.9,45,45,29.96,10,North,0,0,0,None,Clear
2017-06-02,9:51 PM,66.9,66.9,39,36,29.96,10,North,4.6,0,0,None,Clear
2017-06-16,1:51 PM,66.9,66.9,62.1,84,29.96,6,Variable,4.6,0,0,None,Haze
2017-08-24,7:51 AM,66.9,66.9,55,66,29.95,10,East,3.5,0,0,None,Clear
2017-04-17,9:51 AM,66.9,66.9,44.1,44,29.95,10,Variable,5.8,0,0,None,Mostly Cloudy
2017-02-24,10:51 AM,66.9,66.9,54,63,29.94,10,South,3.5,0,0,None,Clear
2017-05-28,10:51 AM,66.9,66.9,57.9,73,29.94,10,Variable,4.6,0,0,None,Clear
2017-04-17,8:51 AM,66.9,66.9,52,59,29.94,10,Variable,5.8,0,0,None,Mostly Cloudy
2017-05-28,4:51 PM,66.9,66.9,55,66,29.94,10,Variable,5.8,0,0,None,Clear
2017-06-17,6:51 AM,66.9,66.9,64,90,29.93,6,Calm,0,0,0,None,Overcast
2017-08-08,8:51 AM,66.9,66.9,64,90,29.93,9,Calm,0,0,0,None,Overcast
2017-06-17,5:51 AM,66.9,66.9,64,90,29.93,8,ENE,3.5,0,0,None,Overcast
2017-06-16,4:51 PM,66.9,66.9,62.1,84,29.93,8,ENE,5.8,0,0,None,Overcast
2017-04-27,1:31 PM,66.9,66.9,57,70,29.93,6,Variable,5.8,0,0,None,Haze
2017-04-27,12:58 PM,66.9,66.9,57.9,73,29.92,6,South,9.2,0,0,None,Haze
2017-08-24,5:51 AM,66.9,66.9,55,66,29.91,10,Calm,0,0,0,None,Clear
2017-04-27,11:51 AM,66.9,66.9,57.9,73,29.91,7,Variable,4.6,0,0,None,Overcast
2017-09-07,11:51 AM,66.9,66.9,57.9,73,29.91,10,Variable,6.9,0,0,None,Scattered Clouds
2017-07-30,2:51 AM,66.9,66.9,51.1,57,29.9,10,Calm,0,0,0,None,Clear
2017-07-24,7:19 PM,66.9,66.9,59,76,29.9,10,Variable,4.6,0,0,None,Scattered Clouds
2017-08-24,4:51 AM,66.9,66.9,55.9,68,29.89,10,Calm,0,0,0,None,Clear
2017-08-24,3:51 AM,66.9,66.9,55,66,29.89,10,WNW,3.5,0,0,None,Clear
2017-09-28,7:51 PM,66.9,66.9,44.1,44,29.88,10,Variable,3.5,0,0,None,Clear
2017-09-03,7:51 PM,66.9,66.9,59,76,29.88,10,Variable,5.8,0,0,None,Overcast
2017-07-24,7:51 PM,66.9,66.9,59,76,29.88,10,East,6.9,0,0,None,Scattered Clouds
2017-07-24,6:51 PM,66.9,66.9,60.1,79,29.88,10,ENE,6.9,0,0,None,Overcast
2017-04-27,3:51 PM,66.9,66.9,57.9,73,29.87,8,Variable,3.5,0,0,None,Clear
2017-09-03,3:22 PM,66.9,66.9,63,87,29.87,10,Variable,3.5,0,0,None,Overcast
2017-10-16,3:03 AM,66.9,66.9,60.1,79,29.86,10,Variable,4.6,17.3,0,None,Overcast
2017-10-16,2:51 AM,66.9,66.9,60.1,79,29.84,10,WNW,10.4,16.1,0,None,Overcast
2017-05-23,6:51 PM,66.9,66.9,46.9,49,29.83,10,Calm,0,0,0,None,Clear
2017-06-05,1:22 PM,66.9,66.9,61,81,29.79,5,ENE,6.9,0,0,None,Haze
2017-05-01,4:51 PM,66.9,66.9,55,66,29.79,8,ENE,8.1,0,0,None,Partly Cloudy
2017-05-26,10:51 PM,66.9,66.9,51.1,57,29.79,10,NW,8.1,0,0,None,Clear
2017-05-15,5:51 PM,66.9,66.9,39.9,37,29.78,10,Variable,5.8,23,0,None,Partly Cloudy
2017-05-24,4:51 PM,66.9,66.9,48.9,52,29.78,10,Variable,3.5,0,0,None,Overcast
2017-07-24,9:14 AM,66.9,66.9,66,97,29.77,7,ENE,13.8,23,0,Rain,Light Rain
2017-10-24,8:51 PM,66.9,66.9,66,97,29.77,6,Variable,3.5,0,0,None,Overcast
2017-05-24,3:51 PM,66.9,66.9,48,51,29.77,10,NE,5.8,0,0,None,Overcast
2017-05-01,5:51 PM,66.9,66.9,55.9,68,29.76,8,ENE,5.8,0,0,None,Clear
2017-05-24,1:51 PM,66.9,66.9,50,54,29.76,10,Variable,6.9,0,0,None,Mostly Cloudy
2017-05-24,2:51 PM,66.9,66.9,46.9,49,29.75,10,ENE,10.4,18.4,0,None,Overcast
2017-05-15,4:51 PM,66.9,66.9,41,39,29.75,10,North,11.5,21.9,0,None,Partly Cloudy
2017-06-05,12:51 PM,66.9,66.9,61,81,29.75,5,ESE,5.8,0,0,None,Haze
2017-05-24,11:51 AM,66.9,66.9,53.1,61,29.75,10,ENE,10.4,0,0,None,Mostly Cloudy
2017-05-01,6:51 PM,66.9,66.9,57.9,73,29.73,8,Calm,0,0,0,None,Clear
2017-05-02,8:51 PM,66.9,66.9,37,33,29.71,10,West,9.2,18.4,0,None,Overcast
2017-05-01,9:51 PM,66.9,66.9,59,76,29.71,9,Variable,4.6,0,0,None,Clear
2017-05-02,7:51 AM,66.9,66.9,64,90,29.59,8,Calm,0,0,0,None,Mostly Cloudy
2017-03-01,7:51 PM,66.9,66.9,51.1,57,29.44,10,Variable,6.9,0,0,None,Clear
2017-10-29,10:51 PM,66.9,66.9,66,97,28.92,2.5,SSE,13.8,25.3,0.18,Rain,Light Rain
2017-10-03,11:51 AM,68,68,48.9,50,30.63,10,North,0,0,0,None,Mostly Cloudy
2017-10-03,2:51 PM,68,68,48,49,30.59,10,Variable,3.5,0,0,None,Clear
2017-09-10,6:51 PM,68,68,44.1,42,30.34,10,NE,4.6,0,0,None,Clear
2017-08-28,8:51 AM,68,68,55.9,65,30.31,10,Variable,5.8,0,0,None,Clear
2017-10-23,9:51 AM,68,68,62.1,81,30.29,10,SSE,6.9,0,0,None,Mostly Cloudy
2017-08-28,8:51 PM,68,68,54,61,30.28,10,SE,6.9,0,0,None,Clear
2017-08-27,11:51 PM,68,68,54,61,30.27,10,Calm,0,0,0,None,Clear
2017-08-28,12:51 AM,68,68,54,61,30.27,10,Variable,4.6,0,0,None,Clear
2017-08-28,10:51 PM,68,68,55,63,30.27,10,ENE,5.8,0,0,None,Clear
2017-08-28,9:51 PM,68,68,55,63,30.27,10,ESE,10.4,0,0,None,Clear
2017-11-02,11:51 AM,68,68,59,73,30.26,10,Calm,0,0,0,None,Partly Cloudy
2017-08-26,9:51 PM,68,68,46.9,47,30.25,10,Calm,0,0,0,None,Clear
2017-08-27,9:51 PM,68,68,54,61,30.25,10,Calm,0,0,0,None,Clear
2017-09-09,2:51 PM,68,68,48.9,50,30.25,10,ENE,10.4,17.3,0,None,Mostly Cloudy
2017-08-26,8:51 PM,68,68,44.1,42,30.25,10,NE,3.5,0,0,None,Clear
2017-10-14,11:51 AM,68,68,62.1,81,30.24,9,ENE,3.5,0,0,None,Overcast
2017-09-09,3:51 PM,68,68,48,49,30.24,10,Variable,6.9,0,0,None,Mostly Cloudy
2017-10-14,12:51 PM,68,68,63,84,30.22,10,NNE,3.5,0,0,None,Overcast
2017-07-25,10:51 PM,68,68,57.9,70,30.22,10,NE,6.9,0,0,None,Overcast
2017-04-12,9:51 PM,68,68,41,37,30.21,10,Calm,0,0,0,None,Clear
2017-07-25,9:51 PM,68,68,59,73,30.21,10,ENE,5.8,0,0,None,Overcast
2017-08-26,1:51 AM,68,68,48,49,30.21,10,NE,8.1,0,0,None,Clear
2017-10-14,10:19 PM,68,68,61,78,30.2,10,Calm,0,0,0,None,Overcast
2017-10-14,10:39 PM,68,68,61,78,30.2,10,Calm,0,0,0,None,Overcast
2017-07-25,8:06 PM,68,68,59,73,30.2,10,Variable,5.8,0,0,None,Overcast
2017-10-04,10:51 PM,68,68,57,68,30.2,10,WSW,6.9,0,0,None,Clear
2017-10-14,11:40 PM,68,68,61,78,30.19,10,Calm,0,0,0,None,Overcast
2017-08-29,11:51 AM,68,68,59,73,30.19,10,ENE,9.2,21.9,0,None,Mostly Cloudy
2017-07-25,8:51 PM,68,68,59,73,30.19,10,Variable,4.6,0,0,None,Overcast
2017-07-25,7:13 PM,68,68,60.1,76,30.19,10,ENE,6.9,0,0,None,Overcast
2017-10-14,9:51 PM,68,68,61,78,30.18,10,Calm,0,0,0,None,Overcast
2017-10-14,10:51 PM,68,68,61,78,30.17,10,Calm,0,0,0,None,Overcast
2017-10-14,11:51 PM,68,68,61,78,30.17,10,Calm,0,0,0,None,Overcast
2017-07-25,7:51 PM,68,68,60.1,76,30.17,10,ENE,6.9,0,0,None,Overcast
2017-09-11,8:51 PM,68,68,46.9,47,30.16,10,Calm,0,0,0,None,Clear
2017-10-20,7:51 PM,68,68,36,31,30.16,10,Calm,0,0,0,None,Clear
2017-07-25,6:51 PM,68,68,60.1,76,30.16,10,Variable,5.8,0,0,None,Overcast
2017-10-15,12:51 AM,68,68,61,78,30.15,10,Calm,0,0,0,None,Overcast
2017-07-26,9:51 PM,68,68,55.9,65,30.15,10,SSE,4.6,0,0,None,Clear
2017-10-15,1:51 AM,68,68,62.1,81,30.14,10,Calm,0,0,0,None,Overcast
2017-09-11,9:51 PM,68,68,48,49,30.14,10,NE,3.5,0,0,None,Clear
2017-07-26,10:51 PM,68,68,55,63,30.14,10,SSE,3.5,0,0,None,Clear
2017-10-20,6:51 PM,68,68,36,31,30.14,10,WNW,4.6,0,0,None,Clear
2017-09-08,7:51 PM,68,68,48.9,50,30.13,10,Variable,6.9,0,0,None,Overcast
2017-10-11,7:51 AM,68,68,55,63,30.13,10,ENE,8.1,0,0,None,Clear
2017-04-10,11:51 PM,68,68,43,40,30.13,10,SSW,9.2,0,0,None,Clear
2017-08-07,9:11 AM,68,68,64,87,30.12,0.8,Variable,3.5,0,0,Rain,Heavy Rain
2017-06-28,9:51 AM,68,68,52,56,30.12,10,North,0,0,0,None,Clear
2017-07-27,12:51 AM,68,68,57,68,30.12,10,Calm,0,0,0,None,Clear
2017-04-30,12:51 AM,68,68,52,56,30.12,10,Variable,4.6,0,0,None,Overcast
2017-09-08,5:51 PM,68,68,48.9,50,30.11,10,North,0,0,0,None,Scattered Clouds
2017-08-07,2:51 AM,68,68,57.9,70,30.11,10,Calm,0,0,0,None,Clear
2017-07-14,12:31 PM,68,68,66.9,96,30.1,7,Calm,0,0,0,None,Overcast
2017-09-01,6:51 PM,68,68,39.9,36,30.1,10,Variable,3.5,0,0,None,Clear
2017-10-11,12:51 AM,68,68,60.1,76,30.1,10,NE,4.6,0,0,None,Clear
2017-08-06,9:51 AM,68,68,53.1,59,30.1,10,Variable,5.8,0,0,None,Clear
2017-07-14,1:59 PM,68,68,66.9,96,30.09,1.8,Calm,0,0,0,Rain,Light Rain
2017-10-19,5:51 PM,68,68,42.1,39,30.08,10,Variable,5.8,0,0,None,Clear
2017-07-14,1:51 PM,68,68,66,93,30.07,4,Calm,0,0,0,None,Overcast
2017-07-14,12:51 PM,68,68,66,93,30.07,5,Variable,3.5,0,0,None,Overcast
2017-07-14,3:06 PM,68,68,66.9,96,30.06,2.5,Calm,0,0,0.02,Rain,Light Rain
2017-11-03,10:51 AM,68,68,57.9,70,30.04,10,Variable,3.5,0,0,None,Clear
2017-06-15,1:51 AM,68,68,50,52,30.03,10,Calm,0,0,0,None,Clear
2017-06-15,2:51 AM,68,68,48,49,30.03,10,Calm,0,0,0,None,Clear
2017-06-15,7:51 PM,68,68,53.1,59,30.03,10,SSE,9.2,16.1,0,None,Partly Cloudy
2017-06-16,8:12 AM,68,68,59,73,30.02,10,Variable,5.8,0,0,None,Overcast
2017-05-16,10:51 AM,68,68,44.1,42,30.02,10,NW,8.1,0,0,None,Clear
2017-06-04,9:51 AM,68,68,44.1,42,30.01,10,Calm,0,0,0,None,Clear
2017-06-08,11:51 AM,68,68,57,68,30.01,10,Calm,0,0,0,None,Partly Cloudy
2017-07-14,6:51 PM,68,68,66.9,96,30.01,6,ESE,4.6,0,0,None,Overcast
2017-07-14,11:00 PM,68,68,66.9,96,30.01,4,Variable,5.8,0,0,None,Overcast
2017-06-04,10:51 AM,68,68,46,45,30,10,Calm,0,0,0,None,Clear
2017-06-16,1:11 PM,68,68,62.1,81,30,10,Variable,5.8,0,0,None,Overcast
2017-08-06,1:51 AM,68,68,53.1,59,30,10,WNW,5.8,0,0,None,Clear
2017-06-27,2:51 AM,68,68,48.9,50,30,10,North,8.1,0,0,None,Scattered Clouds
2017-05-10,1:51 PM,68,68,37,32,29.99,10,Calm,0,0,0,None,Mostly Cloudy
2017-07-14,10:51 PM,68,68,66.9,96,29.99,4,Variable,3.5,0,0,None,Overcast
2017-06-16,10:51 AM,68,68,61,78,29.99,10,Variable,4.6,0,0,None,Overcast
2017-10-28,12:51 PM,68,68,44.1,42,29.99,10,Variable,5.8,0,0,None,Clear
2017-05-10,2:51 PM,68,68,37,32,29.99,10,Variable,6.9,0,0,None,Clear
2017-08-15,4:25 AM,68,68,66.9,96,29.98,4,Variable,3.5,0,0.02,Rain,Light Rain
2017-09-04,9:51 AM,68,68,57.9,70,29.98,10,Variable,4.6,0,0,None,Clear
2017-06-16,11:51 AM,68,68,62.1,81,29.98,10,SE,5.8,0,0,None,Overcast
2017-08-30,10:51 AM,68,68,52,56,29.98,10,Variable,6.9,0,0,None,Clear
2017-10-28,1:51 PM,68,68,48,49,29.97,10,SSE,5.8,0,0,None,Clear
2017-08-12,8:51 AM,68,68,64.9,90,29.96,10,Variable,3.5,0,0,None,Clear
2017-07-14,11:51 PM,68,68,66.9,96,29.96,3,SE,4.6,0,0,None,Overcast
2017-10-28,2:51 PM,68,68,48.9,50,29.95,10,North,0,0,0,None,Partly Cloudy
2017-06-16,2:51 PM,68,68,63,84,29.95,6,ENE,9.2,0,0,None,Haze
2017-06-17,7:51 AM,68,68,64,87,29.94,6,SE,3.5,0,0,Rain,Light Rain
2017-06-02,8:51 PM,68,68,39,35,29.94,10,North,0,0,0,None,Clear
2017-08-15,4:51 AM,68,68,66,93,29.94,5,Calm,0,0,0.03,None,Overcast
2017-09-07,7:51 PM,68,68,50,52,29.94,10,West,4.6,0,0,None,Clear
2017-06-16,3:51 PM,68,68,63,84,29.94,8,ENE,5.8,0,0,None,Overcast
2017-05-28,3:51 PM,68,68,54,61,29.93,10,North,0,0,0,None,Clear
2017-05-31,8:51 PM,68,68,61,78,29.92,10,Calm,0,0,0,None,Clear
2017-04-27,2:16 PM,68,68,57,68,29.92,7,South,9.2,0,0,None,Overcast
2017-04-27,12:51 PM,68,68,57.9,70,29.9,6,Variable,4.6,0,0,None,Haze
2017-04-27,1:51 PM,68,68,57,68,29.9,7,South,6.9,0,0,None,Overcast
2017-07-30,1:51 AM,68,68,48.9,50,29.9,10,NNE,8.1,0,0,None,Clear
2017-09-06,9:51 AM,68,68,64,87,29.9,6,WNW,8.1,0,0,None,Overcast
2017-04-27,2:51 PM,68,68,57,68,29.89,7,North,0,0,0,None,Partly Cloudy
2017-05-23,2:51 PM,68,68,46.9,47,29.89,10,Calm,0,0,0,None,Clear
2017-08-24,2:51 AM,68,68,54,61,29.88,10,Calm,0,0,0,None,Clear
2017-05-01,1:51 PM,68,68,54,61,29.88,6,SE,6.9,0,0,None,Haze
2017-05-23,3:51 PM,68,68,46.9,47,29.87,10,Calm,0,0,0,None,Clear
2017-02-24,1:51 PM,68,68,52,56,29.87,10,SSE,9.2,17.3,0,None,Clear
2017-05-27,10:51 AM,68,68,54,61,29.87,10,Variable,4.6,0,0,None,Mostly Cloudy
2017-09-03,6:51 PM,68,68,57.9,70,29.87,10,Variable,5.8,0,0,None,Mostly Cloudy
2017-09-03,5:51 PM,68,68,60.1,76,29.86,10,North,0,0,0,None,Scattered Clouds
2017-09-06,6:40 AM,68,68,66,93,29.86,6,Calm,0,0,0.01,None,Mostly Cloudy
2017-07-24,5:51 PM,68,68,61,78,29.86,10,Variable,3.5,0,0,None,Overcast
2017-04-17,1:51 AM,68,68,57,68,29.86,10,West,3.5,0,0,None,Clear
2017-02-24,2:51 PM,68,68,52,56,29.86,10,South,4.6,0,0,None,Clear
2017-10-24,7:51 AM,68,68,66.9,96,29.86,5,South,4.6,0,0.05,None,Overcast
2017-05-23,4:51 PM,68,68,46,45,29.85,10,Calm,0,0,0,None,Clear
2017-07-24,3:51 PM,68,68,61,78,29.85,10,Variable,4.6,0,0,None,Overcast
2017-04-17,2:51 AM,68,68,57.9,70,29.85,10,WNW,4.6,0,0,None,Clear
2017-09-03,3:51 PM,68,68,61,78,29.85,10,West,5.8,0,0,None,Overcast
2017-10-16,2:06 AM,68,68,64.9,90,29.84,7,WNW,6.9,0,0,None,Overcast
2017-05-23,5:51 PM,68,68,46,45,29.83,10,Calm,0,0,0,None,Clear
2017-09-06,6:51 AM,68,68,66,93,29.83,5,Variable,3.5,0,0.01,None,Overcast
2017-10-16,1:47 AM,68,68,64.4,88,29.83,7,Variable,3.5,0,0,None,Overcast
2017-10-16,1:51 AM,68,68,64.9,90,29.81,7,North,0,0,0,None,Overcast
2017-07-24,8:33 AM,68,68,66.9,96,29.8,1.8,Variable,5.8,0,0,Rain,Rain
2017-07-29,9:51 AM,68,68,54,61,29.8,10,ENE,11.5,17.3,0,None,Mostly Cloudy
2017-07-24,8:54 AM,68,68,66.9,96,29.78,3,Variable,6.9,0,0,Rain,Light Rain
2017-10-24,4:51 PM,68,68,66.9,96,29.78,4,North,0,0,0.02,None,Overcast
2017-10-24,6:51 PM,68,68,66,93,29.78,6,North,0,0,0,None,Overcast
2017-05-26,9:51 PM,68,68,52,56,29.78,10,Variable,3.5,0,0,None,Scattered Clouds
2017-10-24,9:51 PM,68,68,66,93,29.78,8,Variable,4.6,0,0,None,Overcast
2017-10-24,3:51 PM,68,68,66.9,96,29.77,3,Variable,6.9,0,0.05,Rain,Light Rain
2017-10-24,5:51 PM,68,68,66,93,29.77,4,North,0,0,0,None,Overcast
2017-10-24,7:51 PM,68,68,66,93,29.77,8,Variable,4.6,0,0,None,Overcast
2017-07-24,8:51 AM,68,68,66.9,96,29.76,2.5,Variable,5.8,0,0.05,Rain,Light Rain
2017-07-24,7:51 AM,68,68,66.9,96,29.76,5,Variable,6.9,0,0,None,Overcast
2017-10-24,11:51 PM,68,68,64.9,90,29.75,10,Calm,0,0,0,None,Overcast
2017-10-24,10:51 PM,68,68,66,93,29.75,8,Variable,3.5,0,0,None,Overcast
2017-05-02,7:51 PM,68,68,37,32,29.68,10,West,8.1,0,0,None,Mostly Cloudy
2017-05-02,6:27 AM,68,68,64,87,29.61,9,Variable,5.8,0,0,None,Mostly Cloudy
2017-05-26,11:51 AM,68,68,57.9,70,29.59,10,Variable,3.5,0,0,None,Overcast
2017-05-02,5:51 AM,68,68,63,84,29.58,10,SSW,10.4,17.3,0,None,Overcast
2017-05-02,4:51 AM,68,68,63,84,29.57,10,North,0,0,0,None,Partly Cloudy
2017-06-17,12:35 PM,70,68,93,29.98,0.5,Calm,Calm,0,0.17,"Fog	",Rain,Heavy Rain
2017-06-17,12:51 PM,70,68,93,29.96,0.5,Calm,Calm,0,0.32,"Fog	",Rain,Heavy Rain
2017-10-03,12:51 PM,69.1,69.1,50,51,30.61,10,Variable,3.5,0,0,None,Mostly Cloudy
2017-10-02,5:51 PM,69.1,69.1,36,30,30.41,10,Variable,4.6,0,0,None,Clear
2017-10-22,10:51 AM,69.1,69.1,52,54,30.4,6,Calm,0,0,0,None,Haze
2017-10-04,11:51 AM,69.1,69.1,54,58,30.39,10,WSW,8.1,0,0,None,Clear
2017-09-10,11:51 AM,69.1,69.1,50,51,30.36,10,ENE,10.4,0,0,None,Clear
2017-10-18,12:51 PM,69.1,69.1,43,39,30.3,10,Calm,0,0,0,None,Clear
2017-10-18,1:38 PM,69.1,69.1,44.1,40,30.3,4,Variable,4.6,0,0,None,Haze
2017-08-27,9:51 AM,69.1,69.1,48.9,49,30.28,10,ENE,5.8,0,0,None,Clear
2017-08-26,9:51 AM,69.1,69.1,50,51,30.27,10,ENE,4.6,0,0,None,Clear
2017-09-09,1:51 PM,69.1,69.1,48,47,30.26,10,Variable,5.8,0,0,None,Scattered Clouds
2017-09-09,12:51 PM,69.1,69.1,46,44,30.26,10,Variable,6.9,0,0,None,Partly Cloudy
2017-08-27,8:51 PM,69.1,69.1,55,61,30.25,10,Variable,3.5,0,0,None,Clear
2017-10-18,4:51 PM,69.1,69.1,46.9,45,30.25,10,Variable,4.6,0,0,None,Clear
2017-08-27,7:51 PM,69.1,69.1,54,58,30.24,10,Calm,0,0,0,None,Clear
2017-10-04,9:51 PM,69.1,69.1,57,65,30.21,10,North,0,0,0,None,Clear
2017-10-14,8:38 PM,69.1,69.1,62.1,78,30.21,10,Calm,0,0,0,None,Overcast
2017-10-14,9:12 PM,69.1,69.1,62.1,78,30.21,10,Calm,0,0,0,None,Overcast
2017-10-14,9:19 PM,69.1,69.1,62.1,78,30.21,10,Calm,0,0,0,None,Overcast
2017-10-14,9:32 PM,69.1,69.1,62.1,78,30.2,10,Calm,0,0,0,None,Overcast
2017-04-12,8:51 PM,69.1,69.1,44.1,40,30.19,10,Calm,0,0,0,None,Clear
2017-08-25,10:51 PM,69.1,69.1,53.1,57,30.19,10,Calm,0,0,0,None,Mostly Cloudy
2017-08-25,11:51 PM,69.1,69.1,53.1,57,30.19,10,NE,4.6,0,0,None,Clear
2017-10-19,12:51 PM,69.1,69.1,43,39,30.19,10,Variable,4.6,0,0,None,Clear
2017-11-02,5:51 PM,69.1,69.1,57.9,68,30.19,10,Variable,4.6,0,0,None,Clear
2017-10-14,8:51 PM,69.1,69.1,62.1,78,30.18,10,Calm,0,0,0,None,Overcast
2017-04-12,10:51 AM,69.1,69.1,52,54,30.17,10,NW,5.8,0,0,None,Overcast
2017-09-18,8:37 AM,69.1,69.1,66,90,30.16,1.8,East,4.6,0,0,None,Overcast
2017-09-18,8:11 AM,69.1,69.1,66,90,30.16,6,ENE,5.8,0,0,None,Overcast
2017-10-20,11:51 AM,69.1,69.1,28,22,30.16,9,WNW,8.1,0,0,None,Clear
2017-07-25,2:35 PM,69.1,69.1,60.1,73,30.15,10,Variable,3.5,0,0,None,Overcast
2017-07-25,2:42 PM,69.1,69.1,61,75,30.15,10,Variable,3.5,0,0,None,Overcast
2017-09-11,7:51 PM,69.1,69.1,48,47,30.15,10,NNE,4.6,0,0,None,Clear
2017-09-18,2:00 AM,69.1,69.1,66,90,30.15,6,East,5.8,0,0,None,Mostly Cloudy
2017-07-25,5:51 PM,69.1,69.1,60.1,73,30.15,10,ENE,6.9,0,0,None,Overcast
2017-04-12,9:51 AM,69.1,69.1,52,54,30.14,9,Calm,0,0,0,None,Mostly Cloudy
2017-07-26,8:51 PM,69.1,69.1,55.9,63,30.14,10,Calm,0,0,0,None,Clear
2017-09-18,9:51 AM,69.1,69.1,66,90,30.14,10,Variable,3.5,0,0,None,Overcast
2017-09-18,8:51 AM,69.1,69.1,66,90,30.14,3,NE,4.6,0,0,None,Overcast
2017-07-25,2:21 PM,69.1,69.1,60.1,73,30.14,10,North,4.6,0,0,None,Overcast
2017-10-11,8:51 AM,69.1,69.1,57,65,30.14,10,Variable,6.9,0,0,None,Clear
2017-04-10,9:51 PM,69.1,69.1,45,42,30.13,10,Variable,3.5,0,0,None,Clear
2017-09-18,4:23 AM,69.1,69.1,64,84,30.13,10,ENE,5.8,0,0,None,Overcast
2017-09-18,7:51 AM,69.1,69.1,64.9,87,30.13,10,Variable,6.9,0,0,None,Overcast
2017-08-06,11:51 PM,69.1,69.1,54,58,30.12,10,North,0,0,0,None,Clear
2017-08-07,1:51 AM,69.1,69.1,55,61,30.12,10,Calm,0,0,0,None,Clear
2017-09-18,1:51 AM,69.1,69.1,66,90,30.12,6,East,3.5,0,0,None,Scattered Clouds
2017-07-25,2:51 PM,69.1,69.1,60.1,73,30.12,10,Variable,4.6,0,0,None,Overcast
2017-07-25,1:51 PM,69.1,69.1,59,70,30.12,10,NE,5.8,0,0,None,Overcast
2017-09-08,1:51 PM,69.1,69.1,48.9,49,30.1,10,North,0,0,0,None,Scattered Clouds
2017-09-08,3:51 PM,69.1,69.1,48,47,30.1,10,Calm,0,0,0,None,Mostly Cloudy
2017-08-07,3:51 AM,69.1,69.1,55.9,63,30.1,10,SW,3.5,0,0,None,Scattered Clouds
2017-09-18,5:51 AM,69.1,69.1,64,84,30.1,10,Variable,5.8,0,0,None,Overcast
2017-09-08,12:51 PM,69.1,69.1,48.9,49,30.1,10,WNW,6.9,0,0,None,Scattered Clouds
2017-08-07,4:51 AM,69.1,69.1,55.9,63,30.09,10,WSW,3.5,0,0,None,Overcast
2017-09-01,5:51 PM,69.1,69.1,41,36,30.09,10,Variable,4.6,0,0,None,Clear
2017-09-08,11:51 AM,69.1,69.1,48,47,30.09,10,WNW,5.8,0,0,None,Clear
2017-10-19,4:51 PM,69.1,69.1,41,36,30.09,10,WSW,9.2,0,0,None,Clear
2017-04-10,7:51 PM,69.1,69.1,45,42,30.08,10,South,5.8,0,0,None,Clear
2017-04-11,7:51 PM,69.1,69.1,52,54,30.06,10,SE,3.5,0,0,None,Clear
2017-07-14,3:15 PM,69.1,69.1,66.9,93,30.06,3,Variable,3.5,0,0.03,None,Overcast
2017-07-27,7:51 AM,69.1,69.1,62.1,78,30.06,10,Variable,3.5,0,0,None,Partly Cloudy
2017-10-15,9:51 AM,69.1,69.1,64,84,30.06,10,Variable,4.6,0,0,None,Overcast
2017-07-14,2:51 PM,69.1,69.1,66.9,93,30.05,1.8,Variable,3.5,0,0.04,Rain,Light Rain
2017-06-15,7:51 AM,69.1,69.1,54,58,30.05,10,SSE,4.6,0,0,None,Scattered Clouds
2017-07-14,5:37 PM,69.1,69.1,68,96,30.05,2.5,Variable,4.6,0,0,None,Overcast
2017-07-14,3:51 AM,69.1,69.1,66,90,30.05,8,East,8.1,0,0,None,Overcast
2017-10-15,10:51 AM,69.1,69.1,64,84,30.04,10,Calm,0,0,0,None,Overcast
2017-06-26,8:51 AM,69.1,69.1,52,54,30.04,10,Variable,4.6,0,0,None,Clear
2017-07-14,4:30 PM,69.1,69.1,66.9,93,30.03,1.8,Variable,3.5,0,0.02,Rain,Rain
2017-10-23,10:51 PM,69.1,69.1,64,84,30.03,10,North,0,0,0,None,Overcast
2017-07-14,3:51 PM,69.1,69.1,66.9,93,30.03,4,Calm,0,0,0.03,None,Overcast
2017-06-15,12:51 AM,69.1,69.1,46.9,45,30.03,10,SW,3.5,0,0,None,Clear
2017-07-14,4:44 PM,69.1,69.1,68,96,30.02,3,Variable,5.8,0,0.05,Rain,Light Rain
2017-06-15,6:51 PM,69.1,69.1,53.1,57,30.02,10,North,0,0,0,None,Clear
2017-04-17,6:51 PM,69.1,69.1,28.9,22,30.02,10,North,8.1,19.6,0,None,Clear
2017-07-14,10:15 PM,69.1,69.1,68,96,30.02,2.5,Variable,5.8,0,0,None,Overcast
2017-07-14,6:09 PM,69.1,69.1,66.9,93,30.02,3,East,6.9,0,0,None,Overcast
2017-07-14,10:27 PM,69.1,69.1,66.9,93,30.02,3,Variable,6.9,0,0,None,Overcast
2017-10-15,11:51 AM,69.1,69.1,64,84,30.01,10,WSW,8.1,16.1,0,None,Overcast
2017-07-14,5:51 PM,69.1,69.1,68,96,30.01,1.5,Variable,6.9,0,0,None,Overcast
2017-07-14,4:51 PM,69.1,69.1,68,96,30,5,Variable,4.6,0,0.05,None,Overcast
2017-07-14,9:51 PM,69.1,69.1,68,96,30,3,Variable,4.6,0,0,None,Overcast
2017-07-14,7:51 PM,69.1,69.1,66.9,93,30,4,Variable,5.8,0,0,None,Overcast
2017-10-24,1:51 AM,69.1,69.1,64.9,87,29.99,9,North,0,0,0,None,Overcast
2017-08-24,11:51 PM,69.1,69.1,52,54,29.99,10,Calm,0,0,0,None,Clear
2017-06-27,10:51 PM,69.1,69.1,50,51,29.99,10,Variable,3.5,0,0,None,Clear
2017-06-03,9:51 PM,69.1,69.1,39,33,29.99,10,Variable,4.6,0,0,None,Clear
2017-06-26,1:51 AM,69.1,69.1,48.9,49,29.99,10,Variable,4.6,0,0,None,Clear
2017-07-30,8:51 AM,69.1,69.1,52,54,29.99,10,Variable,4.6,0,0,None,Clear
2017-05-10,12:51 PM,69.1,69.1,36,30,29.99,10,ENE,5.8,0,0,None,Mostly Cloudy
2017-07-14,8:51 PM,69.1,69.1,68,96,29.99,4,SSE,8.1,0,0,None,Overcast
2017-08-15,3:30 AM,69.1,69.1,68,96,29.98,2.5,Calm,0,0,0.2,Rain,Light Rain
2017-08-15,3:37 AM,69.1,69.1,66.9,93,29.98,3,Calm,0,0,0.21,Rain,Light Rain
2017-08-15,4:16 AM,69.1,69.1,68,96,29.98,2.5,Variable,3.5,0,0.01,Rain,Light Rain
2017-05-16,9:51 PM,69.1,69.1,44.1,40,29.98,10,WSW,3.5,0,0,None,Clear
2017-10-23,11:51 PM,69.1,69.1,64.9,87,29.98,9,Variable,4.6,0,0,None,Overcast
2017-06-17,2:24 PM,69.1,69.1,68,96,29.97,1.2,Variable,3.5,0,0.5,Rain,Light Rain
2017-06-17,2:33 PM,69.1,69.1,68,96,29.97,3,Variable,4.6,0,0.52,Rain,Rain
2017-08-15,7:20 AM,69.1,69.1,68,96,29.97,2.5,Calm,0,0,0,None,Overcast
2017-10-24,12:51 AM,69.1,69.1,64.9,87,29.97,9,SSE,12.7,19.6,0,None,Overcast
2017-08-08,10:27 AM,69.1,69.1,63,81,29.97,10,NE,6.9,0,0,None,Mostly Cloudy
2017-06-17,8:51 AM,69.1,69.1,64.9,87,29.96,6,Calm,0,0,0,None,Overcast
2017-08-15,6:07 AM,69.1,69.1,66.9,93,29.96,2.5,Calm,0,0,0,None,Overcast
2017-05-28,1:51 PM,69.1,69.1,55.9,63,29.96,10,South,8.1,20.7,0,None,Clear
2017-08-15,6:22 AM,69.1,69.1,66.9,93,29.96,3,NE,3.5,0,0,None,Overcast
2017-08-15,7:30 AM,69.1,69.1,68,96,29.96,3,NNE,3.5,0,0,None,Mostly Cloudy
2017-08-08,9:36 AM,69.1,69.1,64,84,29.96,10,Variable,5.8,0,0,None,Mostly Cloudy
2017-06-17,1:51 PM,69.1,69.1,68,96,29.95,0.8,Variable,3.5,0,0.55,Rain,Rain
2017-08-15,3:51 AM,69.1,69.1,68,96,29.95,4,Calm,0,0,0.21,None,Overcast
2017-10-24,2:51 AM,69.1,69.1,64.9,87,29.95,8,Variable,5.8,19.6,0,None,Overcast
2017-06-17,10:22 PM,69.1,69.1,68,96,29.95,4,Variable,3.5,0,0,None,Overcast
2017-06-03,12:51 PM,69.1,69.1,43,39,29.95,10,Variable,4.6,0,0,None,Mostly Cloudy
2017-06-17,9:24 PM,69.1,69.1,68,96,29.95,5,Variable,4.6,0,0,None,Overcast
2017-08-24,8:51 AM,69.1,69.1,55,61,29.95,10,Variable,5.8,0,0,None,Clear
2017-08-08,10:51 AM,69.1,69.1,62.1,78,29.95,10,ENE,9.2,0,0,None,Overcast
2017-06-03,1:51 PM,69.1,69.1,39,33,29.94,10,North,0,0,0,None,Scattered Clouds
2017-06-01,9:51 AM,69.1,69.1,57.9,68,29.94,10,Calm,0,0,0,None,Partly Cloudy
2017-08-15,6:51 AM,69.1,69.1,66.9,93,29.94,3,Calm,0,0,0,None,Overcast
2017-08-08,9:51 AM,69.1,69.1,62.1,78,29.94,10,North,9.2,0,0,None,Mostly Cloudy
2017-05-28,2:51 PM,69.1,69.1,55,61,29.93,10,North,0,0,0,None,Clear
2017-06-17,9:51 PM,69.1,69.1,68,96,29.93,5,Calm,0,0,0,None,Overcast
2017-08-15,5:51 AM,69.1,69.1,66.9,93,29.93,3,Calm,0,0,0,None,Overcast
2017-06-17,10:51 PM,69.1,69.1,68,96,29.93,2.5,Variable,3.5,0,0,None,Overcast
2017-09-07,12:22 PM,69.1,69.1,57,65,29.93,10,Variable,3.5,0,0,None,Mostly Cloudy
2017-09-07,1:28 PM,69.1,69.1,55.9,63,29.92,10,SW,5.8,0,0,None,Mostly Cloudy
2017-02-24,11:51 AM,69.1,69.1,52,54,29.92,10,SSE,6.9,0,0,None,Clear
2017-09-07,6:51 PM,69.1,69.1,50,51,29.91,10,West,6.9,18.4,0,None,Clear
2017-07-30,12:51 AM,69.1,69.1,50,51,29.91,10,Variable,3.5,0,0,None,Clear
2017-09-07,1:51 PM,69.1,69.1,55.9,63,29.9,10,North,0,0,0,None,Mostly Cloudy
2017-09-06,9:34 AM,69.1,69.1,66,90,29.9,6,Variable,3.5,0,0,None,Overcast
2017-09-07,12:51 PM,69.1,69.1,57.9,68,29.9,10,Variable,3.5,0,0,None,Overcast
2017-09-19,7:51 PM,69.1,69.1,66,90,29.89,10,NNE,8.1,17.3,0.05,None,Overcast
2017-02-24,12:51 PM,69.1,69.1,52,54,29.89,10,South,9.2,0,0,None,Clear
2017-07-07,3:51 AM,69.1,69.1,66.9,93,29.88,6,ENE,4.6,0,0.01,Rain,Light Rain
2017-10-24,3:51 AM,69.1,69.1,64.9,87,29.88,9,North,0,0,0,None,Overcast
2017-05-27,7:51 PM,69.1,69.1,57,65,29.88,10,Variable,5.8,0,0,None,Mostly Cloudy
2017-05-27,11:51 AM,69.1,69.1,55.9,63,29.87,10,Calm,0,0,0,None,Overcast
2017-05-27,12:51 PM,69.1,69.1,55,61,29.87,10,West,3.5,0,0,None,Overcast
2017-05-27,1:51 PM,69.1,69.1,55.9,63,29.87,10,WSW,4.6,0,0,None,Overcast
2017-09-06,8:42 AM,69.1,69.1,66.9,93,29.86,5,Variable,4.6,0,0.01,None,Mostly Cloudy
2017-09-03,4:51 PM,69.1,69.1,60.1,73,29.86,10,West,8.1,0,0,None,Mostly Cloudy
2017-10-24,4:51 AM,69.1,69.1,64.9,87,29.85,8,North,0,0,0,None,Overcast
2017-10-24,8:51 AM,69.1,69.1,66.9,93,29.85,5,Variable,5.8,18.4,0,None,Overcast
2017-07-24,4:51 PM,69.1,69.1,59,70,29.85,10,Variable,3.5,0,0,None,Overcast
2017-09-06,7:51 AM,69.1,69.1,66,90,29.84,5,Calm,0,0,0,None,Mostly Cloudy
2017-10-15,7:51 PM,69.1,69.1,62.1,78,29.84,10,Variable,3.5,0,0,None,Overcast
2017-07-07,8:17 AM,69.1,69.1,68,96,29.83,2.5,East,6.9,17.3,0.01,Rain,Light Rain
2017-07-07,8:26 AM,69.1,69.1,68,96,29.83,3,ENE,8.1,0,0.01,Rain,Light Rain
2017-10-15,9:51 PM,69.1,69.1,63,81,29.83,9,North,0,0,0,None,Overcast
2017-10-16,12:51 AM,69.1,69.1,64.9,87,29.82,8,Variable,4.6,0,0,None,Overcast
2017-10-15,8:51 PM,69.1,69.1,62.1,78,29.82,9,Variable,5.8,0,0,None,Overcast
2017-07-07,10:19 AM,69.1,69.1,68,96,29.81,1,NNE,8.1,17.3,0.01,Rain,Rain
2017-07-24,5:40 AM,69.1,69.1,68,96,29.81,1.5,Variable,3.5,0,0.17,Rain,Heavy Rain
2017-10-15,10:51 PM,69.1,69.1,64,84,29.81,9,North,0,0,0,None,Overcast
2017-07-07,11:31 AM,69.1,69.1,68,96,29.8,1,NE,9.2,19.6,0.62,Rain,Heavy Rain
2017-07-07,11:27 AM,69.1,69.1,68,96,29.8,1,NE,11.5,19.6,0.58,Rain,Heavy Rain
2017-10-15,11:51 PM,69.1,69.1,64,84,29.8,8,Variable,4.6,0,0,None,Mostly Cloudy
2017-07-24,5:16 AM,69.1,69.1,68,96,29.79,2.5,ENE,9.2,0,0.07,Rain,Light Rain
2017-07-24,6:04 AM,69.1,69.1,66.9,93,29.78,3,Variable,6.9,0,0.06,Rain,Light Rain
2017-10-24,1:51 PM,69.1,69.1,66.9,93,29.78,2.5,SSW,8.1,0,0.02,Rain,Light Rain
2017-07-07,11:46 AM,69.1,69.1,68,96,29.77,3,ENE,9.2,18.4,0.66,Rain,Light Rain
2017-07-24,5:51 AM,69.1,69.1,68,96,29.77,1.5,East,5.8,0,0.24,Rain,Rain
2017-10-24,2:51 PM,69.1,69.1,68,96,29.77,3,SSW,9.2,18.4,0.06,None,Overcast
2017-07-24,6:51 AM,69.1,69.1,66.9,93,29.76,2.5,Variable,6.9,0,0.08,Rain,Light Rain
2017-05-02,6:51 PM,69.1,69.1,36,30,29.66,10,Variable,6.9,0,0,None,Partly Cloudy
2017-05-02,5:20 AM,69.1,69.1,63,81,29.61,10,Variable,3.5,0,0,None,Mostly Cloudy
2017-05-02,7:33 AM,69.1,69.1,64,84,29.61,8,West,10.4,0,0,None,Mostly Cloudy
2017-05-02,6:51 AM,69.1,69.1,64,84,29.58,9,SSW,10.4,17.3,0,None,Scattered Clouds
2017-05-02,3:51 AM,69.1,69.1,62.1,78,29.58,9,Variable,5.8,0,0,None,Mostly Cloudy
2017-05-02,8:51 AM,69.1,69.1,60.1,73,29.58,10,WNW,9.2,0,0,None,Clear
2017-03-01,6:51 PM,69.1,69.1,51.1,53,29.45,10,WSW,8.1,20.7,0,None,Clear
2017-03-01,5:51 PM,69.1,69.1,55.9,63,29.44,10,WSW,10.4,18.4,0,None,Clear
2017-03-01,4:51 PM,69.1,69.1,59,70,29.43,10,WSW,6.9,0,0,None,Clear
2017-11-02,12:47 PM,69.8,69.8,60.8,73,30.26,10,North,0,0,0,None,Mostly Cloudy
2017-09-18,8:47 AM,69.8,69.8,66.2,88,30.16,3,ENE,5.8,0,0,None,Overcast
2017-07-25,2:49 PM,69.8,69.8,60.8,73,30.15,10,Variable,5.8,0,0,None,Overcast
2017-09-18,2:47 AM,69.8,69.8,64.4,83,30.14,8,Variable,3.5,0,0,None,Overcast
2017-06-17,1:47 PM,69.8,69.8,68,94,29.97,1,Variable,3.5,0,0.55,Rain,Light Rain
2017-09-06,9:47 AM,69.8,69.8,66.2,88,29.91,6,WNW,8.1,0,0,None,Overcast
2017-07-29,10:48 AM,69.8,69.8,55.4,60,29.84,10,NNE,10.4,20.7,0,None,Scattered Clouds
2017-10-15,10:47 PM,69.8,69.8,64.4,83,29.84,9,Variable,3.5,0,0,None,Overcast
2017-10-03,1:51 PM,70,70,48,46,30.6,10,Variable,3.5,0,0,None,Partly Cloudy
2017-10-02,4:51 PM,70,70,33.1,26,30.4,10,Calm,0,0,0,None,Clear
2017-10-02,12:51 PM,70,70,39.9,33,30.4,10,Variable,3.5,0,0,None,Clear
2017-10-02,1:51 PM,70,70,37.9,31,30.38,10,Calm,0,0,0,None,Clear
2017-10-22,4:51 PM,70,70,48.9,47,30.36,10,Variable,3.5,0,0,None,Clear
2017-09-10,5:51 PM,70,70,46,42,30.34,10,ENE,8.1,0,0,None,Clear
2017-10-21,5:51 PM,70,70,39,32,30.32,10,Calm,0,0,0,None,Clear
2017-08-28,10:51 AM,70,70,55,59,30.31,10,ENE,9.2,0,0,None,Clear
2017-08-28,9:51 AM,70,70,57.9,65,30.31,10,ENE,10.4,0,0,None,Partly Cloudy
2017-09-11,11:51 AM,70,70,48.9,47,30.28,10,ENE,3.5,0,0,None,Clear
2017-08-28,7:51 PM,70,70,52,53,30.27,10,Variable,6.9,0,0,None,Clear
2017-10-23,10:51 AM,70,70,62.1,76,30.26,10,Variable,3.5,0,0,None,Clear
2017-07-26,8:51 AM,70,70,55,59,30.26,10,ENE,4.6,0,0,None,Clear
2017-11-02,1:59 PM,70,70,60.1,71,30.24,10,SSE,6.9,0,0,None,Scattered Clouds
2017-11-02,12:51 PM,70,70,60.1,71,30.23,10,SSE,3.5,0,0,None,Mostly Cloudy
2017-08-26,12:51 AM,70,70,52,53,30.21,10,NE,5.8,0,0,None,Clear
2017-10-04,8:51 PM,70,70,55.9,61,30.2,10,North,0,0,0,None,Clear
2017-10-14,5:38 PM,70,70,62.1,76,30.19,10,West,3.5,0,0,None,Scattered Clouds
2017-11-02,4:51 PM,70,70,57.9,65,30.19,10,Variable,6.9,0,0,None,Clear
2017-10-14,7:51 PM,70,70,62.1,76,30.18,10,NW,4.6,0,0,None,Overcast
2017-10-14,6:51 PM,70,70,62.1,76,30.17,10,West,3.5,0,0,None,Mostly Cloudy
2017-09-18,12:22 AM,70,70,66,87,30.16,7,Calm,0,0,0,None,Overcast
2017-10-14,5:51 PM,70,70,62.1,76,30.16,10,Calm,0,0,0,None,Partly Cloudy
2017-04-12,7:51 PM,70,70,46,42,30.16,10,Variable,3.5,0,0,None,Clear
2017-09-18,10:16 AM,70,70,64.9,84,30.16,10,Variable,5.8,0,0,None,Overcast
2017-10-19,1:51 PM,70,70,41,35,30.15,10,SSW,6.9,0,0,None,Clear
2017-10-11,9:51 AM,70,70,55.9,61,30.14,10,ENE,6.9,0,0,None,Clear
2017-10-11,5:51 PM,70,70,62.1,76,30.13,9,ESE,5.8,0,0,Rain,Light Rain
2017-10-19,2:51 PM,70,70,42.1,36,30.13,10,Variable,4.6,0,0,None,Clear
2017-04-12,2:51 PM,70,70,53.1,55,30.13,10,NW,5.8,0,0,None,Clear
2017-08-06,10:51 PM,70,70,53.1,55,30.12,10,Calm,0,0,0,None,Clear
2017-08-07,12:51 AM,70,70,54,57,30.12,10,Calm,0,0,0,None,Clear
2017-09-18,12:51 AM,70,70,66,87,30.12,7,ENE,3.5,0,0,None,Overcast
2017-09-18,6:51 AM,70,70,64.9,84,30.12,10,Variable,5.8,0,0,None,Overcast
2017-04-10,8:51 PM,70,70,44.1,39,30.11,10,North,0,0,0,None,Clear
2017-08-06,9:51 PM,70,70,54,57,30.11,10,Variable,3.5,0,0,None,Clear
2017-10-19,3:51 PM,70,70,42.1,36,30.11,10,Variable,3.5,0,0,None,Clear
2017-09-18,2:51 AM,70,70,64.9,84,30.11,8,ENE,8.1,0,0,None,Overcast
2017-08-07,6:51 AM,70,70,57.9,65,30.1,10,Calm,0,0,0,None,Overcast
2017-08-06,10:51 AM,70,70,51.1,51,30.1,10,Variable,4.6,0,0,None,Clear
2017-09-01,1:51 PM,70,70,35.1,28,30.1,10,Variable,4.6,0,0,None,Clear
2017-09-18,3:51 AM,70,70,64,81,30.1,10,Variable,4.6,0,0,None,Overcast
2017-08-25,9:51 AM,70,70,57.9,65,30.1,10,Variable,5.8,0,0,None,Clear
2017-09-01,2:51 PM,70,70,33.1,26,30.1,10,Variable,5.8,0,0,None,Clear
2017-09-18,4:51 AM,70,70,64,81,30.1,10,ENE,8.1,0,0,None,Overcast
2017-08-07,8:51 AM,70,70,63,78,30.09,7,North,0,0,0,Rain,Light Rain
2017-08-07,5:51 AM,70,70,55,59,30.09,10,Calm,0,0,0,None,Overcast
2017-09-08,2:51 PM,70,70,48,46,30.09,10,Variable,4.6,17.3,0,None,Partly Cloudy
2017-09-08,4:51 PM,70,70,48.9,47,30.09,10,Variable,4.6,0,0,None,Clear
2017-09-01,4:51 PM,70,70,37.9,31,30.09,10,Variable,5.8,0,0,None,Clear
2017-09-01,3:51 PM,70,70,35.1,28,30.09,10,West,8.1,0,0,None,Clear
2017-06-15,8:51 AM,70,70,54,57,30.06,10,Variable,3.5,0,0,None,Overcast
2017-07-14,2:51 AM,70,70,66.9,90,30.04,10,Variable,5.8,0,0,None,Overcast
2017-11-03,11:51 AM,70,70,57.9,65,30.03,10,WSW,8.1,19.6,0,None,Clear
2017-05-16,11:51 AM,70,70,45,41,30.01,10,North,9.2,0,0,None,Clear
2017-05-31,12:51 PM,70,70,60.1,71,30,10,Calm,0,0,0,None,Clear
2017-08-05,11:51 PM,70,70,55,59,29.99,10,Variable,3.5,0,0,None,Clear
2017-05-16,11:51 PM,70,70,46,42,29.99,10,West,3.5,0,0,None,Clear
2017-08-06,12:51 AM,70,70,53.1,55,29.99,10,Variable,5.8,0,0,None,Clear
2017-05-10,3:51 PM,70,70,36,29,29.99,10,NNW,6.9,0,0,None,Clear
2017-08-25,12:51 AM,70,70,52,53,29.99,10,ENE,8.1,0,0,None,Scattered Clouds
2017-06-17,12:14 PM,70,70,66.9,90,29.98,1.8,Calm,0,0,0.03,Rain,Rain
2017-08-15,3:08 AM,70,70,68,93,29.98,1.5,WSW,4.6,0,0.1,Rain,Heavy Rain
2017-05-16,10:51 PM,70,70,45,41,29.98,10,Calm,0,0,0,None,Clear
2017-08-08,11:16 AM,70,70,62.1,76,29.98,10,Variable,6.9,0,0,None,Partly Cloudy
2017-06-03,8:51 PM,70,70,39,32,29.97,10,Variable,4.6,0,0,None,Clear
2017-06-02,10:51 AM,70,70,46,42,29.97,10,Variable,5.8,0,0,None,Clear
2017-08-15,2:51 AM,70,70,68,93,29.96,2.5,WSW,5.8,0,0.04,Rain,Rain
2017-04-17,12:51 PM,70,70,37,30,29.96,10,WNW,9.2,17.3,0,None,Clear
2017-05-28,12:51 PM,70,70,57.9,65,29.96,10,Variable,4.6,0,0,None,Clear
2017-06-17,10:03 PM,70,70,68,93,29.95,4,Calm,0,0,0,None,Overcast
2017-06-17,2:51 PM,70,70,69.1,97,29.95,6,Variable,4.6,0,0.52,None,Overcast
2017-04-17,1:51 PM,70,70,36,29,29.95,10,WNW,9.2,0,0,None,Clear
2017-08-30,10:51 PM,70,70,57.9,65,29.94,10,North,0,0,0,None,Clear
2017-08-15,7:51 AM,70,70,69.1,97,29.94,4,Calm,0,0,0,None,Mostly Cloudy
2017-06-03,2:51 PM,70,70,37.9,31,29.94,10,Variable,5.8,20.7,0,None,Mostly Cloudy
2017-08-30,11:51 PM,70,70,59,68,29.94,10,WSW,3.5,0,0,None,Clear
2017-09-19,4:23 PM,70,70,66.9,90,29.93,4,NNE,8.1,0,0.07,Rain,Light Rain
2017-06-17,8:51 PM,70,70,68,93,29.93,7,Variable,3.5,0,0,None,Overcast
2017-06-17,11:51 PM,70,70,68,93,29.93,2.5,Variable,3.5,0,0,None,Overcast
2017-06-01,11:51 PM,70,70,45,41,29.93,10,WSW,4.6,0,0,None,Clear
2017-05-31,7:51 PM,70,70,61,73,29.92,10,Variable,4.6,0,0,None,Clear
2017-09-12,11:51 PM,70,70,57.9,65,29.92,10,WSW,4.6,0,0,None,Clear
2017-06-02,7:51 PM,70,70,39,32,29.91,10,North,0,0,0,None,Clear
2017-09-19,4:51 PM,70,70,66.9,90,29.91,10,North,0,0,0.09,None,Overcast
2017-09-19,9:25 PM,70,70,64.9,84,29.91,10,NE,9.2,19.6,0,None,Overcast
2017-09-19,5:51 PM,70,70,66.9,90,29.9,7,ENE,9.2,20.7,0,None,Overcast
2017-08-05,9:09 AM,70,70,69.1,97,29.9,7,Variable,3.5,0,0,None,Overcast
2017-07-29,11:51 PM,70,70,51.1,51,29.9,10,NE,5.8,0,0,None,Clear
2017-09-19,8:51 PM,70,70,64.9,84,29.89,10,NNE,13.8,20.7,0,None,Overcast
2017-09-07,5:51 PM,70,70,52,53,29.89,10,Variable,4.6,0,0,None,Clear
2017-09-06,9:14 AM,70,70,66,87,29.88,5,North,0,0,0,None,Mostly Cloudy
2017-09-07,4:51 PM,70,70,51.1,51,29.88,10,Variable,6.9,17.3,0,None,Partly Cloudy
2017-09-07,2:51 PM,70,70,54,57,29.88,10,WNW,8.1,18.4,0,None,Partly Cloudy
2017-05-27,6:51 PM,70,70,57,63,29.88,10,Variable,3.5,0,0,None,Overcast
2017-08-24,1:51 AM,70,70,54,57,29.88,10,WNW,3.5,0,0,None,Clear
2017-08-05,6:33 AM,70,70,69.1,97,29.87,6,North,0,0,0.08,Rain,Light Rain
2017-05-27,5:51 PM,70,70,57,63,29.87,10,Calm,0,0,0,None,Overcast
2017-10-15,5:51 PM,70,70,62.1,76,29.87,9,West,11.5,23,0,None,Overcast
2017-05-27,3:51 PM,70,70,54,57,29.87,10,Variable,4.6,0,0,None,Overcast
2017-05-27,2:51 PM,70,70,54,57,29.86,10,Calm,0,0,0,None,Overcast
2017-09-28,6:51 PM,70,70,45,41,29.86,10,Variable,3.5,0,0,None,Clear
2017-07-07,6:40 AM,70,70,68,93,29.86,6,Variable,4.6,0,0,None,Overcast
2017-04-17,12:51 AM,70,70,57,63,29.86,10,West,4.6,0,0,None,Clear
2017-07-07,4:51 AM,70,70,66.9,90,29.86,9,ENE,6.9,0,0.01,None,Overcast
2017-10-15,6:51 PM,70,70,61,73,29.86,10,Variable,6.9,0,0,None,Overcast
2017-10-24,5:51 AM,70,70,64.9,84,29.85,8,North,0,0,0,None,Overcast
2017-09-06,8:51 AM,70,70,66.9,90,29.84,4,Calm,0,0,0.01,None,Mostly Cloudy
2017-07-07,5:51 AM,70,70,68,93,29.84,7,ENE,8.1,0,0,None,Overcast
2017-08-05,6:51 AM,70,70,69.1,97,29.83,8,Calm,0,0,0.09,None,Scattered Clouds
2017-09-06,2:51 AM,70,70,62.1,76,29.83,10,WNW,5.8,0,0,None,Scattered Clouds
2017-07-07,6:51 AM,70,70,68,93,29.83,6,ENE,8.1,0,0,None,Overcast
2017-09-06,5:51 AM,70,70,63,78,29.82,7,Calm,0,0,0,Rain,Light Rain
2017-09-06,4:51 AM,70,70,63,78,29.82,10,Calm,0,0,0,None,Mostly Cloudy
2017-05-01,3:51 PM,70,70,57,63,29.82,8,SE,6.9,0,0,None,Clear
2017-09-06,3:51 AM,70,70,62.1,76,29.81,10,Calm,0,0,0,None,Partly Cloudy
2017-07-07,7:51 AM,70,70,68,93,29.81,5,ENE,6.9,0,0,None,Overcast
2017-07-24,5:07 AM,70,70,68,93,29.8,3,ENE,5.8,0,0.04,Rain,Rain
2017-07-29,11:51 AM,70,70,55,59,29.8,10,Variable,6.9,18.4,0,None,Mostly Cloudy
2017-07-07,9:44 AM,70,70,68,93,29.8,2.5,Variable,6.9,19.6,0,None,Overcast
2017-09-28,9:39 AM,70,70,54,57,29.8,10,Variable,4.6,0,0,None,Scattered Clouds
2017-07-29,6:31 AM,70,70,50,49,29.8,10,ENE,10.4,0,0,None,Mostly Cloudy
2017-07-29,7:51 AM,70,70,51.1,51,29.79,10,ENE,12.7,19.6,0,None,Mostly Cloudy
2017-07-07,8:51 AM,70,70,68,93,29.79,4,ENE,5.8,0,0.01,None,Overcast
2017-07-24,4:51 AM,70,70,66.9,90,29.78,3,East,5.8,0,0.03,Rain,Rain
2017-09-28,9:51 AM,70,70,53.1,55,29.78,10,Variable,5.8,0,0,None,Clear
2017-07-29,6:51 AM,70,70,50,49,29.77,10,NE,12.7,18.4,0,None,Mostly Cloudy
2017-07-07,9:51 AM,70,70,68,93,29.77,2.5,East,12.7,20.7,0,None,Overcast
2017-05-01,7:51 PM,70,70,60.1,71,29.73,9,South,3.5,0,0,None,Partly Cloudy
2017-05-26,8:51 PM,70,70,52,53,29.73,10,Variable,3.5,0,0,None,Partly Cloudy
2017-05-01,8:51 PM,70,70,59,68,29.72,10,South,9.2,18.4,0,None,Clear
2017-05-02,5:51 PM,70,70,35.1,28,29.64,10,West,12.7,32.2,0,None,Clear
2017-10-02,2:51 PM,71.1,71.1,37,29,30.38,10,Calm,0,0,0,None,Clear
2017-10-04,12:51 PM,71.1,71.1,53.1,53,30.35,10,Variable,4.6,0,0,None,Clear
2017-09-10,4:51 PM,71.1,71.1,48,44,30.35,10,Variable,5.8,0,0,None,Clear
2017-09-10,12:51 PM,71.1,71.1,48.9,45,30.35,10,ENE,8.1,0,0,None,Clear
2017-09-10,3:51 PM,71.1,71.1,48,44,30.34,10,Variable,4.6,0,0,None,Clear
2017-08-26,10:51 AM,71.1,71.1,51.1,49,30.28,10,NE,6.9,0,0,None,Clear
2017-08-28,6:51 PM,71.1,71.1,51.1,49,30.28,10,SSE,6.9,0,0,None,Partly Cloudy
2017-10-18,1:51 PM,71.1,71.1,44.1,38,30.27,10,Calm,0,0,0,None,Clear
2017-10-18,2:51 PM,71.1,71.1,45,39,30.26,10,Variable,3.5,0,0,None,Clear
2017-10-18,3:51 PM,71.1,71.1,46,41,30.25,10,Variable,3.5,0,0,None,Clear
2017-07-26,9:51 AM,71.1,71.1,54,55,30.25,10,East,5.8,0,0,None,Clear
2017-08-27,6:51 PM,71.1,71.1,53.1,53,30.24,10,Variable,3.5,0,0,None,Clear
2017-08-26,7:51 PM,71.1,71.1,44.1,38,30.23,10,NE,5.8,0,0,None,Clear
2017-10-04,6:51 PM,71.1,71.1,55.9,59,30.22,10,North,0,0,0,None,Clear
2017-10-04,7:51 PM,71.1,71.1,55.9,59,30.22,10,Variable,5.8,0,0,None,Clear
2017-11-02,2:51 PM,71.1,71.1,60.1,68,30.2,10,Variable,3.5,0,0,None,Partly Cloudy
2017-11-02,3:51 PM,71.1,71.1,59,66,30.19,10,Calm,0,0,0,None,Clear
2017-10-14,1:51 PM,71.1,71.1,63,75,30.19,10,ENE,4.6,0,0,None,Overcast
2017-10-14,2:51 PM,71.1,71.1,62.1,73,30.17,10,Calm,0,0,0,None,Overcast
2017-10-14,3:51 PM,71.1,71.1,63,75,30.17,10,Calm,0,0,0,None,Overcast
2017-08-25,8:51 PM,71.1,71.1,52,51,30.17,10,Variable,3.5,0,0,None,Clear
2017-07-06,1:51 AM,71.1,71.1,62.1,73,30.17,10,South,4.6,0,0,None,Clear
2017-10-14,4:51 PM,71.1,71.1,62.1,73,30.16,10,Calm,0,0,0,None,Overcast
2017-07-26,6:51 PM,71.1,71.1,54,55,30.15,10,Variable,3.5,0,0,None,Clear
2017-07-06,3:51 AM,71.1,71.1,62.1,73,30.14,10,Calm,0,0,0,None,Overcast
2017-07-06,6:51 AM,71.1,71.1,62.1,73,30.14,10,Calm,0,0,0,None,Clear
2017-10-11,10:51 AM,71.1,71.1,55.9,59,30.14,10,ENE,8.1,0,0,None,Clear
2017-07-26,7:51 PM,71.1,71.1,53.1,53,30.14,10,South,8.1,0,0,None,Clear
2017-07-25,4:51 PM,71.1,71.1,60.1,68,30.13,10,Calm,0,0,0,None,Overcast
2017-10-20,12:51 PM,71.1,71.1,25,18,30.13,10,WNW,9.2,17.3,0,None,Clear
2017-07-25,3:51 PM,71.1,71.1,60.1,68,30.13,10,Variable,4.6,0,0,None,Overcast
2017-09-18,10:51 AM,71.1,71.1,64.9,81,30.13,10,Variable,4.6,0,0,None,Overcast
2017-04-10,1:51 PM,71.1,71.1,41,34,30.13,10,South,5.8,0,0,None,Clear
2017-06-28,10:51 AM,71.1,71.1,48.9,45,30.12,10,Variable,5.8,0,0,None,Clear
2017-10-20,5:51 PM,71.1,71.1,34,26,30.12,10,Variable,5.8,0,0,None,Clear
2017-08-06,8:51 PM,71.1,71.1,54,55,30.11,10,Variable,3.5,0,0,None,Clear
2017-09-18,1:51 PM,71.1,71.1,64.9,81,30.11,10,ENE,11.5,0,0,None,Overcast
2017-08-06,11:51 AM,71.1,71.1,53.1,53,30.1,10,Variable,3.5,0,0,None,Clear
2017-09-18,8:51 PM,71.1,71.1,66,84,30.1,10,ENE,6.9,0,0,None,Mostly Cloudy
2017-08-07,7:51 AM,71.1,71.1,59,66,30.09,10,Calm,0,0,0,None,Overcast
2017-10-11,4:51 PM,71.1,71.1,60.1,68,30.09,10,Variable,5.8,0,0,None,Overcast
2017-07-30,11:51 PM,71.1,71.1,55.9,59,30.07,10,Calm,0,0,0,None,Clear
2017-04-10,6:51 PM,71.1,71.1,44.1,38,30.07,10,South,5.8,0,0,None,Clear
2017-07-14,2:34 AM,71.1,71.1,66.9,87,30.07,10,Variable,5.8,0,0,None,Overcast
2017-06-15,9:51 AM,71.1,71.1,52,51,30.06,10,Variable,5.8,0,0,None,Mostly Cloudy
2017-07-27,8:51 AM,71.1,71.1,63,75,30.05,10,Calm,0,0,0,None,Scattered Clouds
2017-09-19,1:51 AM,71.1,71.1,66,84,30.05,10,Variable,6.9,18.4,0,None,Overcast
2017-09-12,10:51 AM,71.1,71.1,55.9,59,30.05,10,Variable,3.5,0,0,None,Clear
2017-09-19,3:51 AM,71.1,71.1,66,84,30.04,10,ENE,9.2,17.3,0,None,Overcast
2017-09-19,2:51 AM,71.1,71.1,66,84,30.04,10,ENE,9.2,18.4,0,None,Overcast
2017-06-26,9:51 AM,71.1,71.1,48.9,45,30.04,10,West,8.1,0,0,None,Clear
2017-06-15,5:51 PM,71.1,71.1,51.1,49,30.02,10,North,0,0,0,None,Clear
2017-09-19,5:51 AM,71.1,71.1,66,84,30.02,10,Variable,4.6,17.3,0,None,Overcast
2017-09-19,6:51 AM,71.1,71.1,64.9,81,30.02,10,ENE,8.1,0,0,None,Overcast
2017-09-19,4:51 AM,71.1,71.1,66,84,30.02,10,NE,8.1,0,0,None,Overcast
2017-08-12,12:51 AM,71.1,71.1,64.9,81,30.01,9,Variable,3.5,0,0,Rain,Light Rain
2017-11-03,5:51 PM,71.1,71.1,55.9,59,30.01,10,Variable,5.8,0,0,None,Overcast
2017-07-30,9:51 AM,71.1,71.1,53.1,53,30,10,Variable,5.8,0,0,None,Clear
2017-06-26,12:51 AM,71.1,71.1,51.1,49,29.99,10,North,0,0,0,None,Partly Cloudy
2017-06-27,1:51 AM,71.1,71.1,51.1,49,29.99,10,WNW,10.4,16.1,0,None,Mostly Cloudy
2017-06-27,11:51 AM,71.1,71.1,63,75,29.99,10,Variable,4.6,0,0,None,Partly Cloudy
2017-09-04,10:51 AM,71.1,71.1,57.9,63,29.99,10,Variable,5.8,0,0,None,Clear
2017-04-17,5:51 PM,71.1,71.1,27,19,29.98,10,Variable,6.9,16.1,0,None,Clear
2017-04-17,11:51 AM,71.1,71.1,36,28,29.97,10,NW,10.4,17.3,0,None,Scattered Clouds
2017-10-15,12:51 PM,71.1,71.1,63,75,29.97,10,WSW,9.2,19.6,0,None,Overcast
2017-04-17,4:51 PM,71.1,71.1,27,19,29.97,10,North,9.2,21.9,0,None,Clear
2017-06-27,9:51 PM,71.1,71.1,46.9,42,29.97,10,Variable,5.8,0,0,None,Scattered Clouds
2017-08-24,10:51 PM,71.1,71.1,50,47,29.96,10,Variable,4.6,0,0,None,Clear
2017-06-03,7:51 PM,71.1,71.1,39,31,29.96,10,WNW,8.1,0,0,None,Clear
2017-06-17,9:51 AM,71.1,71.1,64.9,81,29.95,7,ESE,4.6,0,0,None,Overcast
2017-09-19,3:42 PM,71.1,71.1,68,90,29.94,3,Variable,6.9,0,0.06,Rain,Rain
2017-09-19,3:29 PM,71.1,71.1,66.9,87,29.94,2.5,NE,12.7,0,0.03,Rain,Rain
2017-05-28,11:51 AM,71.1,71.1,57.9,63,29.94,10,North,0,0,0,None,Clear
2017-08-15,9:51 AM,71.1,71.1,69.1,93,29.94,5,Calm,0,0,0,None,Overcast
2017-08-30,9:51 PM,71.1,71.1,57.9,63,29.94,10,Calm,0,0,0,None,Clear
2017-06-03,3:51 PM,71.1,71.1,37.9,30,29.94,10,Variable,3.5,0,0,None,Mostly Cloudy
2017-06-17,3:51 PM,71.1,71.1,69.1,93,29.94,8,Variable,4.6,0,0,None,Overcast
2017-06-01,10:51 AM,71.1,71.1,57,61,29.94,10,WSW,5.8,0,0,None,Clear
2017-06-01,10:51 PM,71.1,71.1,44.1,38,29.93,10,Variable,3.5,17.3,0,None,Clear
2017-06-01,9:51 PM,71.1,71.1,44.1,38,29.93,10,Variable,3.5,0,0,None,Clear
2017-09-19,3:51 PM,71.1,71.1,68,90,29.92,2.5,Variable,6.9,0,0.08,Rain,Rain
2017-06-17,7:51 PM,71.1,71.1,68,90,29.92,6,Calm,0,0,0,None,Overcast
2017-09-12,10:51 PM,71.1,71.1,57.9,63,29.92,10,WSW,4.6,0,0,None,Clear
2017-07-07,2:51 AM,71.1,71.1,64.9,81,29.91,10,East,5.8,0,0,Rain,Light Rain
2017-08-05,9:19 AM,71.1,71.1,69.1,93,29.91,10,Calm,0,0,0,None,Overcast
2017-08-15,11:51 PM,71.1,71.1,69.1,93,29.91,4,Calm,0,0,0,None,Clear
2017-07-29,10:51 PM,71.1,71.1,53.1,53,29.89,10,NE,6.9,0,0,None,Clear
2017-09-19,9:51 PM,71.1,71.1,64.9,81,29.89,10,NE,10.4,0,0,None,Overcast
2017-08-24,12:51 AM,71.1,71.1,52,51,29.88,10,Calm,0,0,0,None,Clear
2017-10-15,4:51 PM,71.1,71.1,63,75,29.88,9,Calm,0,0,0,None,Overcast
2017-08-05,8:51 AM,71.1,71.1,69.1,93,29.88,3,West,3.5,0,0,None,Overcast
2017-07-29,9:51 PM,71.1,71.1,55,57,29.88,10,NE,6.9,0,0,None,Clear
2017-08-05,7:30 AM,71.1,71.1,70,96,29.87,8,Calm,0,0,0,None,Mostly Cloudy
2017-05-27,4:51 PM,71.1,71.1,55,57,29.87,10,ENE,3.5,0,0,None,Overcast
2017-09-07,3:51 PM,71.1,71.1,54,55,29.87,10,Variable,4.6,0,0,None,Mostly Cloudy
2017-09-19,10:51 PM,71.1,71.1,64.9,81,29.87,10,NE,9.2,0,0,None,Overcast
2017-09-04,10:51 PM,71.1,71.1,60.1,68,29.86,10,Variable,4.6,0,0,None,Clear
2017-09-04,11:51 PM,71.1,71.1,59,66,29.86,10,Variable,4.6,0,0,None,Clear
2017-09-20,6:20 AM,71.1,71.1,63,75,29.86,10,Variable,5.8,0,0,None,Scattered Clouds
2017-08-05,7:51 AM,71.1,71.1,69.1,93,29.85,7,West,5.8,0,0,None,Mostly Cloudy
2017-09-20,5:16 AM,71.1,71.1,63,75,29.85,10,North,8.1,0,0,None,Overcast
2017-10-24,9:51 AM,71.1,71.1,66.9,87,29.84,6,Variable,4.6,0,0,None,Overcast
2017-09-20,6:51 AM,71.1,71.1,63,75,29.84,10,NNE,10.4,0,0,None,Mostly Cloudy
2017-10-24,6:51 AM,71.1,71.1,64.9,81,29.83,8,South,8.1,26.5,0,None,Overcast
2017-09-20,5:51 AM,71.1,71.1,63,75,29.83,10,Variable,6.9,0,0,None,Overcast
2017-09-20,4:51 AM,71.1,71.1,63,75,29.82,10,Variable,5.8,20.7,0,None,Mostly Cloudy
2017-07-29,2:51 PM,71.1,71.1,55,57,29.82,10,NE,6.9,0,0,None,Overcast
2017-07-29,1:51 PM,71.1,71.1,55.9,59,29.81,10,NE,10.4,17.3,0,None,Overcast
2017-07-29,12:51 PM,71.1,71.1,54,55,29.81,10,NE,10.4,19.6,0,None,Overcast
2017-07-29,6:16 AM,71.1,71.1,50,47,29.8,10,ENE,11.5,19.6,0,None,Mostly Cloudy
2017-10-24,12:51 PM,71.1,71.1,66.9,87,29.78,6,North,0,0,0,None,Overcast
2017-09-28,10:51 AM,71.1,71.1,51.1,49,29.78,10,Variable,5.8,19.6,0,None,Clear
2017-07-07,12:51 PM,71.1,71.1,69.1,93,29.78,10,Variable,4.6,0,0.04,None,Overcast
2017-07-29,5:51 AM,71.1,71.1,50,47,29.77,10,NE,12.7,17.3,0,None,Mostly Cloudy
2017-09-28,8:51 AM,71.1,71.1,54,55,29.77,10,NNW,9.2,20.7,0,None,Mostly Cloudy
2017-07-23,3:58 AM,71.1,71.1,70,96,29.76,2,Calm,0,0,0,Rain,Light Rain
2017-07-23,3:00 AM,71.1,71.1,70,96,29.76,1.2,Calm,0,0,0,None,Overcast
2017-07-23,3:25 AM,71.1,71.1,70,96,29.76,4,Calm,0,0,0,None,Overcast
2017-07-23,3:17 AM,71.1,71.1,70,96,29.76,2.5,NNE,3.5,0,0,None,Overcast
2017-07-07,10:51 PM,71.1,71.1,70,96,29.76,3,Variable,3.5,0,0,None,Mostly Cloudy
2017-07-07,11:51 PM,71.1,71.1,68,90,29.76,10,NNE,5.8,0,0,None,Mostly Cloudy
2017-06-09,10:51 AM,71.1,71.1,48,44,29.76,10,Variable,6.9,0,0,None,Clear
2017-07-23,3:51 AM,71.1,71.1,70,96,29.73,3,Calm,0,0,0,Rain,Light Rain
2017-07-23,2:51 AM,71.1,71.1,70,96,29.73,2.5,Calm,0,0,0,None,Overcast
2017-05-26,7:51 PM,71.1,71.1,53.1,53,29.7,10,WNW,8.1,0,0,None,Mostly Cloudy
2017-05-26,3:51 PM,71.1,71.1,54,55,29.62,10,Variable,6.9,18.4,0,None,Overcast
2017-05-26,2:51 PM,71.1,71.1,53.1,53,29.61,10,WNW,8.1,0,0,None,Overcast
2017-05-02,10:21 AM,71.1,71.1,59,66,29.6,10,Variable,4.6,0,0,None,Mostly Cloudy
2017-05-02,10:38 AM,71.1,71.1,54,55,29.6,10,West,8.1,0,0,None,Overcast
2017-05-26,12:51 PM,71.1,71.1,55.9,59,29.58,10,West,11.5,19.6,0,None,Mostly Cloudy
2017-05-02,2:51 PM,71.1,71.1,46.9,42,29.57,9,West,10.4,29.9,0,None,Mostly Cloudy
2017-05-02,9:51 AM,71.1,71.1,60.1,68,29.57,10,Variable,4.6,0,0,None,Partly Cloudy
2017-09-19,7:51 AM,71.6,71.6,64.4,78,30.01,10,NNE,8.1,0,0,None,Overcast
2017-09-20,3:48 AM,71.6,71.6,64.4,78,29.83,10,NNE,9.2,20.7,0,None,Scattered Clouds
2017-07-23,12:49 AM,71.6,71.6,69.8,94,29.78,0.8,Calm,0,0,0.39,Rain,Heavy Rain
2017-07-23,5:47 AM,71.6,71.6,71.6,100,29.78,1.8,Variable,3.5,0,0,None,Overcast
2017-10-02,3:51 PM,72,72,34,25,30.38,10,NNE,5.8,0,0,None,Clear
2017-09-10,1:51 PM,72,72,48.9,44,30.35,10,ENE,8.1,0,0,None,Clear
2017-09-10,2:51 PM,72,72,48,43,30.34,10,ENE,10.4,18.4,0,None,Clear
2017-10-21,11:51 AM,72,72,36,27,30.34,10,WNW,4.6,0,0,None,Clear
2017-08-27,10:51 AM,72,72,52,49,30.28,10,ENE,8.1,0,0,None,Clear
2017-10-23,12:51 PM,72,72,60.1,66,30.23,10,Variable,6.9,0,0,None,Overcast
2017-11-02,1:51 PM,72,72,61,68,30.22,10,SSE,6.9,0,0,None,Mostly Cloudy
2017-08-25,9:51 PM,72,72,52,49,30.17,10,Calm,0,0,0,None,Mostly Cloudy
2017-07-06,12:51 AM,72,72,60.1,66,30.17,10,SSE,5.8,0,0,None,Clear
2017-04-10,11:51 AM,72,72,37,28,30.17,10,Variable,5.8,0,0,None,Clear
2017-08-25,7:51 PM,72,72,51.1,48,30.15,10,Calm,0,0,0,None,Clear
2017-07-06,10:51 AM,72,72,63,73,30.15,10,Variable,3.5,0,0,None,Overcast
2017-09-11,6:51 PM,72,72,46.9,41,30.15,10,NNE,4.6,0,0,None,Clear
2017-07-06,8:51 AM,72,72,60.1,66,30.15,10,SSE,4.6,0,0,None,Mostly Cloudy
2017-07-06,2:51 AM,72,72,61,68,30.15,10,Variable,4.6,0,0,None,Clear
2017-07-06,9:51 AM,72,72,63,73,30.15,10,Variable,4.6,0,0,None,Mostly Cloudy
2017-07-06,7:51 AM,72,72,62.1,71,30.14,10,SSE,3.5,0,0,None,Mostly Cloudy
2017-04-11,10:51 AM,72,72,46.9,41,30.14,10,Variable,3.5,0,0,None,Clear
2017-07-06,4:51 AM,72,72,61,68,30.14,10,Variable,3.5,0,0,None,Scattered Clouds
2017-07-06,5:51 AM,72,72,62.1,71,30.14,10,Variable,3.5,0,0,None,Overcast
2017-09-18,11:51 AM,72,72,64.9,78,30.13,10,ENE,9.2,0,0,None,Overcast
2017-09-18,5:07 PM,72,72,66,81,30.12,10,ESE,4.6,0,0,None,Overcast
2017-09-18,4:05 PM,72,72,66,81,30.12,10,East,5.8,0,0,None,Overcast
2017-10-11,12:51 PM,72,72,59,64,30.12,10,Variable,6.9,0,0,None,Clear
2017-09-18,12:51 PM,72,72,64.9,78,30.12,10,East,9.2,0,0,None,Overcast
2017-09-18,10:34 PM,72,72,66.9,84,30.12,10,ENE,9.2,0,0,None,Overcast
2017-10-20,1:51 PM,72,72,28,20,30.11,10,WNW,8.1,17.3,0,None,Clear
2017-08-06,7:51 PM,72,72,54,53,30.1,10,Variable,4.6,0,0,None,Clear
2017-08-25,10:51 AM,72,72,55.9,57,30.1,10,Variable,6.9,0,0,None,Clear
2017-09-18,7:51 PM,72,72,66,81,30.1,10,East,8.1,0,0,None,Mostly Cloudy
2017-09-18,4:51 PM,72,72,66,81,30.09,10,Variable,5.8,0,0,None,Overcast
2017-08-08,11:51 PM,72,72,60.1,66,30.09,10,West,5.8,0,0,None,Clear
2017-09-18,9:51 PM,72,72,66.9,84,30.09,10,ENE,6.9,0,0,None,Overcast
2017-09-18,10:51 PM,72,72,66.9,84,30.09,10,Variable,6.9,0,0,None,Overcast
2017-09-18,11:51 PM,72,72,66,81,30.08,10,ENE,8.1,0,0,None,Overcast
2017-10-11,3:51 PM,72,72,60.1,66,30.08,10,ENE,8.1,0,0,None,Mostly Cloudy
2017-06-15,10:51 AM,72,72,54,53,30.07,10,Variable,3.5,0,0,None,Mostly Cloudy
2017-07-30,10:51 PM,72,72,55,55,30.07,10,West,3.5,0,0,None,Clear
2017-09-19,12:51 AM,72,72,66,81,30.07,10,ENE,9.2,0,0,None,Overcast
2017-04-11,6:51 PM,72,72,51.1,48,30.06,10,Calm,0,0,0,None,Clear
2017-07-27,9:43 AM,72,72,62.1,71,30.06,10,Variable,3.5,0,0,None,Mostly Cloudy
2017-07-27,9:51 AM,72,72,64,76,30.03,10,Variable,5.8,0,0,None,Overcast
2017-06-15,4:51 PM,72,72,50,46,30.03,10,South,8.1,0,0,None,Clear
2017-09-19,8:05 AM,72,72,64.9,78,30.03,10,NE,10.4,0,0,None,Overcast
2017-10-09,8:15 AM,72,72,71.1,97,30.02,7,Variable,3.5,0,0,None,Mostly Cloudy
2017-05-31,2:01 PM,72,72,62.1,71,30.01,9,Calm,0,0,0,None,Mostly Cloudy
2017-10-08,3:22 AM,72,72,69.1,91,30.01,9,Variable,3.5,0,0,None,Overcast
2017-09-19,8:51 AM,72,72,64.9,78,30.01,10,ENE,10.4,0,0,None,Overcast
2017-10-09,9:23 AM,72,72,71.1,97,30,5,Variable,3.5,0,0,None,Overcast
2017-10-09,5:14 AM,72,72,72,100,29.99,2.5,Variable,3.5,0,0.04,Rain,Light Rain
2017-10-09,5:23 AM,72,72,71.1,97,29.99,4,Variable,3.5,0,0.04,None,Mostly Cloudy
2017-08-08,12:08 PM,72,72,61,68,29.99,10,Variable,5.8,0,0,None,Mostly Cloudy
2017-10-09,7:51 AM,72,72,71.1,97,29.98,7,North,0,0,0,None,Mostly Cloudy
2017-06-17,10:04 AM,72,72,64.9,78,29.98,7,Calm,0,0,0,None,Overcast
2017-06-26,11:51 PM,72,72,46.9,41,29.98,10,Calm,0,0,0,None,Clear
2017-06-27,12:51 AM,72,72,48,43,29.98,10,Calm,0,0,0,None,Clear
2017-10-09,5:51 AM,72,72,71.1,97,29.98,5,Calm,0,0,0.04,None,Scattered Clouds
2017-10-09,8:51 AM,72,72,71.1,97,29.98,7,Variable,5.8,0,0,None,Overcast
2017-10-09,9:51 AM,72,72,71.1,97,29.97,4,Variable,5.8,17.3,0,None,Overcast
2017-08-05,10:51 PM,72,72,54,53,29.97,10,Variable,3.5,0,0,None,Clear
2017-08-05,9:51 PM,72,72,54,53,29.97,10,Variable,4.6,0,0,None,Clear
2017-10-08,3:51 AM,72,72,69.1,91,29.97,10,Variable,4.6,0,0,None,Overcast
2017-10-09,6:51 AM,72,72,71.1,97,29.97,6,Variable,4.6,0,0,None,Scattered Clouds
2017-10-08,8:33 AM,72,72,70,93,29.96,1.8,Variable,4.6,0,0.01,Rain,Rain
2017-10-08,9:03 AM,72,72,71.1,97,29.96,1.2,Variable,4.6,0,0.02,Rain,Rain
2017-10-08,9:27 AM,72,72,71.1,97,29.96,2.5,South,8.1,0,0.11,Rain,Light Rain
2017-08-12,9:51 AM,72,72,64,76,29.96,10,Calm,0,0,0,None,Mostly Cloudy
2017-08-12,10:51 AM,72,72,64.9,78,29.96,10,Calm,0,0,0,None,Mostly Cloudy
2017-08-08,11:51 AM,72,72,62.1,71,29.96,10,Variable,3.5,0,0,None,Scattered Clouds
2017-07-07,1:39 AM,72,72,64.9,78,29.96,10,East,4.6,0,0,None,Overcast
2017-06-27,8:51 PM,72,72,46,40,29.96,10,Variable,4.6,0,0,None,Clear
2017-10-08,9:34 AM,72,72,71.1,97,29.96,6,Variable,6.9,0,0.11,None,Mostly Cloudy
2017-06-17,11:51 AM,72,72,66,81,29.95,8,Calm,0,0,0,Rain,Light Rain
2017-06-17,4:38 PM,72,72,70,93,29.95,8,Variable,3.5,0,0,None,Mostly Cloudy
2017-08-24,9:51 AM,72,72,57,59,29.95,10,Variable,4.6,0,0,None,Clear
2017-06-02,11:51 AM,72,72,45,38,29.95,10,Variable,6.9,0,0,None,Clear
2017-04-17,2:51 PM,72,72,33.1,24,29.95,10,West,8.1,0,0,None,Clear
2017-08-15,2:00 PM,72,72,70,93,29.94,1.8,Calm,0,0,0.01,Rain,Light Rain
2017-08-15,1:27 PM,72,72,70,93,29.94,2.5,Variable,3.5,0,0.02,Rain,Light Rain
2017-08-15,1:42 PM,72,72,70,93,29.94,3,Variable,3.5,0,0.03,Rain,Light Rain
2017-08-15,2:21 PM,72,72,71.1,97,29.94,1,Variable,4.6,0,0.07,Rain,Light Rain
2017-10-08,8:51 AM,72,72,71.1,97,29.94,2.5,Variable,6.9,0,0.06,Rain,Light Rain
2017-10-09,10:51 AM,72,72,71.1,97,29.94,5,South,8.1,0,0,Rain,Light Rain
2017-10-15,1:51 PM,72,72,62.1,71,29.94,10,North,0,0,0,None,Overcast
2017-06-17,6:19 PM,72,72,69.1,91,29.94,6,Calm,0,0,0,None,Overcast
2017-06-17,7:17 PM,72,72,68,87,29.94,6,Calm,0,0,0,None,Mostly Cloudy
2017-08-15,8:51 AM,72,72,70,93,29.94,5,Calm,0,0,0,None,Mostly Cloudy
2017-06-17,5:37 PM,72,72,69.1,91,29.94,6,Variable,3.5,0,0,None,Overcast
2017-08-30,8:51 PM,72,72,55,55,29.94,10,Variable,4.6,0,0,None,Clear
2017-06-03,6:51 PM,72,72,39,30,29.94,10,Variable,5.8,0,0,None,Clear
2017-08-15,3:15 PM,72,72,71.1,97,29.93,1.5,Calm,0,0,0.01,Rain,Light Rain
2017-08-15,3:31 PM,72,72,70,93,29.93,2.5,Calm,0,0,0.01,Rain,Light Rain
2017-06-17,4:51 PM,72,72,69.1,91,29.93,8,Calm,0,0,0,None,Overcast
2017-08-15,3:05 PM,72,72,71.1,97,29.93,2,Calm,0,0,0,None,Overcast
2017-08-15,8:36 PM,72,72,71.1,97,29.93,4,Calm,0,0,0,None,Overcast
2017-08-15,11:26 PM,72,72,69.1,91,29.93,6,Calm,0,0,0,None,Scattered Clouds
2017-06-03,4:51 PM,72,72,37,28,29.93,10,WNW,10.4,17.3,0,None,Scattered Clouds
2017-06-03,5:51 PM,72,72,37.9,29,29.93,10,Variable,3.5,0,0,None,Clear
2017-10-08,9:51 AM,72,72,71.1,97,29.93,5,Variable,4.6,0,0.11,None,Overcast
2017-07-07,1:51 AM,72,72,64.9,78,29.93,10,ENE,6.9,0,0,None,Overcast
2017-08-15,12:51 PM,72,72,70,93,29.92,4,South,3.5,0,0.01,Rain,Light Rain
2017-08-05,10:24 AM,72,72,68,87,29.92,10,North,0,0,0,None,Mostly Cloudy
2017-06-17,6:51 PM,72,72,68,87,29.92,7,South,4.6,0,0,None,Overcast
2017-10-15,2:51 PM,72,72,62.1,71,29.92,10,Variable,6.9,0,0,None,Overcast
2017-08-15,2:51 PM,72,72,71.1,97,29.91,1.5,Calm,0,0,0.12,Rain,Light Rain
2017-10-09,1:01 PM,72,72,72,100,29.91,1.5,Variable,5.8,0,0.03,Rain,Light Rain
2017-08-15,8:51 PM,72,72,70,93,29.91,4,Calm,0,0,0,None,Overcast
2017-06-01,8:51 PM,72,72,45,38,29.91,10,Variable,4.6,0,0,None,Clear
2017-06-17,5:51 PM,72,72,69.1,91,29.91,7,SSE,5.8,0,0,None,Overcast
2017-06-02,6:51 PM,72,72,39,30,29.9,10,North,11.5,20.7,0,None,Clear
2017-08-15,3:51 PM,72,72,71.1,97,29.9,3,East,3.5,0,0.01,None,Overcast
2017-06-02,1:51 PM,72,72,46,40,29.9,10,Variable,5.8,0,0,None,Mostly Cloudy
2017-10-15,3:51 PM,72,72,62.1,71,29.89,10,Variable,6.9,18.4,0,None,Overcast
2017-09-19,6:51 PM,72,72,64.9,78,29.89,9,NE,13.8,24.2,0,None,Overcast
2017-10-09,1:35 PM,72,72,71.1,97,29.88,3,North,0,0,0.12,Rain,Light Rain
2017-06-02,2:51 PM,72,72,46.9,41,29.88,10,North,0,0,0,None,Mostly Cloudy
2017-08-05,9:51 AM,72,72,70,93,29.88,9,Calm,0,0,0,None,Overcast
2017-09-20,8:01 AM,72,72,64,76,29.88,10,NNE,10.4,17.3,0,None,Scattered Clouds
2017-09-20,7:08 AM,72,72,63,73,29.87,10,North,12.7,18.4,0,None,Overcast
2017-10-09,3:07 PM,72,72,71.1,97,29.86,2.5,North,0,0,0,None,Overcast
2017-09-04,9:51 PM,72,72,57.9,61,29.86,10,Calm,0,0,0,None,Clear
2017-05-01,2:51 PM,72,72,59,64,29.86,7,Variable,3.5,0,0,None,Scattered Clouds
2017-09-19,11:51 PM,72,72,64,76,29.86,10,NE,9.2,0,0,None,Overcast
2017-10-09,1:51 PM,72,72,71.1,97,29.85,6,North,0,0,0.12,None,Overcast
2017-09-20,7:51 AM,72,72,63,73,29.85,10,Variable,6.9,18.4,0,None,Mostly Cloudy
2017-09-20,1:51 AM,72,72,64,76,29.85,10,NE,9.2,19.6,0,None,Overcast
2017-09-20,3:02 AM,72,72,64,76,29.85,10,NNE,12.7,20.7,0,None,Overcast
2017-10-09,3:20 PM,72,72,71.1,97,29.85,3,South,3.5,0,0,None,Overcast
2017-09-06,1:51 AM,72,72,62.1,71,29.84,10,Variable,3.5,0,0,None,Overcast
2017-09-20,2:51 AM,72,72,64,76,29.83,10,Variable,4.6,19.6,0,None,Overcast
2017-09-28,5:51 PM,72,72,46,40,29.83,10,WNW,10.4,21.9,0,None,Clear
2017-07-24,3:09 AM,72,72,66.9,84,29.83,10,East,6.9,0,0,None,Overcast
2017-10-09,2:51 PM,72,72,71.1,97,29.83,4,Variable,6.9,0,0,None,Overcast
2017-07-29,3:51 PM,72,72,55.9,57,29.82,10,ENE,6.9,0,0,None,Overcast
2017-09-20,3:51 AM,72,72,64,76,29.81,10,Variable,6.9,20.7,0,None,Partly Cloudy
2017-07-24,3:51 AM,72,72,64.9,78,29.79,10,ENE,6.9,0,0,None,Overcast
2017-07-23,12:24 AM,72,72,71.1,97,29.78,2,Calm,0,0,0.06,Rain,Rain
2017-07-23,12:29 AM,72,72,71.1,97,29.78,0.8,ESE,3.5,0,0.14,Rain,Heavy Rain
2017-07-23,1:12 AM,72,72,71.1,97,29.78,1,Variable,4.6,0,0.07,Rain,Light Rain
2017-07-23,5:13 AM,72,72,71.1,97,29.78,2,Calm,0,0,0,None,Overcast
2017-07-23,6:11 AM,72,72,71.1,97,29.78,1.8,Calm,0,0,0,None,Overcast
2017-07-23,5:59 AM,72,72,71.1,97,29.78,1.5,West,3.5,0,0,None,Overcast
2017-09-28,7:59 AM,72,72,55.9,57,29.78,10,Variable,4.6,0,0,None,Mostly Cloudy
2017-07-07,9:01 PM,72,72,71.1,97,29.77,2,Calm,0,0,0.19,Rain,Light Rain
2017-07-07,9:08 PM,72,72,70,93,29.77,4,Calm,0,0,0.2,Rain,Light Rain
2017-07-23,12:58 AM,72,72,70,93,29.77,1,Calm,0,0,0.04,Rain,Rain
2017-07-23,1:26 AM,72,72,71.1,97,29.77,2,Calm,0,0,0.08,Rain,Light Rain
2017-07-23,1:36 AM,72,72,71.1,97,29.77,1.5,Calm,0,0,0.09,Rain,Light Rain
2017-07-23,4:14 AM,72,72,70,93,29.77,4,Calm,0,0,0,None,Overcast
2017-07-23,5:04 AM,72,72,71.1,97,29.77,1.5,Calm,0,0,0,None,Overcast
2017-07-29,4:51 AM,72,72,48.9,44,29.77,10,ENE,11.5,24.2,0,None,Partly Cloudy
2017-07-23,5:24 AM,72,72,71.1,97,29.77,1,Variable,3.5,0,0,None,Overcast
2017-07-23,2:05 AM,72,72,71.1,97,29.76,1.8,Calm,0,0,0,None,Overcast
2017-07-23,2:14 AM,72,72,70,93,29.76,3,Calm,0,0,0,None,Overcast
2017-09-28,7:51 AM,72,72,57,59,29.76,10,Variable,3.5,0,0,None,Scattered Clouds
2017-07-23,12:51 AM,72,72,70,93,29.75,0.8,Calm,0,0,0.4,Rain,Heavy Rain
2017-07-07,9:51 PM,72,72,70,93,29.75,7,Calm,0,0,0.2,None,Overcast
2017-07-23,4:51 AM,72,72,70,93,29.75,2.5,Calm,0,0,0,None,Overcast
2017-07-23,5:51 AM,72,72,71.1,97,29.75,1.5,Calm,0,0,0,None,Overcast
2017-07-23,1:51 AM,72,72,70,93,29.73,2,Variable,4.6,0,0.09,None,Overcast
2017-05-26,6:51 PM,72,72,54,53,29.66,10,North,0,0,0,None,Scattered Clouds
2017-05-26,4:51 PM,72,72,55,55,29.63,10,North,0,0,0,None,Overcast
2017-05-02,1:51 PM,72,72,48.9,44,29.58,9,West,8.1,19.6,0,None,Overcast
2017-05-02,10:51 AM,72,72,52,49,29.57,10,Variable,5.8,0,0,None,Mostly Cloudy
2017-10-22,11:51 AM,73,73,42.1,33,30.4,10,Calm,0,0,0,None,Clear
2017-10-22,3:51 PM,73,73,43,34,30.36,10,Variable,4.6,0,0,None,Clear
2017-08-28,11:51 AM,73,73,53.1,49,30.3,10,East,8.1,17.3,0,None,Clear
2017-10-21,4:51 PM,73,73,41,31,30.3,10,Variable,3.5,0,0,None,Clear
2017-08-28,3:51 PM,73,73,50,44,30.27,10,East,11.5,16.1,0,None,Partly Cloudy
2017-08-28,5:51 PM,73,73,48,41,30.27,10,Variable,6.9,0,0,None,Clear
2017-09-11,12:51 PM,73,73,48,41,30.26,10,Calm,0,0,0,None,Clear
2017-08-28,4:51 PM,73,73,51.1,46,30.26,10,ENE,9.2,0,0,None,Clear
2017-07-26,10:51 AM,73,73,55,53,30.25,10,Variable,5.8,0,0,None,Clear
2017-09-11,1:51 PM,73,73,44.1,35,30.24,10,Calm,0,0,0,None,Clear
2017-10-04,5:51 PM,73,73,55.9,55,30.22,10,North,0,0,0,None,Clear
2017-08-26,6:51 PM,73,73,45,37,30.22,10,NE,5.8,0,0,None,Clear
2017-07-26,12:51 PM,73,73,60.1,64,30.22,10,WSW,8.1,0,0,None,Overcast
2017-07-26,5:51 PM,73,73,54,51,30.16,10,Variable,4.6,0,0,None,Clear
2017-04-10,12:51 PM,73,73,39,29,30.15,10,South,6.9,0,0,None,Clear
2017-10-11,11:51 AM,73,73,57.9,59,30.15,10,Variable,6.9,0,0,None,Clear
2017-08-25,6:51 PM,73,73,51.1,46,30.13,10,Variable,4.6,0,0,None,Scattered Clouds
2017-06-28,11:51 PM,73,73,50,44,30.12,10,Calm,0,0,0,None,Clear
2017-06-28,11:51 AM,73,73,48,41,30.12,10,Variable,4.6,19.6,0,None,Partly Cloudy
2017-07-06,1:51 PM,73,73,59,61,30.12,10,Variable,3.5,0,0,None,Partly Cloudy
2017-04-12,3:51 PM,73,73,53.1,49,30.12,10,Variable,5.8,0,0,None,Clear
2017-10-20,2:51 PM,73,73,28,19,30.1,10,Variable,4.6,0,0,None,Clear
2017-10-20,3:51 PM,73,73,28.9,20,30.1,10,Variable,4.6,0,0,None,Clear
2017-09-18,2:51 PM,73,73,66,79,30.1,10,Variable,6.9,0,0,None,Overcast
2017-09-18,3:51 PM,73,73,66,79,30.1,10,ENE,10.4,0,0,None,Overcast
2017-08-06,6:51 PM,73,73,54,51,30.09,10,West,4.6,0,0,None,Clear
2017-08-06,5:51 PM,73,73,55.9,55,30.09,10,Variable,5.8,0,0,None,Clear
2017-09-18,5:51 PM,73,73,66,79,30.09,10,Variable,5.8,0,0,None,Overcast
2017-09-18,6:51 PM,73,73,66,79,30.09,10,Variable,6.9,0,0,None,Overcast
2017-08-08,10:51 PM,73,73,59,61,30.08,10,Variable,3.5,0,0,None,Scattered Clouds
2017-04-10,3:51 PM,73,73,42.1,33,30.08,10,SSE,9.2,0,0,None,Clear
2017-08-08,9:51 PM,73,73,59,61,30.07,10,Calm,0,0,0,None,Clear
2017-04-10,5:51 PM,73,73,43,34,30.07,10,South,3.5,0,0,None,Clear
2017-07-14,12:05 AM,73,73,70,90,30.07,9,ENE,6.9,0,0,None,Overcast
2017-07-30,9:51 PM,73,73,53.1,49,30.06,10,Calm,0,0,0,None,Clear
2017-07-14,12:32 AM,73,73,69.1,87,30.06,10,East,8.1,0,0,None,Overcast
2017-08-08,8:51 PM,73,73,57,57,30.05,10,Calm,0,0,0,None,Clear
2017-07-27,10:05 AM,73,73,63,71,30.05,10,Variable,4.6,0,0,None,Mostly Cloudy
2017-06-26,10:51 AM,73,73,48.9,42,30.04,10,Variable,3.5,0,0,None,Clear
2017-07-27,10:38 AM,73,73,64,73,30.04,10,WSW,5.8,0,0,None,Overcast
2017-07-14,1:51 AM,73,73,66.9,81,30.03,10,Calm,0,0,0,None,Overcast
2017-07-14,12:51 AM,73,73,68,84,30.03,10,Variable,4.6,0,0,None,Overcast
2017-07-06,10:15 PM,73,73,62.1,68,30.02,10,Calm,0,0,0,None,Overcast
2017-09-19,9:51 AM,73,73,64,73,30.02,10,ENE,8.1,21.9,0,None,Overcast
2017-10-08,2:37 AM,73,73,68,84,30.02,10,Variable,5.8,0,0,None,Overcast
2017-10-08,3:04 AM,73,73,68,84,30.01,10,North,0,0,0,None,Overcast
2017-07-06,8:51 PM,73,73,60.1,64,30.01,10,SSE,3.5,0,0,None,Overcast
2017-07-06,11:27 PM,73,73,64.9,76,30.01,10,Variable,3.5,0,0,None,Overcast
2017-10-08,12:51 AM,73,73,66.9,81,30.01,10,Variable,4.6,0,0,None,Overcast
2017-07-06,9:51 PM,73,73,61,66,30.01,10,Variable,5.8,0,0,None,Overcast
2017-10-08,1:51 AM,73,73,66.9,81,30.01,10,Variable,5.8,0,0,None,Overcast
2017-07-30,10:51 AM,73,73,51.1,46,30.01,10,Variable,6.9,0,0,None,Clear
2017-07-06,10:51 PM,73,73,64,73,30,10,Calm,0,0,0,None,Overcast
2017-07-06,11:36 PM,73,73,64.9,76,30,10,Variable,4.6,0,0,None,Overcast
2017-05-31,1:51 PM,73,73,61,66,29.99,10,Calm,0,0,0,None,Scattered Clouds
2017-10-08,2:51 AM,73,73,68,84,29.99,10,Calm,0,0,0,None,Overcast
2017-06-26,10:51 PM,73,73,46,38,29.99,10,Variable,3.5,0,0,None,Clear
2017-11-03,12:51 PM,73,73,57.9,59,29.99,7,SW,4.6,0,0,None,Clear
2017-05-31,2:51 PM,73,73,62.1,68,29.98,10,Calm,0,0,0,None,Scattered Clouds
2017-10-08,4:31 AM,73,73,69.1,87,29.98,10,Calm,0,0,0,None,Overcast
2017-08-30,11:51 AM,73,73,52,48,29.98,10,Variable,3.5,0,0,None,Clear
2017-11-03,4:51 PM,73,73,57,57,29.98,10,WNW,5.8,0,0,None,Overcast
2017-08-08,12:51 PM,73,73,61,66,29.98,10,Variable,6.9,0,0,None,Mostly Cloudy
2017-10-09,4:51 AM,73,73,71.1,93,29.97,4,Calm,0,0,0.01,Rain,Light Rain
2017-11-03,1:51 PM,73,73,57,57,29.97,10,North,0,0,0,None,Clear
2017-11-03,2:51 PM,73,73,57.9,59,29.97,10,Variable,5.8,17.3,0,None,Mostly Cloudy
2017-07-06,11:51 PM,73,73,64.9,76,29.97,10,Variable,3.5,0,0,None,Overcast
2017-06-17,11:20 AM,73,73,66,79,29.97,9,Variable,4.6,0,0,None,Mostly Cloudy
2017-11-03,3:51 PM,73,73,59,61,29.96,10,North,0,0,0,None,Mostly Cloudy
2017-05-16,8:51 PM,73,73,45,37,29.96,10,Calm,0,0,0,None,Clear
2017-08-12,11:51 AM,73,73,66,79,29.96,10,Calm,0,0,0,None,Overcast
2017-08-24,8:51 PM,73,73,48.9,42,29.96,10,Calm,0,0,0,None,Clear
2017-08-24,9:51 PM,73,73,48.9,42,29.96,10,Calm,0,0,0,None,Clear
2017-06-27,7:51 PM,73,73,48.9,42,29.96,10,West,8.1,0,0,None,Clear
2017-08-15,12:51 AM,73,73,66,79,29.95,10,Calm,0,0,0,None,Overcast
2017-08-15,11:38 AM,73,73,70,90,29.95,5,Calm,0,0,0,None,Overcast
2017-08-05,8:51 PM,73,73,53.1,49,29.95,10,Variable,3.5,0,0,None,Clear
2017-08-12,12:51 PM,73,73,66,79,29.95,10,Variable,3.5,0,0,None,Overcast
2017-07-07,12:51 AM,73,73,64.9,76,29.95,10,ESE,4.6,0,0,None,Mostly Cloudy
2017-05-31,3:51 PM,73,73,62.1,68,29.95,10,Variable,4.6,0,0,None,Clear
2017-10-08,4:51 AM,73,73,69.1,87,29.95,10,Variable,5.8,0,0,None,Overcast
2017-10-09,12:11 PM,73,73,71.1,93,29.94,2.5,Variable,3.5,0,0.02,Rain,Light Rain
2017-07-27,2:51 PM,73,73,69.1,87,29.94,9,Variable,4.6,0,0,Rain,Light Rain
2017-10-09,12:20 PM,73,73,72,96,29.94,3,South,5.8,0,0.03,Rain,Light Rain
2017-10-08,10:51 AM,73,73,71.1,93,29.94,4,Variable,6.9,0,0.01,Rain,Light Rain
2017-06-27,3:51 PM,73,73,55.9,55,29.94,10,North,0,0,0,None,Mostly Cloudy
2017-06-27,6:51 PM,73,73,51.1,46,29.94,10,Calm,0,0,0,None,Clear
2017-08-15,9:33 PM,73,73,71.1,93,29.94,5,Calm,0,0,0,None,Overcast
2017-06-17,10:51 AM,73,73,66,79,29.94,8,Variable,3.5,0,0,None,Overcast
2017-08-12,1:51 PM,73,73,66.9,81,29.94,10,SSW,4.6,0,0,None,Overcast
2017-10-08,11:51 AM,73,73,72,96,29.94,7,Variable,5.8,0,0.04,None,Overcast
2017-10-09,11:51 AM,73,73,71.1,93,29.93,4,North,0,0,0.02,Rain,Light Rain
2017-06-27,5:51 PM,73,73,54,51,29.93,10,Calm,0,0,0,None,Mostly Cloudy
2017-08-15,11:51 AM,73,73,70,90,29.93,5,Calm,0,0,0,None,Overcast
2017-08-15,8:20 PM,73,73,71.1,93,29.93,5,Calm,0,0,0,None,Overcast
2017-08-15,10:51 AM,73,73,70,90,29.93,5,South,3.5,0,0,None,Overcast
2017-08-15,6:29 PM,73,73,70,90,29.93,6,West,3.5,0,0,None,Overcast
2017-09-12,8:51 PM,73,73,55,53,29.93,10,West,3.5,0,0,None,Clear
2017-08-15,4:03 PM,73,73,71.1,93,29.92,2,Calm,0,0,0,None,Overcast
2017-08-15,4:13 PM,73,73,72,96,29.92,2,Calm,0,0,0,None,Overcast
2017-08-15,4:22 PM,73,73,71.1,93,29.92,4,Calm,0,0,0,None,Overcast
2017-08-15,7:38 PM,73,73,70,90,29.92,7,Calm,0,0,0,None,Overcast
2017-08-15,9:51 PM,73,73,71.1,93,29.92,4,Calm,0,0,0,None,Overcast
2017-08-15,10:51 PM,73,73,70,90,29.92,6,Calm,0,0,0,None,Overcast
2017-09-12,9:51 PM,73,73,57,57,29.92,10,Variable,3.5,0,0,None,Clear
2017-08-15,5:02 PM,73,73,71.1,93,29.92,4,WNW,3.5,0,0,None,Overcast
2017-08-05,10:15 AM,73,73,70,90,29.92,10,West,5.8,0,0,None,Mostly Cloudy
2017-05-31,6:51 PM,73,73,61,66,29.91,10,South,5.8,0,0,None,Clear
2017-08-15,4:51 PM,73,73,71.1,93,29.9,3,Calm,0,0,0,None,Overcast
2017-08-15,5:51 PM,73,73,70,90,29.9,6,Calm,0,0,0,None,Overcast
2017-08-15,6:51 PM,73,73,70,90,29.9,6,Calm,0,0,0,None,Overcast
2017-08-15,7:51 PM,73,73,71.1,93,29.9,5,Calm,0,0,0,None,Overcast
2017-10-09,12:51 PM,73,73,72,96,29.89,2.5,Variable,4.6,0,0.05,Rain,Light Rain
2017-07-23,11:32 PM,73,73,66.9,81,29.89,10,North,0,0,0,None,Overcast
2017-08-05,6:24 AM,73,73,72,96,29.88,4,North,0,0,0.08,Rain,Light Rain
2017-07-23,8:59 PM,73,73,66.9,81,29.88,10,Calm,0,0,0,None,Mostly Cloudy
2017-09-20,8:51 AM,73,73,64,73,29.88,10,North,9.2,17.3,0,None,Mostly Cloudy
2017-06-02,3:51 PM,73,73,39,29,29.88,10,Variable,6.9,18.4,0,None,Scattered Clouds
2017-06-02,5:51 PM,73,73,32,22,29.88,10,WNW,10.4,20.7,0,None,Clear
2017-07-23,11:08 PM,73,73,68,84,29.88,10,Variable,4.6,0,0,None,Mostly Cloudy
2017-08-05,10:51 AM,73,73,68,84,29.88,10,Variable,5.8,0,0,None,Mostly Cloudy
2017-06-09,11:51 PM,73,73,51.1,46,29.88,10,WSW,5.8,0,0,None,Clear
2017-09-20,12:51 AM,73,73,63,71,29.86,10,NE,11.5,19.6,0,None,Overcast
2017-07-23,11:51 PM,73,73,66.9,81,29.86,9,Variable,4.6,0,0,None,Overcast
2017-07-29,8:51 PM,73,73,54,51,29.86,10,Variable,5.8,0,0,None,Clear
2017-10-09,4:14 PM,73,73,72,96,29.85,3,Variable,3.5,0,0.01,Rain,Light Rain
2017-10-09,4:08 PM,73,73,72,96,29.85,1.5,Variable,4.6,0,0.01,Rain,Light Rain
2017-10-09,4:23 PM,73,73,73,100,29.85,5,Variable,5.8,0,0.01,None,Overcast
2017-07-23,10:51 PM,73,73,66.9,81,29.85,10,SSE,6.9,0,0,None,Mostly Cloudy
2017-07-24,12:51 AM,73,73,68,84,29.84,10,Variable,5.8,0,0,None,Overcast
2017-07-24,1:51 AM,73,73,66.9,81,29.83,10,Variable,5.8,0,0,None,Overcast
2017-10-09,3:51 PM,73,73,72,96,29.83,2.5,Variable,6.9,0,0,None,Overcast
2017-10-24,10:51 AM,73,73,66,79,29.82,7,North,0,0,0,None,Overcast
2017-07-23,8:36 AM,73,73,71.1,93,29.82,4,Calm,0,0,0,None,Mostly Cloudy
2017-07-23,8:43 AM,73,73,71.1,93,29.82,3,Calm,0,0,0,None,Mostly Cloudy
2017-07-23,8:18 AM,73,73,72,96,29.81,1.8,Calm,0,0,0,None,Mostly Cloudy
2017-07-23,8:23 AM,73,73,72,96,29.81,3,Calm,0,0,0,None,Mostly Cloudy
2017-10-24,11:51 AM,73,73,66,79,29.81,7,SSW,8.1,21.9,0,None,Overcast
2017-07-23,7:36 AM,73,73,72,96,29.8,0.5,Calm,0,0,0,Fog,Fog
2017-07-23,7:56 AM,73,73,72,96,29.8,1.8,Calm,0,0,0,None,Mostly Cloudy
2017-07-23,8:08 AM,73,73,72,96,29.8,2,Calm,0,0,0,None,Mostly Cloudy
2017-07-24,2:51 AM,73,73,66,79,29.8,10,Variable,6.9,0,0,None,Overcast
2017-07-23,7:26 AM,73,73,72,96,29.79,0.8,Calm,0,0,0,None,Overcast
2017-07-07,1:37 PM,73,73,69.1,87,29.79,10,NNE,6.9,0,0,None,Overcast
2017-07-23,12:12 AM,73,73,71.1,93,29.78,1.5,ESE,6.9,0,0.04,Rain,Rain
2017-07-23,6:33 AM,73,73,72,96,29.78,0.8,Calm,0,0,0,None,Overcast
2017-07-23,7:51 AM,73,73,72,96,29.77,0.8,Calm,0,0,0,None,Overcast
2017-09-28,6:18 AM,73,73,68,84,29.77,10,NNW,4.6,0,0,None,Overcast
2017-07-07,1:51 PM,73,73,69.1,87,29.77,10,Variable,4.6,0,0,None,Overcast
2017-07-23,6:51 AM,73,73,71.1,93,29.76,1.2,Calm,0,0,0,None,Overcast
2017-07-29,3:51 AM,73,73,54,51,29.76,10,ENE,12.7,18.4,0,None,Clear
2017-09-28,6:51 AM,73,73,64.9,76,29.74,10,Variable,3.5,0,0,None,Scattered Clouds
2017-05-26,5:51 PM,73,73,54,51,29.64,10,Variable,4.6,17.3,0,None,Mostly Cloudy
2017-05-02,4:51 PM,73,73,39,29,29.6,9,West,11.5,26.5,0,None,Scattered Clouds
2017-05-26,1:51 PM,73,73,55,53,29.59,10,West,8.1,19.6,0,None,Mostly Cloudy
2017-08-05,10:49 AM,73.4,73.4,69.8,88,29.91,10,West,5.8,0,0,None,Mostly Cloudy
2017-07-23,1:48 PM,73.4,73.4,69.8,88,29.86,7,East,3.5,0,0.01,None,Overcast
2017-07-24,2:49 AM,73.4,73.4,66.2,78,29.83,10,East,8.1,19.6,0,None,Overcast
2017-07-23,6:48 AM,73.4,73.4,71.6,94,29.78,1,Calm,0,0,0,None,Overcast
2017-10-04,1:51 PM,73.9,73.9,55,52,30.31,10,South,5.8,0,0,None,Clear
2017-08-26,11:51 AM,73.9,73.9,45,35,30.27,10,Calm,0,0,0,None,Clear
2017-08-28,2:51 PM,73.9,73.9,48,40,30.27,10,East,8.1,0,0,None,Clear
2017-10-04,3:51 PM,73.9,73.9,55.9,53,30.25,10,North,0,0,0,None,Clear
2017-10-23,11:51 AM,73.9,73.9,60.1,62,30.25,10,Calm,0,0,0,None,Scattered Clouds
2017-08-27,5:51 PM,73.9,73.9,46,37,30.23,10,ENE,8.1,0,0,None,Clear
2017-09-11,2:51 PM,73.9,73.9,46,37,30.21,10,West,3.5,0,0,None,Clear
2017-07-26,4:51 PM,73.9,73.9,55.9,53,30.18,10,Variable,3.5,0,0,None,Clear
2017-07-26,3:51 PM,73.9,73.9,59,59,30.17,10,Calm,0,0,0,None,Partly Cloudy
2017-07-06,11:51 AM,73.9,73.9,59,59,30.13,10,Variable,3.5,0,0,None,Partly Cloudy
2017-07-06,12:51 PM,73.9,73.9,57.9,57,30.13,10,South,6.9,0,0,None,Partly Cloudy
2017-06-28,10:51 PM,73.9,73.9,50,43,30.12,10,Variable,4.6,0,0,None,Clear
2017-04-12,6:51 PM,73.9,73.9,35.1,24,30.12,10,WSW,8.1,0,0,None,Clear
2017-04-12,4:51 PM,73.9,73.9,50,43,30.11,10,North,0,0,0,None,Clear
2017-04-12,5:51 PM,73.9,73.9,48,40,30.11,10,Calm,0,0,0,None,Clear
2017-08-25,4:51 PM,73.9,73.9,55,52,30.11,10,Variable,4.6,0,0,None,Overcast
2017-04-10,2:51 PM,73.9,73.9,44.1,34,30.11,10,SSE,8.1,0,0,None,Clear
2017-08-25,12:51 PM,73.9,73.9,53.1,48,30.1,10,Variable,4.6,0,0,None,Mostly Cloudy
2017-08-06,2:51 PM,73.9,73.9,51.1,45,30.09,10,Calm,0,0,0,None,Clear
2017-08-06,12:51 PM,73.9,73.9,51.1,45,30.09,10,Variable,3.5,0,0,None,Clear
2017-04-10,4:51 PM,73.9,73.9,44.1,34,30.08,10,SSE,5.8,0,0,None,Clear
2017-07-06,3:51 PM,73.9,73.9,59,59,30.07,10,Variable,4.6,0,0,None,Clear
2017-06-15,11:51 AM,73.9,73.9,51.1,45,30.07,10,Variable,5.8,0,0,None,Scattered Clouds
2017-04-11,5:51 PM,73.9,73.9,51.1,45,30.07,10,South,6.9,0,0,None,Clear
2017-07-30,8:51 PM,73.9,73.9,50,43,30.04,10,NE,3.5,0,0,None,Clear
2017-06-15,3:51 PM,73.9,73.9,50,43,30.04,10,Variable,3.5,0,0,None,Clear
2017-06-15,2:51 PM,73.9,73.9,48.9,41,30.04,10,Variable,5.8,0,0,None,Clear
2017-09-12,11:51 AM,73.9,73.9,59,59,30.03,10,Calm,0,0,0,None,Clear
2017-07-06,6:51 PM,73.9,73.9,55,52,30.03,10,Variable,5.8,0,0,None,Partly Cloudy
2017-08-08,7:51 PM,73.9,73.9,57.9,57,30.02,10,Variable,3.5,0,0,None,Clear
2017-07-27,10:51 AM,73.9,73.9,64.9,73,30.01,10,North,0,0,0,None,Overcast
2017-07-06,7:51 PM,73.9,73.9,57.9,57,30.01,10,Calm,0,0,0,None,Scattered Clouds
2017-08-08,12:32 PM,73.9,73.9,62.1,66,30,10,Calm,0,0,0,None,Mostly Cloudy
2017-06-26,4:51 PM,73.9,73.9,51.1,45,29.99,10,Variable,6.9,0,0,None,Overcast
2017-06-26,6:51 PM,73.9,73.9,53.1,48,29.98,10,Calm,0,0,0,None,Scattered Clouds
2017-06-26,9:51 PM,73.9,73.9,46,37,29.98,10,Calm,0,0,0,None,Clear
2017-06-27,12:51 PM,73.9,73.9,59,59,29.98,10,Variable,3.5,0,0,None,Clear
2017-10-09,3:51 AM,73.9,73.9,72,93,29.98,8,Variable,3.5,0,0,None,Overcast
2017-06-26,8:51 PM,73.9,73.9,46,37,29.97,10,North,0,0,0,None,Clear
2017-10-08,6:11 AM,73.9,73.9,69.1,85,29.97,10,North,0,0,0,None,Overcast
2017-06-26,7:51 PM,73.9,73.9,54,50,29.97,10,Calm,0,0,0,None,Clear
2017-07-27,2:37 PM,73.9,73.9,68,82,29.97,10,SSE,4.6,0,0,None,Overcast
2017-10-08,12:10 PM,73.9,73.9,72,93,29.96,6,Variable,5.8,0,0,None,Overcast
2017-04-17,3:51 PM,73.9,73.9,28.9,19,29.95,10,North,0,0,0,None,Clear
2017-08-15,1:51 AM,73.9,73.9,64,71,29.95,10,Variable,3.5,0,0,None,Overcast
2017-08-24,10:51 AM,73.9,73.9,54,50,29.95,10,Variable,4.6,0,0,None,Clear
2017-08-24,7:51 PM,73.9,73.9,48,40,29.95,10,Variable,5.8,0,0,None,Partly Cloudy
2017-10-08,7:51 AM,73.9,73.9,68,82,29.94,10,North,0,0,0,None,Overcast
2017-09-20,11:51 PM,73.9,73.9,63,68,29.94,10,Variable,3.5,0,0,None,Clear
2017-10-08,6:51 AM,73.9,73.9,69.1,85,29.94,10,Variable,4.6,0,0,None,Overcast
2017-10-08,12:51 PM,73.9,73.9,73,97,29.94,7,Variable,5.8,0,0,None,Overcast
2017-10-08,5:51 AM,73.9,73.9,69.1,85,29.94,10,South,8.1,0,0,None,Overcast
2017-06-27,4:51 PM,73.9,73.9,59,59,29.93,10,North,0,0,0,None,Mostly Cloudy
2017-08-12,7:37 PM,73.9,73.9,69.1,85,29.93,10,Calm,0,0,0,None,Mostly Cloudy
2017-09-12,7:51 PM,73.9,73.9,54,50,29.93,10,Calm,0,0,0,None,Clear
2017-07-27,3:51 PM,73.9,73.9,68,82,29.93,10,SSE,5.8,0,0,None,Overcast
2017-08-30,7:51 PM,73.9,73.9,54,50,29.93,10,WNW,5.8,0,0,None,Clear
2017-06-01,11:51 AM,73.9,73.9,57,55,29.92,10,Calm,0,0,0,None,Clear
2017-07-27,4:51 PM,73.9,73.9,69.1,85,29.92,10,SSE,3.5,0,0,None,Overcast
2017-05-31,5:51 PM,73.9,73.9,60.1,62,29.92,10,Variable,3.5,0,0,None,Clear
2017-08-05,7:51 PM,73.9,73.9,52,46,29.92,10,NW,8.1,0,0,None,Clear
2017-06-02,12:51 PM,73.9,73.9,44.1,34,29.92,10,West,9.2,0,0,None,Scattered Clouds
2017-09-20,9:30 AM,73.9,73.9,64,71,29.91,10,North,9.2,20.7,0,None,Scattered Clouds
2017-08-12,9:35 PM,73.9,73.9,71.1,91,29.91,10,Variable,3.5,0,0,None,Overcast
2017-08-12,10:13 PM,73.9,73.9,71.1,91,29.91,10,Variable,3.5,0,0,None,Mostly Cloudy
2017-06-01,12:51 PM,73.9,73.9,54,50,29.91,10,Variable,4.6,0,0,None,Mostly Cloudy
2017-08-12,8:07 PM,73.9,73.9,69.1,85,29.91,10,South,5.8,0,0,None,Mostly Cloudy
2017-08-12,8:21 PM,73.9,73.9,69.1,85,29.91,10,Variable,5.8,0,0,None,Scattered Clouds
2017-08-12,9:16 PM,73.9,73.9,70,87,29.9,10,Calm,0,0,0,None,Mostly Cloudy
2017-08-12,7:51 PM,73.9,73.9,69.1,85,29.9,10,SSE,3.5,0,0,None,Mostly Cloudy
2017-07-27,11:59 PM,73.9,73.9,69.1,85,29.9,10,Variable,5.8,0,0,None,Scattered Clouds
2017-08-05,5:35 AM,73.9,73.9,72,93,29.89,2,Calm,0,0,0.04,Rain,Rain
2017-06-01,7:51 PM,73.9,73.9,44.1,34,29.89,10,North,0,0,0,None,Clear
2017-08-05,4:30 AM,73.9,73.9,72,93,29.88,3,Variable,3.5,0,0.1,Rain,Light Rain
2017-08-05,4:19 AM,73.9,73.9,72,93,29.88,1.8,Variable,5.8,0,0.03,Rain,Light Rain
2017-06-02,4:51 PM,73.9,73.9,39.9,29,29.88,10,North,0,0,0.01,None,Partly Cloudy
2017-09-20,9:51 AM,73.9,73.9,64,71,29.88,10,Variable,4.6,17.3,0,None,Clear
2017-07-23,8:19 PM,73.9,73.9,66.9,79,29.88,10,Variable,3.5,0,0,None,Overcast
2017-08-12,9:51 PM,73.9,73.9,71.1,91,29.88,10,Variable,3.5,0,0,None,Mostly Cloudy
2017-08-12,8:51 PM,73.9,73.9,70,87,29.88,10,Variable,5.8,0,0,None,Scattered Clouds
2017-07-23,10:28 PM,73.9,73.9,66.9,79,29.88,10,Variable,6.9,0,0,None,Mostly Cloudy
2017-08-05,6:12 AM,73.9,73.9,73,97,29.87,5,Variable,3.5,0,0.06,Rain,Light Rain
2017-08-05,6:04 AM,73.9,73.9,72,93,29.87,3,Variable,4.6,0,0.06,Rain,Rain
2017-07-23,2:05 PM,73.9,73.9,70,87,29.87,7,ESE,3.5,0,0,None,Overcast
2017-06-09,10:51 PM,73.9,73.9,50,43,29.87,10,Variable,4.6,0,0,None,Clear
2017-08-12,11:51 PM,73.9,73.9,71.1,91,29.87,10,Variable,4.6,0,0,None,Overcast
2017-09-04,8:51 PM,73.9,73.9,55.9,53,29.87,10,Variable,5.8,0,0,None,Clear
2017-08-05,5:51 AM,73.9,73.9,72,93,29.86,2,Variable,3.5,0,0.11,Rain,Heavy Rain
2017-07-23,2:15 PM,73.9,73.9,69.1,85,29.86,7,Variable,3.5,0,0,None,Overcast
2017-10-09,6:51 PM,73.9,73.9,73,97,29.86,6,Variable,4.6,0,0.01,None,Overcast
2017-09-04,7:51 PM,73.9,73.9,55.9,53,29.86,10,Variable,6.9,0,0,None,Clear
2017-07-23,9:51 PM,73.9,73.9,66.9,79,29.86,10,SE,8.1,0,0,None,Scattered Clouds
2017-07-23,8:51 PM,73.9,73.9,66,76,29.85,10,North,0,0,0,None,Scattered Clouds
2017-08-05,4:51 AM,73.9,73.9,72,93,29.85,8,North,0,0,0.1,None,Overcast
2017-07-23,12:51 PM,73.9,73.9,69.1,85,29.84,6,Calm,0,0,0,None,Haze
2017-07-23,1:51 PM,73.9,73.9,69.1,85,29.84,8,Calm,0,0,0.01,None,Overcast
2017-09-06,12:51 AM,73.9,73.9,62.1,66,29.84,10,Calm,0,0,0,None,Mostly Cloudy
2017-10-09,5:51 PM,73.9,73.9,73,97,29.84,5,Variable,5.8,0,0,None,Overcast
2017-10-09,4:51 PM,73.9,73.9,73,97,29.83,6,Variable,3.5,0,0.01,None,Overcast
2017-07-23,9:06 AM,73.9,73.9,72,93,29.82,1.8,WNW,3.5,0,0,None,Overcast
2017-07-29,4:51 PM,73.9,73.9,57.9,57,29.82,10,Variable,5.8,0,0,None,Overcast
2017-07-23,9:14 AM,73.9,73.9,72,93,29.81,3,Calm,0,0,0,None,Overcast
2017-07-23,9:51 AM,73.9,73.9,71.1,91,29.8,4,Calm,0,0,0,None,Overcast
2017-09-28,4:51 PM,73.9,73.9,46.9,38,29.79,10,North,0,0,0,None,Clear
2017-07-23,8:51 AM,73.9,73.9,71.1,91,29.79,2.5,Calm,0,0,0,None,Overcast
2017-07-29,2:51 AM,73.9,73.9,55.9,53,29.76,10,ENE,11.5,21.9,0,None,Overcast
2017-06-09,11:51 AM,73.9,73.9,51.1,45,29.76,10,Variable,3.5,0,0,None,Clear
2017-09-28,5:18 AM,73.9,73.9,71.1,91,29.76,10,Variable,4.6,0,0,None,Overcast
2017-09-28,5:42 AM,73.9,73.9,70,87,29.76,10,North,8.1,0,0,None,Overcast
2017-09-28,4:03 AM,73.9,73.9,72,93,29.75,7,Variable,5.8,0,0,None,Overcast
2017-09-28,4:25 AM,73.9,73.9,72,93,29.75,8,Variable,5.8,0,0,None,Overcast
2017-09-28,5:08 AM,73.9,73.9,71.1,91,29.75,10,Variable,5.8,0,0,None,Overcast
2017-09-28,5:51 AM,73.9,73.9,70,87,29.73,10,Variable,4.6,0,0,None,Mostly Cloudy
2017-09-28,3:51 AM,73.9,73.9,72,93,29.73,7,Variable,5.8,0,0,None,Overcast
2017-09-28,4:51 AM,73.9,73.9,72,93,29.72,10,Variable,5.8,0,0,None,Overcast
2017-05-02,3:51 PM,73.9,73.9,46,37,29.58,10,Variable,6.9,0,0,None,Scattered Clouds
2017-05-02,12:51 PM,73.9,73.9,50,43,29.57,10,Variable,3.5,18.4,0,None,Overcast
2017-05-02,11:51 AM,73.9,73.9,51.1,45,29.57,10,Variable,5.8,0,0,None,Mostly Cloudy
2017-10-22,12:51 PM,75,75,46,36,30.39,10,North,0,0,0,None,Clear
2017-10-22,2:51 PM,75,75,41,29,30.36,10,SSE,3.5,0,0,None,Clear
2017-08-28,1:44 PM,75,75,48,38,30.31,2.5,Variable,4.6,0,0,None,Haze
2017-08-28,12:51 PM,75,75,48.9,40,30.29,10,ENE,9.2,17.3,0,None,Clear
2017-08-28,1:51 PM,75,75,48.9,40,30.28,10,Variable,5.8,16.1,0,None,Clear
2017-10-04,2:51 PM,75,75,55,50,30.28,10,Variable,3.5,0,0,None,Clear
2017-08-27,11:51 AM,75,75,51.1,43,30.28,10,Variable,5.8,0,0,None,Clear
2017-10-04,4:51 PM,75,75,55,50,30.24,10,Variable,4.6,0,0,None,Clear
2017-08-26,5:51 PM,75,75,46,36,30.22,10,ENE,5.8,0,0,None,Clear
2017-08-27,4:51 PM,75,75,46,36,30.22,10,Variable,6.9,0,0,None,Clear
2017-07-26,1:51 PM,75,75,57,53,30.21,10,Variable,3.5,0,0,None,Mostly Cloudy
2017-07-26,2:51 PM,75,75,57,53,30.19,10,SW,4.6,0,0,None,Clear
2017-09-11,4:51 PM,75,75,44.1,33,30.18,10,Calm,0,0,0,None,Clear
2017-09-11,5:51 PM,75,75,48,38,30.16,10,ENE,6.9,0,0,None,Clear
2017-08-25,5:51 PM,75,75,51.1,43,30.13,10,Calm,0,0,0,None,Overcast
2017-06-28,1:51 PM,75,75,48.9,40,30.12,10,WNW,10.4,20.7,0,None,Scattered Clouds
2017-06-28,12:51 PM,75,75,48,38,30.12,10,WNW,6.9,0,0,None,Partly Cloudy
2017-08-25,11:51 AM,75,75,55.9,51,30.1,10,Calm,0,0,0,None,Clear
2017-06-28,9:51 PM,75,75,48.9,40,30.1,10,Variable,3.5,0,0,None,Clear
2017-08-25,2:51 PM,75,75,55,50,30.1,10,Variable,3.5,0,0,None,Overcast
2017-10-11,1:51 PM,75,75,59,57,30.1,10,Variable,6.9,0,0,None,Clear
2017-08-06,3:51 PM,75,75,53.1,46,30.09,10,Variable,4.6,0,0,None,Clear
2017-07-06,2:51 PM,75,75,55.9,51,30.09,10,Variable,5.8,0,0,None,Clear
2017-08-06,4:51 PM,75,75,54,48,30.09,10,Variable,6.9,0,0,None,Clear
2017-06-28,7:51 PM,75,75,48,38,30.08,10,Calm,0,0,0,None,Clear
2017-10-11,2:51 PM,75,75,60.1,60,30.08,10,Variable,6.9,0,0,None,Clear
2017-04-11,4:51 PM,75,75,51.1,43,30.06,10,North,0,0,0,None,Clear
2017-06-15,12:51 PM,75,75,53.1,46,30.06,10,Variable,6.9,0,0,None,Scattered Clouds
2017-06-15,1:51 PM,75,75,50,41,30.06,10,Variable,6.9,0,0,None,Partly Cloudy
2017-07-06,4:51 PM,75,75,57.9,55,30.05,10,Variable,3.5,0,0,None,Clear
2017-07-06,5:51 PM,75,75,54,48,30.03,10,Variable,4.6,0,0,None,Clear
2017-09-19,10:51 AM,75,75,64,69,30,10,East,9.2,23,0,None,Mostly Cloudy
2017-10-08,11:51 PM,75,75,71.1,87,30,10,Variable,5.8,0,0,None,Clear
2017-05-16,12:51 PM,75,75,45,34,30,10,Variable,6.9,0,0,None,Clear
2017-05-16,1:51 PM,75,75,46,36,29.99,10,Variable,5.8,0,0,None,Clear
2017-10-09,2:51 AM,75,75,72,90,29.98,9,Calm,0,0,0,None,Clear
2017-06-26,5:51 PM,75,75,52,44,29.98,10,Variable,3.5,0,0,None,Overcast
2017-07-27,12:51 PM,75,75,66.9,76,29.97,10,North,0,0,0,None,Overcast
2017-09-04,11:51 AM,75,75,59,57,29.97,10,North,0,0,0,None,Clear
2017-05-16,7:51 PM,75,75,44.1,33,29.96,10,West,4.6,0,0,None,Scattered Clouds
2017-10-08,1:06 PM,75,75,73,94,29.96,7,WSW,4.6,0,0,None,Overcast
2017-08-30,12:51 PM,75,75,51.1,43,29.96,10,Variable,5.8,0,0,None,Clear
2017-08-05,1:20 AM,75,75,71.1,87,29.94,10,North,0,0,0,None,Overcast
2017-08-05,1:27 AM,75,75,71.1,87,29.94,10,Variable,3.5,0,0,None,Mostly Cloudy
2017-08-05,1:40 AM,75,75,71.1,87,29.93,10,North,0,0,0,None,Overcast
2017-08-12,2:51 PM,75,75,66.9,76,29.93,10,Calm,0,0,0,None,Overcast
2017-05-31,4:51 PM,75,75,61,62,29.93,10,Variable,4.6,0,0,None,Clear
2017-08-30,6:51 PM,75,75,54,48,29.93,10,Variable,4.6,0,0,None,Scattered Clouds
2017-09-20,10:51 PM,75,75,63,66,29.93,10,Variable,5.8,0,0,None,Clear
2017-08-05,12:51 AM,75,75,70,84,29.92,10,Variable,5.8,0,0,None,Mostly Cloudy
2017-08-05,3:03 AM,75,75,70,84,29.91,10,North,0,0,0,None,Partly Cloudy
2017-08-12,6:36 PM,75,75,68,79,29.91,9,North,0,0,0,None,Mostly Cloudy
2017-07-27,5:51 PM,75,75,69.1,82,29.91,10,Calm,0,0,0,None,Overcast
2017-07-27,8:38 PM,75,75,69.1,82,29.91,10,Calm,0,0,0,None,Scattered Clouds
2017-09-20,10:43 AM,75,75,64.9,71,29.91,10,Variable,3.5,0,0,None,Mostly Cloudy
2017-08-12,3:51 PM,75,75,66.9,76,29.91,10,WSW,3.5,0,0,None,Overcast
2017-08-05,3:29 AM,75,75,71.1,87,29.9,10,North,0,0,0,None,Mostly Cloudy
2017-08-05,6:51 PM,75,75,55,50,29.9,10,WNW,8.1,18.4,0,None,Mostly Cloudy
2017-08-12,11:44 PM,75,75,70,84,29.9,10,Variable,5.8,0,0,None,Overcast
2017-08-12,11:25 PM,75,75,70,84,29.9,10,WSW,5.8,0,0,None,Mostly Cloudy
2017-07-27,8:51 PM,75,75,69.1,82,29.89,10,Calm,0,0,0,None,Partly Cloudy
2017-07-27,9:51 PM,75,75,69.1,82,29.89,10,Calm,0,0,0,None,Partly Cloudy
2017-07-23,10:02 PM,75,75,66.9,76,29.89,10,Variable,4.6,0,0,None,Mostly Cloudy
2017-10-09,8:12 PM,75,75,73.9,96,29.89,8,Variable,4.6,0,0,None,Overcast
2017-08-12,6:51 PM,75,75,69.1,82,29.89,10,Variable,5.8,0,0,None,Mostly Cloudy
2017-08-05,12:51 PM,75,75,66.9,76,29.88,10,North,0,0,0,None,Overcast
2017-07-27,10:51 PM,75,75,69.1,82,29.88,10,Calm,0,0,0,None,Mostly Cloudy
2017-08-05,2:51 AM,75,75,71.1,87,29.88,10,South,3.5,0,0,None,Mostly Cloudy
2017-10-09,7:14 PM,75,75,73,94,29.88,7,Variable,5.8,0,0,None,Overcast
2017-06-01,6:51 PM,75,75,48.9,40,29.88,10,NW,6.9,0,0,None,Partly Cloudy
2017-09-20,10:51 AM,75,75,64,69,29.88,10,Variable,6.9,0,0,None,Overcast
2017-10-09,6:07 PM,75,75,73,94,29.87,2,Variable,6.9,18.4,0.01,Rain,Light Rain
2017-07-27,11:51 PM,75,75,69.1,82,29.87,10,Calm,0,0,0,None,Mostly Cloudy
2017-10-09,6:16 PM,75,75,73,94,29.87,6,Variable,6.9,0,0.01,None,Overcast
2017-07-23,8:44 PM,75,75,66,73,29.87,10,SE,8.1,0,0,None,Scattered Clouds
2017-08-05,3:51 AM,75,75,71.1,87,29.86,10,Calm,0,0,0,None,Overcast
2017-10-09,5:29 PM,75,75,73,94,29.86,5,SW,8.1,18.4,0,None,Overcast
2017-10-09,5:44 PM,75,75,73,94,29.86,5,Variable,4.6,0,0,None,Overcast
2017-10-09,7:51 PM,75,75,73.9,96,29.86,8,Variable,6.9,0,0,None,Overcast
2017-07-23,3:11 PM,75,75,70,84,29.85,8,Calm,0,0,0,None,Mostly Cloudy
2017-07-29,7:51 PM,75,75,54,48,29.85,10,NE,9.2,18.4,0,None,Mostly Cloudy
2017-07-23,7:51 PM,75,75,66.9,76,29.84,9,Variable,3.5,0,0,None,Mostly Cloudy
2017-07-23,2:51 PM,75,75,70,84,29.83,7,Calm,0,0,0,None,Overcast
2017-07-23,9:31 AM,75,75,72,90,29.82,2.5,Calm,0,0,0,None,Overcast
2017-07-23,10:09 AM,75,75,71.1,87,29.82,6,Calm,0,0,0,None,Mostly Cloudy
2017-07-29,1:51 AM,75,75,57.9,55,29.78,10,NE,9.2,18.4,0,None,Scattered Clouds
2017-09-28,11:51 AM,75,75,48.9,40,29.77,10,Variable,6.9,19.6,0,None,Clear
2017-09-28,2:51 AM,75,75,72,90,29.73,8,Calm,0,0,0,None,Overcast
2017-09-28,12:51 AM,75,75,72,90,29.73,9,East,3.5,0,0,None,Partly Cloudy
2017-09-28,1:51 AM,75,75,73,94,29.73,7,East,3.5,0,0,None,Overcast
2017-10-09,9:46 PM,75.2,75.2,73.4,94,29.92,9,North,0,0,0,None,Mostly Cloudy
2017-07-27,6:48 PM,75.2,75.2,69.8,83,29.92,10,ENE,4.6,0,0,None,Mostly Cloudy
2017-08-05,3:47 AM,75.2,75.2,71.6,89,29.89,10,Variable,3.5,0,0,None,Overcast
2017-07-07,8:48 PM,75.2,75.2,69.8,83,29.78,1.2,WNW,9.2,21.9,0,Rain,Heavy Rain
2017-10-22,1:51 PM,75.9,75.9,43,31,30.38,10,Calm,0,0,0,None,Clear
2017-10-21,12:51 PM,75.9,75.9,37,24,30.32,10,Calm,0,0,0,None,Clear
2017-10-21,3:51 PM,75.9,75.9,37.9,25,30.3,10,Variable,4.6,0,0,None,Clear
2017-08-27,12:51 PM,75.9,75.9,46,35,30.27,10,ENE,9.2,0,0,None,Clear
2017-08-26,1:51 PM,75.9,75.9,44.1,32,30.25,10,Calm,0,0,0,None,Clear
2017-07-26,11:51 AM,75.9,75.9,55,48,30.24,10,Calm,0,0,0,None,Partly Cloudy
2017-08-27,3:51 PM,75.9,75.9,45,33,30.23,10,Variable,6.9,0,0,None,Clear
2017-08-26,3:51 PM,75.9,75.9,43,31,30.22,10,Variable,5.8,0,0,None,Clear
2017-08-26,4:51 PM,75.9,75.9,43,31,30.22,10,Variable,6.9,0,0,None,Clear
2017-09-11,3:51 PM,75.9,75.9,46.9,36,30.2,10,Calm,0,0,0,None,Clear
2017-04-11,11:51 AM,75.9,75.9,48,37,30.12,10,SSE,4.6,0,0,None,Clear
2017-08-25,3:51 PM,75.9,75.9,51.1,42,30.1,10,Calm,0,0,0,None,Mostly Cloudy
2017-06-28,2:51 PM,75.9,75.9,48,37,30.1,10,Variable,6.9,0,0,None,Scattered Clouds
2017-06-28,3:51 PM,75.9,75.9,48.9,38,30.09,10,Calm,0,0,0,None,Scattered Clouds
2017-08-06,1:51 PM,75.9,75.9,50,40,30.09,10,Variable,4.6,0,0,None,Clear
2017-06-28,8:51 PM,75.9,75.9,48,37,30.09,10,West,6.9,0,0,None,Clear
2017-07-27,12:00 PM,75.9,75.9,66.9,74,30.02,10,Variable,5.8,0,0,None,Mostly Cloudy
2017-07-30,11:51 AM,75.9,75.9,53.1,45,30.02,10,Variable,6.9,0,0,None,Clear
2017-07-27,11:28 AM,75.9,75.9,66,71,30.02,10,WSW,6.9,0,0,None,Mostly Cloudy
2017-09-12,12:51 PM,75.9,75.9,55.9,50,30.01,10,Calm,0,0,0,None,Clear
2017-06-26,1:51 PM,75.9,75.9,48,37,30,10,North,0,0,0,None,Scattered Clouds
2017-10-09,12:51 AM,75.9,75.9,72,87,30,10,Variable,3.5,0,0,None,Mostly Cloudy
2017-09-19,11:51 AM,75.9,75.9,64,67,29.99,10,NE,11.5,18.4,0,None,Overcast
2017-10-09,1:51 AM,75.9,75.9,72,87,29.99,10,Variable,3.5,0,0,None,Mostly Cloudy
2017-07-27,11:51 AM,75.9,75.9,66.9,74,29.99,10,Variable,4.6,0,0,None,Mostly Cloudy
2017-08-08,4:51 PM,75.9,75.9,60.1,58,29.98,10,Variable,3.5,0,0,None,Clear
2017-08-08,1:51 PM,75.9,75.9,61,60,29.98,10,Variable,6.9,0,0,None,Scattered Clouds
2017-08-05,12:05 AM,75.9,75.9,71.1,85,29.96,10,North,0,0,0,None,Overcast
2017-10-08,6:51 PM,75.9,75.9,71.1,85,29.96,10,Variable,3.5,0,0,None,Clear
2017-08-05,12:13 AM,75.9,75.9,71.1,85,29.96,10,Variable,4.6,0,0,None,Overcast
2017-10-08,7:51 PM,75.9,75.9,71.1,85,29.96,10,Variable,4.6,0,0,None,Clear
2017-08-30,1:51 PM,75.9,75.9,52,43,29.95,10,Variable,4.6,0,0,None,Clear
2017-06-27,1:51 PM,75.9,75.9,57.9,54,29.94,10,North,0,0,0,None,Clear
2017-08-24,6:51 PM,75.9,75.9,48.9,38,29.94,10,Variable,4.6,0,0,None,Partly Cloudy
2017-08-30,2:51 PM,75.9,75.9,50,40,29.93,10,Calm,0,0,0,None,Clear
2017-09-12,6:51 PM,75.9,75.9,55,48,29.93,10,Calm,0,0,0,None,Clear
2017-06-27,2:51 PM,75.9,75.9,57,52,29.93,10,Variable,3.5,0,0,None,Partly Cloudy
2017-08-30,5:51 PM,75.9,75.9,52,43,29.93,10,West,6.9,0,0,None,Partly Cloudy
2017-08-05,2:29 AM,75.9,75.9,71.1,85,29.92,10,North,0,0,0,None,Overcast
2017-08-30,3:51 PM,75.9,75.9,53.1,45,29.92,10,North,0,0,0,None,Clear
2017-10-08,1:51 PM,75.9,75.9,73,91,29.92,9,North,0,0,0,None,Overcast
2017-07-27,6:17 PM,75.9,75.9,69.1,79,29.92,10,Calm,0,0,0,None,Overcast
2017-07-27,7:58 PM,75.9,75.9,69.1,79,29.92,10,Calm,0,0,0,None,Overcast
2017-09-20,8:51 PM,75.9,75.9,63,64,29.92,10,Variable,4.6,0,0,None,Clear
2017-08-30,4:51 PM,75.9,75.9,55,48,29.92,10,West,4.6,0,0,None,Scattered Clouds
2017-09-20,9:51 PM,75.9,75.9,63,64,29.92,10,Variable,5.8,0,0,None,Clear
2017-10-09,10:00 PM,75.9,75.9,73.9,94,29.92,8,West,6.9,0,0,None,Mostly Cloudy
2017-10-09,11:51 PM,75.9,75.9,73.9,94,29.91,9,North,0,0,0,None,Overcast
2017-08-05,11:59 AM,75.9,75.9,68,76,29.91,10,Calm,0,0,0,None,Mostly Cloudy
2017-08-05,12:14 PM,75.9,75.9,66.9,74,29.91,10,West,6.9,0,0,None,Overcast
2017-10-09,8:33 PM,75.9,75.9,73.9,94,29.9,8,North,0,0,0,None,Overcast
2017-07-27,6:51 PM,75.9,75.9,69.1,79,29.9,10,Variable,3.5,0,0,None,Mostly Cloudy
2017-08-12,5:40 PM,75.9,75.9,68,76,29.9,10,Variable,3.5,0,0,None,Mostly Cloudy
2017-08-05,1:51 AM,75.9,75.9,71.1,85,29.9,10,Variable,4.6,0,0,None,Overcast
2017-08-12,4:51 PM,75.9,75.9,68,76,29.9,10,Variable,4.6,0,0,None,Overcast
2017-07-27,7:51 PM,75.9,75.9,69.1,79,29.89,10,Calm,0,0,0,None,Overcast
2017-10-09,9:51 PM,75.9,75.9,73.9,94,29.89,9,WSW,4.6,0,0,None,Mostly Cloudy
2017-08-12,5:51 PM,75.9,75.9,69.1,79,29.88,10,Variable,4.6,0,0,None,Scattered Clouds
2017-10-09,8:51 PM,75.9,75.9,73.9,94,29.88,8,Variable,4.6,0,0,None,Overcast
2017-08-05,11:51 AM,75.9,75.9,68,76,29.88,10,Variable,5.8,0,0,None,Mostly Cloudy
2017-08-05,5:51 PM,75.9,75.9,57,52,29.87,10,North,0,0,0,None,Partly Cloudy
2017-06-01,4:51 PM,75.9,75.9,45,33,29.87,10,West,11.5,17.3,0,None,Scattered Clouds
2017-08-05,1:51 PM,75.9,75.9,66,71,29.87,10,West,8.1,0,0,None,Overcast
2017-08-05,2:51 PM,75.9,75.9,63,64,29.86,10,Variable,3.5,0,0,None,Overcast
2017-09-04,6:51 PM,75.9,75.9,55,48,29.86,10,WSW,5.8,0,0,None,Clear
2017-07-23,6:32 PM,75.9,75.9,66,71,29.86,9,SE,9.2,0,0,None,Overcast
2017-08-05,3:51 PM,75.9,75.9,64,67,29.84,10,North,0,0,0,None,Mostly Cloudy
2017-06-09,9:51 PM,75.9,75.9,48,37,29.84,10,West,4.6,0,0,None,Mostly Cloudy
2017-07-23,10:36 AM,75.9,75.9,72,87,29.83,5,Calm,0,0,0,None,Overcast
2017-07-29,6:51 PM,75.9,75.9,54,46,29.83,10,ENE,8.1,18.4,0,None,Overcast
2017-07-23,5:51 PM,75.9,75.9,69.1,79,29.83,8,SSE,6.9,0,0,None,Overcast
2017-07-23,6:51 PM,75.9,75.9,66,71,29.83,9,Variable,6.9,0,0,None,Scattered Clouds
2017-07-29,5:51 PM,75.9,75.9,54,46,29.82,10,NE,12.7,21.9,0,None,Overcast
2017-07-23,4:51 PM,75.9,75.9,69.1,79,29.82,8,Variable,4.6,0,0,None,Overcast
2017-07-23,11:51 AM,75.9,75.9,69.1,79,29.81,8,East,4.6,0,0,None,Overcast
2017-06-09,8:51 PM,75.9,75.9,48,37,29.81,10,Variable,4.6,0,0,None,Clear
2017-07-07,3:18 PM,75.9,75.9,66,71,29.79,10,Variable,6.9,0,0,None,Mostly Cloudy
2017-07-29,12:51 AM,75.9,75.9,59,56,29.78,10,ENE,9.2,0,0,None,Clear
2017-09-28,12:51 PM,75.9,75.9,48,37,29.76,10,North,9.2,20.7,0,None,Clear
2017-07-07,2:51 PM,75.9,75.9,68,76,29.76,10,North,8.1,0,0,None,Overcast
2017-10-21,1:51 PM,77,77,35.1,22,30.3,10,Calm,0,0,0,None,Clear
2017-08-27,1:51 PM,77,77,46,33,30.26,10,ENE,9.2,17.3,0,None,Clear
2017-08-26,12:51 PM,77,77,45,32,30.25,10,Variable,3.5,0,0,None,Clear
2017-08-27,2:51 PM,77,77,42.1,29,30.24,10,Variable,6.9,0,0,None,Clear
2017-08-26,2:51 PM,77,77,43,30,30.23,10,North,0,0,0,None,Clear
2017-06-28,6:51 PM,77,77,48.9,37,30.09,10,Variable,3.5,0,0,None,Partly Cloudy
2017-06-28,5:51 PM,77,77,48,36,30.08,10,Variable,4.6,0,0,None,Partly Cloudy
2017-06-26,11:51 AM,77,77,46.9,34,30.03,10,North,0,0,0,None,Clear
2017-07-30,7:51 PM,77,77,48.9,37,30.03,10,NE,4.6,0,0,None,Clear
2017-08-08,6:51 PM,77,77,55,47,30,10,Calm,0,0,0,None,Clear
2017-09-12,1:51 PM,77,77,53.1,43,30,10,Calm,0,0,0,None,Clear
2017-10-08,10:51 PM,77,77,71.1,82,30,10,Variable,3.5,0,0,None,Clear
2017-10-08,9:51 PM,77,77,70,79,29.99,10,Calm,0,0,0,None,Clear
2017-09-19,12:59 PM,77,77,62.1,60,29.99,10,ENE,11.5,26.5,0,None,Mostly Cloudy
2017-07-27,1:15 PM,77,77,66.9,71,29.99,10,WSW,4.6,0,0,None,Overcast
2017-06-26,2:51 PM,77,77,50,39,29.99,10,Variable,6.9,0,0,None,Mostly Cloudy
2017-06-26,3:51 PM,77,77,51.1,40,29.99,10,WSW,8.1,0,0,None,Mostly Cloudy
2017-08-08,2:51 PM,77,77,61,58,29.98,10,Calm,0,0,0,None,Partly Cloudy
2017-08-08,5:51 PM,77,77,57.9,52,29.98,10,Calm,0,0,0,None,Clear
2017-09-12,2:51 PM,77,77,55.9,48,29.98,10,Variable,3.5,0,0,None,Clear
2017-08-08,3:51 PM,77,77,60.1,56,29.98,10,Variable,4.6,0,0,None,Partly Cloudy
2017-10-08,8:51 PM,77,77,70,79,29.98,10,Variable,4.6,0,0,None,Clear
2017-05-16,2:51 PM,77,77,45,32,29.98,10,West,9.2,0,0,None,Clear
2017-09-04,12:51 PM,77,77,55.9,48,29.96,10,Variable,4.6,0,0,None,Clear
2017-07-27,1:51 PM,77,77,66.9,71,29.95,10,WSW,4.6,0,0,None,Overcast
2017-05-16,4:51 PM,77,77,43,30,29.95,10,Variable,6.9,0,0,None,Clear
2017-10-08,3:25 PM,77,77,72,84,29.95,10,Variable,6.9,0,0,None,Scattered Clouds
2017-10-08,3:01 PM,77,77,72,84,29.94,9,North,0,0,0,None,Overcast
2017-08-24,11:51 AM,77,77,53.1,43,29.94,10,Calm,0,0,0,None,Clear
2017-09-19,1:51 PM,77,77,63,62,29.94,10,ENE,10.4,19.6,0,None,Overcast
2017-05-16,6:51 PM,77,77,45,32,29.94,10,Variable,3.5,0,0,None,Clear
2017-05-16,5:51 PM,77,77,46,33,29.94,10,Variable,4.6,0,0,None,Clear
2017-10-08,3:15 PM,77,77,72,84,29.94,10,Variable,6.9,0,0,None,Mostly Cloudy
2017-10-08,5:51 PM,77,77,71.1,82,29.94,10,WSW,8.1,0,0,None,Partly Cloudy
2017-08-24,5:51 PM,77,77,50,39,29.93,10,Variable,3.5,0,0,None,Clear
2017-10-08,2:51 PM,77,77,72,84,29.92,9,North,0,0,0,None,Overcast
2017-10-08,4:51 PM,77,77,72,84,29.92,10,North,0,0,0,None,Clear
2017-07-27,7:29 PM,77,77,69.1,76,29.92,10,Calm,0,0,0,None,Mostly Cloudy
2017-09-19,2:51 PM,77,77,63,62,29.92,10,NE,13.8,25.3,0,None,Overcast
2017-08-12,5:14 PM,77,77,68,74,29.92,10,Variable,4.6,0,0,None,Overcast
2017-08-24,3:51 PM,77,77,48.9,37,29.92,10,Variable,4.6,0,0,None,Clear
2017-09-20,7:51 PM,77,77,63,62,29.91,10,North,0,0,0,None,Clear
2017-10-08,3:51 PM,77,77,72,84,29.91,10,North,0,0,0,None,Partly Cloudy
2017-10-09,10:51 PM,77,77,73.9,90,29.9,9,WSW,8.1,0,0,None,Overcast
2017-06-01,2:51 PM,77,77,46.9,34,29.88,10,Calm,0,0,0,None,Mostly Cloudy
2017-09-20,11:51 AM,77,77,64.9,66,29.88,10,Variable,5.8,0,0,None,Mostly Cloudy
2017-06-01,5:51 PM,77,77,48.9,37,29.88,10,Variable,6.9,0,0,None,Mostly Cloudy
2017-09-04,5:51 PM,77,77,57,50,29.86,10,Variable,4.6,18.4,0,None,Clear
2017-08-05,4:51 PM,77,77,57,50,29.86,10,West,9.2,0,0,None,Scattered Clouds
2017-07-23,3:40 PM,77,77,69.1,76,29.84,8,East,5.8,0,0,None,Overcast
2017-07-23,10:44 AM,77,77,71.1,82,29.83,6,ENE,4.6,0,0,None,Haze
2017-07-23,10:58 AM,77,77,71.1,82,29.83,6,Variable,6.9,0,0,None,Haze
2017-07-23,10:51 AM,77,77,70,79,29.81,6,Variable,3.5,0,0,None,Haze
2017-06-09,7:51 PM,77,77,48.9,37,29.79,10,North,0,0,0,None,Clear
2017-09-28,3:51 PM,77,77,46,33,29.77,10,North,13.8,21.9,0,None,Clear
2017-06-09,12:51 PM,77,77,48.9,37,29.75,10,North,0,0,0,None,Clear
2017-09-28,2:51 PM,77,77,46.9,34,29.75,10,Variable,6.9,0,0,None,Clear
2017-06-09,3:51 PM,77,77,48.9,37,29.74,10,WNW,13.8,19.6,0,None,Mostly Cloudy
2017-07-07,7:51 PM,77,77,66.9,71,29.73,10,Calm,0,0,0,None,Scattered Clouds
2017-10-21,2:51 PM,78.1,78.1,37.9,24,30.29,10,South,3.5,0,0,None,Clear
2017-08-25,1:51 PM,78.1,78.1,53.1,42,30.1,10,Variable,5.8,0,0,None,Mostly Cloudy
2017-06-28,4:51 PM,78.1,78.1,46.9,33,30.09,10,West,6.9,16.1,0,None,Partly Cloudy
2017-04-11,2:51 PM,78.1,78.1,50,37,30.09,10,SSE,9.2,16.1,0,None,Clear
2017-04-11,1:51 PM,78.1,78.1,48.9,36,30.09,10,South,9.2,0,0,None,Clear
2017-04-11,3:51 PM,78.1,78.1,51.1,39,30.08,10,SSE,8.1,0,0,None,Clear
2017-07-30,6:51 PM,78.1,78.1,51.1,39,30.01,10,Variable,3.5,0,0,None,Clear
2017-06-26,12:51 PM,78.1,78.1,48,35,30.01,10,Variable,4.6,0,0,None,Partly Cloudy
2017-09-12,4:00 PM,78.1,78.1,57,48,29.99,10,North,0,0,0,None,Unknown
2017-09-19,12:51 PM,78.1,78.1,63,60,29.97,10,ENE,16.1,28.8,0,None,Mostly Cloudy
2017-05-16,3:51 PM,78.1,78.1,44.1,30,29.96,10,West,5.8,0,0,None,Clear
2017-09-12,4:51 PM,78.1,78.1,52,40,29.94,10,Calm,0,0,0,None,Clear
2017-09-12,5:51 PM,78.1,78.1,53.1,42,29.94,10,Calm,0,0,0,None,Clear
2017-09-04,1:51 PM,78.1,78.1,57,48,29.94,10,South,6.9,0,0,None,Clear
2017-08-24,4:51 PM,78.1,78.1,46,32,29.93,10,Variable,4.6,0,0,None,Partly Cloudy
2017-08-24,2:51 PM,78.1,78.1,48.9,36,29.92,10,West,8.1,0,0,None,Partly Cloudy
2017-09-20,12:06 PM,78.1,78.1,64.9,64,29.9,10,NNE,11.5,19.6,0,None,Scattered Clouds
2017-09-20,6:51 PM,78.1,78.1,64,62,29.9,10,NE,5.8,0,0,None,Clear
2017-09-20,5:51 PM,78.1,78.1,64,62,29.9,10,Variable,5.8,0,0,None,Overcast
2017-06-01,1:51 PM,78.1,78.1,46.9,33,29.89,10,WNW,9.2,20.7,0,None,Partly Cloudy
2017-09-20,4:51 PM,78.1,78.1,64,62,29.89,10,Variable,6.9,0,0,None,Mostly Cloudy
2017-09-04,4:51 PM,78.1,78.1,57.9,50,29.88,10,North,0,0,0,None,Clear
2017-06-01,3:51 PM,78.1,78.1,46,32,29.88,10,West,10.4,18.4,0,None,Scattered Clouds
2017-09-20,1:51 PM,78.1,78.1,64.9,64,29.88,10,Variable,6.9,19.6,0,None,Scattered Clouds
2017-09-20,12:51 PM,78.1,78.1,64,62,29.88,10,North,8.1,21.9,0,None,Mostly Cloudy
2017-09-20,3:51 PM,78.1,78.1,64,62,29.88,10,NE,9.2,0,0,None,Scattered Clouds
2017-09-20,2:51 PM,78.1,78.1,64.9,64,29.87,10,Variable,4.6,0,0,None,Partly Cloudy
2017-07-23,4:39 PM,78.1,78.1,68,71,29.85,8,ENE,4.6,0,0,None,Mostly Cloudy
2017-07-23,11:05 AM,78.1,78.1,71.1,79,29.84,6,ENE,8.1,0,0,None,Haze
2017-07-23,3:51 PM,78.1,78.1,69.1,74,29.81,8,Variable,3.5,0,0,None,Overcast
2017-09-28,1:51 PM,78.1,78.1,46.9,33,29.75,10,North,0,0,0,None,Clear
2017-06-09,1:51 PM,78.1,78.1,48.9,36,29.75,10,Variable,5.8,0,0,None,Clear
2017-07-30,12:51 PM,79,79,51.1,38,30.02,10,Variable,6.9,0,0,None,Clear
2017-07-30,5:51 PM,79,79,50,36,30.01,10,Variable,3.5,0,0,None,Clear
2017-08-24,12:51 PM,79,79,50,36,29.93,10,North,0,0,0,None,Clear
2017-08-24,1:51 PM,79,79,46,31,29.92,10,Variable,4.6,0,0,None,Clear
2017-09-04,2:51 PM,79,79,57,47,29.92,10,Variable,4.6,0,0,None,Clear
2017-09-04,3:51 PM,79,79,55,44,29.9,10,Variable,5.8,0,0,None,Partly Cloudy
2017-06-09,6:51 PM,79,79,48,34,29.76,10,North,0,0,0,None,Scattered Clouds
2017-06-09,5:51 PM,79,79,46.9,32,29.74,10,West,12.7,19.6,0,None,Partly Cloudy
2017-06-09,2:51 PM,79,79,48,34,29.74,10,Variable,5.8,20.7,0,None,Partly Cloudy
2017-07-07,3:51 PM,79,79,66.9,66,29.74,10,Variable,6.9,0,0,None,Clear
2017-07-07,5:51 PM,79,79,66.9,66,29.73,10,ENE,3.5,0,0,None,Clear
2017-07-07,4:51 PM,79,79,66.9,66,29.73,10,ENE,5.8,0,0,None,Clear
2017-07-07,6:51 PM,79,79,68,69,29.72,10,Calm,0,0,0,None,Clear
2017-07-09,2:51 PM,80.1,79.9,53.1,39,30.01,10,West,10.4,0,0,None,Partly Cloudy
2017-06-20,7:51 PM,80.1,79.9,53.1,39,29.93,10,West,4.6,17.3,0,None,Clear
2017-04-16,11:51 AM,80.1,79.9,53.1,39,29.93,10,WSW,8.1,18.4,0,None,Clear
2017-06-20,4:51 PM,80.1,79.9,53.1,39,29.91,10,West,5.8,17.3,0,None,Partly Cloudy
2017-08-23,1:51 PM,80.1,79.9,53.1,39,29.84,10,Variable,6.9,0,0,None,Clear
2017-04-11,12:51 PM,80.1,80.1,46.9,31,30.11,10,Variable,5.8,0,0,None,Clear
2017-07-04,11:51 AM,80.1,80.1,55,42,30.08,10,ENE,4.6,0,0,None,Scattered Clouds
2017-07-30,1:51 PM,80.1,80.1,48.9,34,30.02,10,Variable,4.6,0,0,None,Clear
2017-07-30,3:51 PM,80.1,80.1,51.1,36,30.01,10,ENE,5.8,0,0,None,Clear
2017-07-30,4:51 PM,80.1,80.1,50,35,30.01,10,East,6.9,0,0,None,Clear
2017-09-22,12:51 PM,80.1,80.1,55,42,29.98,10,Variable,5.8,0,0,None,Clear
2017-04-28,5:51 PM,80.1,80.1,55,42,29.97,9,North,0,0,0,None,Clear
2017-09-22,4:51 PM,80.1,80.1,55,42,29.94,10,NE,8.1,23,0,None,Scattered Clouds
2017-06-09,4:51 PM,80.1,80.1,46.9,31,29.74,10,WNW,6.9,0,0,None,Scattered Clouds
2017-07-09,1:51 PM,80.1,80.2,55.9,43,30.01,10,Calm,0,0,0,None,Scattered Clouds
2017-06-10,9:51 PM,80.1,80.2,55.9,43,30.01,10,WSW,5.8,0,0,None,Scattered Clouds
2017-06-25,2:51 PM,80.1,80.2,55.9,43,29.93,10,West,10.4,19.6,0,None,Mostly Cloudy
2017-08-20,6:51 PM,80.1,80.4,57,45,30.09,10,Variable,5.8,0,0,None,Clear
2017-04-29,6:51 PM,80.1,80.4,57,45,29.98,10,West,3.5,18.4,0,None,Clear
2017-08-13,6:51 PM,80.1,80.4,57,45,29.97,10,Calm,0,0,0,None,Partly Cloudy
2017-04-16,6:51 PM,81,80.4,53.1,38,29.76,10,North,0,0,0,None,Clear
2017-07-05,3:51 PM,80.1,80.6,57.9,47,30.18,10,Variable,6.9,0,0,None,Partly Cloudy
2017-08-11,11:51 AM,80.1,80.6,57.9,47,30.14,10,Variable,3.5,0,0,None,Mostly Cloudy
2017-07-31,10:51 AM,80.1,80.6,57.9,47,30.08,10,Calm,0,0,0,None,Clear
2017-08-20,1:51 PM,80.1,80.6,57.9,47,30.07,10,Variable,6.9,0,0,None,Clear
2017-06-10,11:51 AM,80.1,80.6,57.9,47,29.99,10,Variable,3.5,0,0,None,Clear
2017-05-19,8:51 PM,80.1,80.6,57.9,47,29.94,10,Variable,6.9,0,0,None,Clear
2017-06-24,9:51 PM,80.1,80.6,57.9,47,29.87,10,Variable,3.5,0,0,None,Clear
2017-06-21,7:51 PM,80.1,80.6,57.9,47,29.87,10,West,8.1,0,0,None,Clear
2017-08-09,4:51 PM,80.1,80.7,59,48,30.17,10,Calm,0,0,0,None,Clear
2017-08-11,1:51 PM,80.1,80.7,59,48,30.12,10,Variable,6.9,0,0,None,Partly Cloudy
2017-10-05,12:51 PM,80.1,80.7,59,48,30.09,10,Variable,5.8,0,0,None,Partly Cloudy
2017-08-20,2:51 PM,80.1,80.7,59,48,30.07,10,Calm,0,0,0,None,Partly Cloudy
2017-10-10,12:51 PM,80.1,80.7,59,48,30.06,10,NW,9.2,0,0,None,Clear
2017-06-10,8:51 PM,81,80.7,55,41,29.99,10,Variable,3.5,0,0,None,Partly Cloudy
2017-06-25,11:51 AM,80.1,80.7,59,48,29.98,10,Calm,0,0,0,None,Mostly Cloudy
2017-04-28,4:51 PM,81,80.7,55,41,29.98,9,Variable,5.8,0,0,None,Clear
2017-06-20,11:51 AM,80.1,80.7,59,48,29.91,10,North,0,0,0,None,Clear
2017-08-31,1:51 PM,80.1,80.7,59,48,29.89,10,Variable,6.9,0,0,None,Overcast
2017-09-22,3:51 PM,81,80.8,55.9,42,29.95,10,North,9.2,19.6,0,None,Clear
2017-06-24,8:51 PM,81,80.8,55.9,42,29.83,10,Variable,4.6,0,0,None,Clear
2017-10-05,1:51 PM,80.1,80.9,60.1,50,30.07,9,Variable,6.9,0,0,None,Scattered Clouds
2017-08-17,11:51 AM,80.1,80.9,60.1,50,30.05,10,Variable,5.8,0,0,None,Clear
2017-10-10,1:51 PM,80.1,80.9,60.1,50,30.04,10,NNW,5.8,0,0,None,Clear
2017-06-14,12:51 PM,80.1,80.9,60.1,50,29.99,10,ENE,6.9,0,0,None,Scattered Clouds
2017-07-15,7:51 PM,80.1,80.9,60.1,50,29.89,10,Calm,0,0,0,None,Overcast
2017-08-20,4:51 PM,81,81,57,44,30.06,10,Variable,5.8,0,0,None,Clear
2017-10-06,2:51 PM,81,81,57,44,30.05,10,North,0,0,0,None,Scattered Clouds
2017-09-23,11:51 AM,81,81,57,44,30.05,10,Variable,6.9,0,0,None,Clear
2017-07-30,2:51 PM,81,81,50,34,30.01,10,Variable,5.8,0,0,None,Clear
2017-06-21,6:51 PM,81,81,57,44,29.87,10,North,0,0,0,None,Clear
2017-08-10,10:51 AM,80.1,81.1,61,52,30.23,10,Variable,3.5,0,0,None,Clear
2017-08-11,12:51 PM,80.1,81.1,61,52,30.12,10,North,0,0,0,None,Partly Cloudy
2017-07-04,12:51 PM,81,81.1,57.9,45,30.07,10,Calm,0,0,0,None,Clear
2017-06-11,9:51 AM,80.1,81.1,61,52,30.07,10,Variable,4.6,16.1,0,None,Clear
2017-07-10,11:51 AM,81,81.1,57.9,45,30.07,10,Variable,3.5,0,0,None,Clear
2017-08-20,5:51 PM,81,81.1,57.9,45,30.07,10,Variable,3.5,0,0,None,Clear
2017-10-05,2:51 PM,80.1,81.1,61,52,30.05,10,Variable,3.5,0,0,None,Clear
2017-10-06,1:51 PM,81,81.1,57.9,45,30.05,10,Variable,5.8,0,0,None,Partly Cloudy
2017-06-12,8:51 AM,80.1,81.1,61,52,30.05,10,Variable,6.9,0,0,None,Clear
2017-10-05,5:51 PM,80.1,81.1,61,52,30.03,10,Variable,3.5,0,0,None,Mostly Cloudy
2017-06-22,11:51 AM,81,81.1,57.9,45,29.99,10,Calm,0,0,0,None,Clear
2017-07-03,9:51 AM,81,81.1,57.9,45,29.99,10,Variable,4.6,0,0,None,Clear
2017-09-21,4:51 PM,80.1,81.1,61,52,29.99,10,ENE,6.9,0,0,None,Clear
2017-06-22,1:51 PM,81,81.1,57.9,45,29.97,10,North,0,0,0,None,Clear
2017-08-13,5:51 PM,81,81.1,57.9,45,29.96,10,WNW,8.1,0,0,None,Mostly Cloudy
2017-08-13,11:51 AM,80.1,81.1,61,52,29.94,10,North,0,0,0,None,Clear
2017-06-20,12:51 PM,81,81.1,57.9,45,29.91,10,Variable,4.6,0,0,None,Partly Cloudy
2017-06-22,6:51 PM,80.1,81.1,61,52,29.9,10,Calm,0,0,0,None,Clear
2017-06-21,1:51 PM,81,81.1,57.9,45,29.9,10,Variable,4.6,0,0,None,Partly Cloudy
2017-06-22,5:51 PM,80.1,81.1,61,52,29.9,10,South,8.1,0,0,None,Clear
2017-07-05,10:51 AM,80.1,81.2,62.1,54,30.2,10,East,4.6,0,0,None,Clear
2017-08-10,4:51 PM,80.1,81.2,62.1,54,30.18,10,North,0,0,0,None,Clear
2017-06-29,12:51 PM,80.1,81.2,62.1,54,30.09,10,Variable,5.8,17.3,0,None,Clear
2017-06-12,12:51 AM,80.1,81.2,62.1,54,30,10,West,5.8,0,0,None,Clear
2017-06-13,2:51 AM,80.1,81.2,62.1,54,29.94,10,Calm,0,0,0,None,Clear
2017-06-13,3:51 AM,80.1,81.2,62.1,54,29.94,10,Variable,4.6,0,0,None,Mostly Cloudy
2017-06-20,3:51 PM,82,81.2,53.1,37,29.91,10,West,8.1,23,0,None,Clear
2017-06-20,2:51 PM,82,81.2,53.1,37,29.9,10,Variable,5.8,20.7,0,None,Partly Cloudy
2017-09-13,2:51 PM,80.1,81.2,62.1,54,29.87,10,SSW,4.6,0,0,None,Mostly Cloudy
2017-06-24,4:51 PM,82,81.2,53.1,37,29.79,10,Variable,3.5,0,0,None,Clear
2017-08-10,3:51 PM,81,81.3,59,47,30.19,10,Variable,6.9,0,0,None,Clear
2017-06-22,2:51 PM,81,81.3,59,47,29.95,10,Variable,5.8,0,0,None,Clear
2017-08-31,12:51 PM,81,81.3,59,47,29.89,10,Variable,5.8,0,0,None,Partly Cloudy
2017-08-09,12:51 PM,82,81.4,55,39,30.19,10,Variable,4.6,0,0,None,Clear
2017-06-10,12:51 PM,82,81.4,55,39,29.99,10,Variable,6.9,0,0,None,Clear
2017-06-24,6:51 PM,82,81.4,55,39,29.8,10,Calm,0,0,0,None,Clear
2017-09-17,3:51 PM,80.1,81.5,63,56,30.11,10,ENE,6.9,0,0,None,Clear
2017-10-07,1:51 PM,80.1,81.5,63,56,30.07,10,Variable,3.5,0,0,None,Clear
2017-07-04,4:51 PM,80.1,81.5,63,56,30.04,10,Calm,0,0,0,None,Overcast
2017-09-15,3:51 PM,80.1,81.5,63,56,30.02,10,WSW,3.5,0,0,None,Partly Cloudy
2017-08-17,2:51 PM,80.1,81.5,63,56,30.01,10,Variable,3.5,0,0,None,Clear
2017-09-21,3:51 PM,80.1,81.5,63,56,29.98,10,Variable,6.9,0,0,None,Clear
2017-05-17,11:51 PM,80.1,81.5,63,56,29.93,10,SW,6.9,0,0,None,Clear
2017-05-18,12:51 AM,80.1,81.5,63,56,29.92,10,Variable,4.6,0,0,None,Clear
2017-08-19,8:51 PM,80.1,81.5,63,56,29.86,10,Variable,4.6,0,0,None,Clear
2017-07-28,6:51 PM,80.1,81.5,63,56,29.78,10,Calm,0,0,0,None,Clear
2017-07-31,11:51 AM,82,81.6,55.9,41,30.07,10,Variable,4.6,0,0,None,Clear
2017-08-20,3:51 PM,81,81.6,60.1,49,30.06,10,Variable,4.6,0,0,None,Partly Cloudy
2017-07-04,5:51 PM,81,81.6,60.1,49,30.04,10,Calm,0,0,0,None,Partly Cloudy
2017-04-28,1:51 PM,82,81.6,55.9,41,29.98,8,Variable,5.8,0,0,None,Clear
2017-08-16,7:51 PM,81,81.6,60.1,49,29.97,10,Calm,0,0,0,None,Clear
2017-06-10,7:51 PM,82,81.6,55.9,41,29.97,10,Variable,3.5,0,0,None,Scattered Clouds
2017-09-22,1:51 PM,82,81.6,55.9,41,29.97,10,NNE,10.4,0,0,None,Partly Cloudy
2017-08-04,3:51 PM,81,81.6,60.1,49,29.96,10,South,10.4,20.7,0,None,Clear
2017-08-13,12:51 PM,81,81.6,60.1,49,29.94,10,Variable,4.6,0,0,None,Clear
2017-08-13,1:51 PM,81,81.6,60.1,49,29.94,10,Variable,5.8,0,0,None,Partly Cloudy
2017-06-21,11:51 AM,82,81.6,55.9,41,29.93,10,WNW,9.2,0,0,None,Partly Cloudy
2017-06-24,7:51 PM,82,81.6,55.9,41,29.82,10,West,5.8,0,0,None,Clear
2017-06-24,12:51 PM,82,81.6,55.9,41,29.72,10,WNW,15,25.3,0,None,Clear
2017-08-09,3:51 PM,82,81.7,57,42,30.17,10,Calm,0,0,0,None,Partly Cloudy
2017-08-01,10:51 PM,80.1,81.7,64,58,30.04,10,WSW,4.6,0,0,None,Clear
2017-10-05,4:51 PM,81,81.7,61,50,30.03,10,North,0,0,0,None,Overcast
2017-07-02,10:51 AM,80.1,81.7,64,58,29.99,10,West,8.1,0,0,None,Clear
2017-04-29,5:51 PM,82,81.7,57,42,29.98,10,West,12.7,23,0,None,Clear
2017-08-13,4:51 PM,82,81.7,57,42,29.96,10,Calm,0,0,0,None,Partly Cloudy
2017-07-16,11:51 AM,81,81.7,61,50,29.96,10,Calm,0,0,0,None,Clear
2017-07-10,6:51 PM,80.1,81.7,64,58,29.95,10,Variable,3.5,0,0,None,Mostly Cloudy
2017-07-03,12:51 AM,80.1,81.7,64,58,29.95,10,Variable,4.6,0,0,None,Clear
2017-06-13,7:51 AM,80.1,81.7,64,58,29.95,9,West,4.6,0,0,None,Clear
2017-09-22,2:51 PM,82,81.7,57,42,29.95,10,North,9.2,0,0,None,Clear
2017-06-13,1:51 AM,81,81.7,61,50,29.94,10,North,0,0,0,None,Clear
2017-06-25,1:51 PM,82,81.7,57,42,29.94,10,Variable,3.5,0,0,None,Clear
2017-06-20,1:51 PM,82,81.7,57,42,29.9,10,Variable,6.9,16.1,0,None,Clear
2017-08-19,9:51 PM,80.1,81.7,64,58,29.88,10,Variable,3.5,0,0,None,Clear
2017-07-15,6:51 PM,81,81.7,61,50,29.88,10,Variable,5.8,0,0,None,Partly Cloudy
2017-06-21,3:51 PM,82,81.7,57,42,29.87,10,North,0,0,0,None,Scattered Clouds
2017-06-21,4:51 PM,82,81.7,57,42,29.87,10,Variable,6.9,0,0,None,Clear
2017-06-21,5:51 PM,82,81.7,57,42,29.86,10,WNW,8.1,21.9,0,None,Clear
2017-06-24,5:51 PM,82.9,81.8,53.1,36,29.8,10,West,9.2,0,0,None,Clear
2017-09-24,10:51 AM,81,81.9,62.1,52,30.08,10,Variable,3.5,0,0,None,Clear
2017-06-29,1:51 PM,81,81.9,62.1,52,30.07,10,Variable,3.5,0,0,None,Partly Cloudy
2017-07-17,8:51 AM,80.1,81.9,64.9,60,30.04,10,Calm,0,0,0,None,Clear
2017-08-17,12:51 PM,81,81.9,62.1,52,30.04,10,Variable,4.6,0,0,None,Clear
2017-06-29,4:51 PM,80.1,81.9,64.9,60,30.03,10,South,9.2,0,0,None,Partly Cloudy
2017-08-14,1:51 PM,80.1,81.9,64.9,60,30.01,10,Variable,3.5,0,0,None,Clear
2017-07-03,10:51 PM,81,81.9,62.1,52,30,10,WNW,3.5,0,0,None,Mostly Cloudy
2017-06-14,1:51 AM,80.1,81.9,64.9,60,29.89,10,NE,8.1,0,0,None,Mostly Cloudy
2017-08-19,11:51 PM,80.1,81.9,64.9,60,29.88,10,Variable,4.6,0,0,None,Clear
2017-08-19,7:51 PM,81,81.9,62.1,52,29.85,10,Variable,3.5,0,0,None,Clear
2017-06-24,1:51 PM,82.9,81.9,54,37,29.74,10,North,0,0,0,None,Clear
2017-06-24,11:51 AM,81,81.9,62.1,52,29.69,10,WNW,9.2,0,0,None,Clear
2017-04-29,4:51 PM,82,82,57.9,44,29.98,10,WNW,9.2,23,0,None,Clear
2017-06-10,5:51 PM,82.9,82,55,38,29.94,10,North,0,0,0,None,Mostly Cloudy
2017-06-10,6:51 PM,82.9,82,55,38,29.94,10,Calm,0,0,0,None,Clear
2017-06-21,2:51 PM,82,82,57.9,44,29.88,10,North,0,0,0,None,Clear
2017-06-24,3:51 PM,82.9,82,55,38,29.77,10,North,0,0,0,None,Clear
2017-08-10,2:51 PM,82,82.1,59,45,30.2,10,Variable,5.8,0,0,None,Clear
2017-08-09,1:51 PM,82.9,82.1,55.9,39,30.18,10,Calm,0,0,0,None,Clear
2017-09-17,2:34 PM,80.1,82.1,66,62,30.15,7,North,4.6,0,0,None,Scattered Clouds
2017-09-17,2:51 PM,80.1,82.1,66,62,30.12,7,Variable,4.6,0,0,None,Partly Cloudy
2017-06-10,1:51 PM,82.9,82.1,55.9,39,29.98,10,North,0,0,0,None,Clear
2017-06-22,12:51 PM,82,82.1,59,45,29.98,10,Variable,3.5,0,0,None,Clear
2017-08-13,3:51 PM,82,82.1,59,45,29.95,10,Variable,3.5,0,0,None,Scattered Clouds
2017-08-13,2:51 PM,82,82.1,59,45,29.94,10,Variable,6.9,0,0,None,Partly Cloudy
2017-07-22,8:51 PM,80.1,82.1,66,62,29.78,9,Variable,4.6,0,0,None,Overcast
2017-07-22,7:51 PM,80.1,82.1,66,62,29.77,10,Variable,4.6,0,0,None,Partly Cloudy
2017-08-11,2:51 PM,81,82.2,63,54,30.1,10,Calm,0,0,0,None,Mostly Cloudy
2017-08-01,8:51 PM,81,82.2,63,54,30.02,10,Variable,4.6,0,0,None,Clear
2017-06-22,4:51 PM,81,82.2,63,54,29.93,10,North,0,0,0,None,Clear
2017-07-22,8:51 AM,81,82.2,63,54,29.89,10,Calm,0,0,0,None,Clear
2017-07-22,6:51 PM,81,82.2,63,54,29.77,8,Calm,0,0,0,Rain,Light Rain
2017-09-17,1:51 PM,80.1,82.3,66.9,64,30.13,6,ENE,5.8,0,0,None,Haze
2017-08-21,7:51 PM,80.1,82.3,66.9,64,30.1,10,Variable,6.9,0,0,None,Clear
2017-07-10,5:51 PM,80.1,82.3,66.9,64,29.96,10,Variable,3.5,0,0,None,Mostly Cloudy
2017-07-15,12:51 PM,80.1,82.3,66.9,64,29.92,10,NW,4.6,0,0,None,Scattered Clouds
2017-07-22,4:51 AM,80.1,82.3,66.9,64,29.86,10,Variable,3.5,0,0,None,Clear
2017-08-09,2:51 PM,82.9,82.4,57,41,30.17,10,Calm,0,0,0,None,Partly Cloudy
2017-07-04,1:51 PM,82,82.4,60.1,47,30.05,10,North,0,0,0,None,Clear
2017-07-04,2:51 PM,82,82.4,60.1,47,30.04,10,Calm,0,0,0,None,Scattered Clouds
2017-08-16,11:51 AM,82,82.4,60.1,47,29.97,10,North,6.9,0,0,None,Clear
2017-09-13,1:51 PM,82,82.4,60.1,47,29.88,10,North,0,0,0,None,Partly Cloudy
2017-06-24,2:51 PM,82.9,82.4,57,41,29.75,10,Variable,6.9,0,0,None,Clear
2017-08-01,9:51 AM,81,82.5,64,56,30.05,10,ENE,5.8,0,0,None,Clear
2017-06-29,3:51 PM,81,82.5,64,56,30.04,10,Variable,4.6,0,0,None,Clear
2017-09-15,4:51 PM,81,82.5,64,56,30.03,10,Calm,0,0,0,None,Scattered Clouds
2017-08-01,9:51 PM,81,82.5,64,56,30.03,10,Calm,0,0,0,None,Clear
2017-09-24,6:51 PM,81,82.5,64,56,30.02,10,Calm,0,0,0,None,Clear
2017-05-19,12:51 AM,81,82.5,64,56,29.87,10,Variable,5.8,0,0,None,Clear
2017-05-18,11:51 PM,81,82.5,64,56,29.86,10,WSW,4.6,0,0,None,Clear
2017-08-19,6:51 PM,81,82.5,64,56,29.83,10,Calm,0,0,0,None,Clear
2017-07-28,5:51 PM,81,82.5,64,56,29.78,10,Variable,4.6,0,0,None,Clear
2017-07-08,6:51 PM,81,82.5,64,56,29.76,10,West,8.1,17.3,0,None,Partly Cloudy
2017-07-05,2:51 PM,82.9,82.6,57.9,42,30.18,10,Variable,3.5,0,0,None,Scattered Clouds
2017-07-10,12:51 PM,82.9,82.6,57.9,42,30.05,10,Variable,3.5,0,0,None,Partly Cloudy
2017-06-10,3:51 PM,82.9,82.6,57.9,42,29.95,10,SW,8.1,0,0,None,Scattered Clouds
2017-08-21,10:51 AM,81,82.7,64.9,58,30.19,10,WSW,3.5,0,0,None,Clear
2017-09-16,1:02 PM,80.1,82.7,68,67,30.18,6,Variable,5.8,0,0,None,Haze
2017-09-16,12:51 PM,80.1,82.7,68,67,30.15,5,ENE,4.6,0,0,None,Haze
2017-08-21,8:51 PM,80.1,82.7,68,67,30.11,10,Variable,6.9,0,0,None,Clear
2017-09-25,10:51 AM,81,82.7,64.9,58,30.07,10,NE,8.1,0,0,None,Clear
2017-06-29,2:51 PM,81,82.7,64.9,58,30.06,10,Variable,4.6,0,0,None,Partly Cloudy
2017-08-03,5:51 PM,81,82.7,64.9,58,30.05,10,Variable,4.6,0,0,None,Clear
2017-07-17,5:51 PM,80.1,82.7,68,67,30.04,10,Calm,0,0,0,None,Partly Cloudy
2017-07-18,7:51 PM,80.1,82.7,68,67,30.04,10,Variable,4.6,0,0,None,Clear
2017-06-12,9:51 AM,82,82.7,61,49,30.03,10,WSW,5.8,0,0,None,Clear
2017-08-17,1:51 PM,82,82.7,61,49,30.02,10,Variable,3.5,0,0,None,Clear
2017-06-30,10:51 AM,81,82.7,64.9,58,30.01,10,Variable,6.9,0,0,None,Clear
2017-08-04,4:51 PM,81,82.7,64.9,58,29.96,10,North,0,0,0,None,Clear
2017-06-14,2:51 PM,81,82.7,64.9,58,29.96,10,Calm,0,0,0,None,Partly Cloudy
2017-08-16,6:51 PM,82,82.7,61,49,29.96,10,Calm,0,0,0,None,Clear
2017-05-18,9:51 AM,81,82.7,64.9,58,29.94,10,Variable,4.6,0,0,None,Clear
2017-07-16,6:51 PM,81,82.7,64.9,58,29.94,10,Variable,5.8,0,0,None,Clear
2017-04-29,1:51 PM,82,82.7,61,49,29.94,10,Variable,6.9,0,0,None,Clear
2017-06-22,3:51 PM,82,82.7,61,49,29.93,10,Variable,3.5,0,0,None,Clear
2017-05-17,11:51 AM,82.9,82.8,59,44,29.98,10,Variable,5.8,0,0,None,Clear
2017-07-18,9:51 AM,80.1,82.9,69.1,69,30.11,10,Calm,0,0,0,None,Clear
2017-08-21,9:51 PM,80.1,82.9,69.1,69,30.11,10,Variable,5.8,17.3,0,None,Clear
2017-09-23,12:51 PM,84,82.9,55,37,30.04,10,North,10.4,0,0,None,Clear
2017-07-13,5:51 PM,80.1,82.9,69.1,69,29.97,10,Variable,5.8,0,0,None,Overcast
2017-07-12,2:51 AM,80.1,82.9,69.1,69,29.96,10,Variable,4.6,0,0,None,Clear
2017-07-12,3:51 AM,80.1,82.9,69.1,69,29.95,10,Calm,0,0,0,None,Mostly Cloudy
2017-06-22,11:51 PM,80.1,82.9,69.1,69,29.9,10,Variable,4.6,0,0,None,Clear
2017-06-23,12:51 AM,80.1,82.9,69.1,69,29.89,10,North,0,0,0,None,Clear
2017-06-23,1:51 AM,80.1,82.9,69.1,69,29.87,10,Calm,0,0,0,None,Clear
2017-08-21,2:51 PM,81,83,66,60,30.13,10,Variable,4.6,0,0,None,Mostly Cloudy
2017-08-03,4:51 PM,81,83,66,60,30.06,10,Variable,6.9,0,0,None,Clear
2017-10-05,3:51 PM,82,83,62.1,51,30.03,10,Variable,4.6,0,0,None,Clear
2017-09-26,12:51 PM,81,83,66,60,30.02,10,ENE,5.8,0,0,None,Clear
2017-07-31,6:51 PM,82,83,62.1,51,30.01,10,Variable,3.5,0,0,None,Mostly Cloudy
2017-06-11,11:51 PM,82,83,62.1,51,30.01,10,WSW,8.1,0,0,None,Clear
2017-07-10,4:51 PM,81,83,66,60,29.98,10,Variable,5.8,0,0,None,Partly Cloudy
2017-09-26,4:51 PM,81,83,66,60,29.97,10,ESE,3.5,0,0,None,Clear
2017-06-10,4:51 PM,84,83,55.9,38,29.94,10,Variable,5.8,0,0,None,Mostly Cloudy
2017-07-15,3:51 PM,82,83,62.1,51,29.89,10,WNW,5.8,0,0,None,Mostly Cloudy
2017-07-15,5:51 PM,82,83,62.1,51,29.88,10,Variable,3.5,0,0,None,Scattered Clouds
2017-09-14,1:51 PM,81,83,66,60,29.86,10,North,0,0,0,None,Mostly Cloudy
2017-08-01,10:51 AM,82,83.1,63,52,30.06,10,Calm,0,0,0,None,Clear
2017-08-01,7:51 PM,82,83.1,63,52,30.01,10,South,4.6,0,0,None,Clear
2017-07-03,4:35 PM,82,83.1,63,52,30,1,NW,12.7,27.6,0,Rain,Rain
2017-05-17,10:51 PM,82,83.1,63,52,29.94,10,Variable,5.8,0,0,None,Clear
2017-07-17,5:39 PM,80.1,83.2,70,71,30.07,10,Variable,3.5,0,0,None,Scattered Clouds
2017-07-18,8:51 PM,80.1,83.2,70,71,30.05,10,Variable,4.6,0,0,None,Clear
2017-07-04,3:51 PM,82.9,83.2,60.1,46,30.04,10,ENE,4.6,0,0,None,Overcast
2017-07-03,10:51 AM,82.9,83.2,60.1,46,29.99,10,Calm,0,0,0,None,Clear
2017-07-12,12:51 AM,80.1,83.2,70,71,29.94,10,Calm,0,0,0,None,Clear
2017-08-10,1:51 PM,82.9,83.3,61,47,30.21,10,Calm,0,0,0,None,Mostly Cloudy
2017-07-05,11:51 AM,82.9,83.3,61,47,30.2,10,ENE,6.9,0,0,None,Partly Cloudy
2017-09-16,3:51 PM,81,83.3,66.9,62,30.12,8,NE,3.5,0,0,None,Clear
2017-08-21,6:51 PM,81,83.3,66.9,62,30.09,10,Variable,5.8,0,0,None,Clear
2017-07-17,9:51 AM,81,83.3,66.9,62,30.05,10,WSW,3.5,0,0,None,Mostly Cloudy
2017-08-04,2:51 PM,82.9,83.3,61,47,29.99,10,SSE,9.2,19.6,0,None,Clear
2017-07-02,8:51 PM,82.9,83.3,61,47,29.95,10,North,0,0,0,None,Clear
2017-07-16,1:51 PM,82.9,83.3,61,47,29.95,10,WSW,3.5,0,0,None,Clear
2017-06-13,12:51 AM,82.9,83.3,61,47,29.94,10,Variable,3.5,0,0,None,Clear
2017-09-05,11:51 AM,81,83.3,66.9,62,29.79,8,Calm,0,0,0,None,Partly Cloudy
2017-07-28,4:51 PM,81,83.3,66.9,62,29.79,10,Calm,0,0,0,None,Clear
2017-08-04,1:51 PM,82,83.4,64,54,30.01,10,South,5.8,0,0,None,Clear
2017-09-26,3:51 PM,82,83.4,64,54,29.98,10,Variable,3.5,0,0,None,Clear
2017-08-16,2:51 PM,82,83.4,64,54,29.96,10,ENE,5.8,0,0,None,Mostly Cloudy
2017-07-02,11:51 PM,82,83.4,64,54,29.95,10,West,4.6,0,0,None,Clear
2017-06-13,8:51 AM,82,83.4,64,54,29.94,9,Calm,0,0,0,None,Clear
2017-07-16,4:51 PM,82,83.4,64,54,29.94,10,Variable,5.8,0,0,None,Clear
2017-07-16,5:51 PM,82,83.4,64,54,29.93,10,North,0,0,0,None,Overcast
2017-05-19,9:51 AM,82,83.4,64,54,29.89,10,Variable,5.8,0,0,None,Clear
2017-05-18,10:51 PM,82,83.4,64,54,29.85,10,Variable,5.8,0,0,None,Clear
2017-07-08,5:51 PM,82,83.4,64,54,29.74,10,Variable,4.6,17.3,0,None,Partly Cloudy
2017-07-08,4:51 PM,82,83.4,64,54,29.73,10,North,0,0,0,None,Clear
2017-06-10,2:51 PM,84,83.5,57.9,41,29.95,10,Calm,0,0,0,None,Clear
2017-07-18,9:51 PM,80.1,83.6,71.1,74,30.06,10,North,0,0,0,None,Clear
2017-07-31,12:51 PM,84.9,83.6,55,36,30.06,10,Calm,0,0,0,None,Clear
2017-07-18,10:51 PM,80.1,83.6,71.1,74,30.06,10,Variable,4.6,18.4,0,None,Clear
2017-07-13,6:51 AM,80.1,83.6,71.1,74,30,9,Calm,0,0,0,None,Partly Cloudy
2017-07-13,5:51 AM,80.1,83.6,71.1,74,29.99,9,Variable,5.8,0,0,None,Clear
2017-07-13,4:51 AM,80.1,83.6,71.1,74,29.98,9,Variable,5.8,0,0,None,Clear
2017-07-01,2:51 PM,80.1,83.6,71.1,74,29.88,10,Variable,4.6,0,0,None,Mostly Cloudy
2017-06-18,7:51 PM,80.1,83.6,71.1,74,29.79,10,Variable,4.6,0,0,None,Partly Cloudy
2017-06-23,3:27 PM,80.1,83.6,71.1,74,29.71,10,Variable,4.6,18.4,0,None,Overcast
2017-06-23,3:51 PM,80.1,83.6,71.1,74,29.68,10,WSW,9.2,0,0,None,Overcast
2017-08-21,11:51 AM,82.9,83.7,62.1,49,30.19,10,Variable,5.8,0,0,None,Clear
2017-07-10,1:51 PM,82.9,83.7,62.1,49,30.04,10,Calm,0,0,0,None,Clear
2017-07-02,9:51 PM,82.9,83.7,62.1,49,29.96,10,WSW,9.2,0,0,None,Clear
2017-04-29,12:51 PM,82.9,83.7,62.1,49,29.95,10,North,0,0,0,None,Clear
2017-08-16,4:51 PM,82.9,83.7,62.1,49,29.95,10,Calm,0,0,0,None,Partly Cloudy
2017-05-17,9:51 PM,82.9,83.7,62.1,49,29.93,10,Variable,4.6,0,0,None,Clear
2017-07-15,4:51 PM,82.9,83.7,62.1,49,29.88,10,Variable,4.6,0,0,None,Scattered Clouds
2017-07-10,2:51 PM,82,83.8,64.9,56,30.02,10,Variable,5.8,0,0,None,Partly Cloudy
2017-07-10,3:51 PM,82,83.8,64.9,56,30,10,Variable,6.9,0,0,None,Scattered Clouds
2017-07-13,8:51 PM,81,83.8,68,65,29.99,10,Calm,0,0,0,None,Overcast
2017-09-26,2:51 PM,82,83.8,64.9,56,29.99,10,ENE,5.8,0,0,None,Clear
2017-04-29,3:51 PM,84,83.8,59,43,29.96,10,WNW,11.5,29.9,0,None,Clear
2017-07-21,8:51 AM,81,83.8,68,65,29.92,10,Variable,3.5,0,0,None,Partly Cloudy
2017-08-19,10:51 AM,82,83.8,64.9,56,29.86,10,NNE,5.8,0,0,None,Clear
2017-07-28,11:51 AM,81,83.8,68,65,29.86,8,Variable,5.8,0,0,None,Clear
2017-06-23,8:51 AM,80.1,83.8,72,76,29.81,7,Variable,4.6,0,0,None,Clear
2017-07-05,1:51 PM,82.9,84,63,51,30.19,10,ENE,10.4,0,0,None,Mostly Cloudy
2017-06-11,10:51 PM,84,84,60.1,44,30.01,10,WSW,8.1,0,0,None,Clear
2017-07-02,11:51 AM,82.9,84,63,51,29.99,10,Variable,3.5,0,0,None,Clear
2017-04-29,2:51 PM,84,84,60.1,44,29.96,10,Variable,6.9,17.3,0,None,Partly Cloudy
2017-08-16,12:51 PM,84,84,60.1,44,29.96,10,Variable,4.6,0,0,None,Clear
2017-07-02,10:51 PM,82.9,84,63,51,29.96,10,Variable,5.8,0,0,None,Scattered Clouds
2017-08-16,5:51 PM,84,84,60.1,44,29.95,10,Calm,0,0,0,None,Partly Cloudy
2017-07-15,2:51 PM,82.9,84,63,51,29.9,10,Variable,3.5,0,0,None,Scattered Clouds
2017-08-02,9:51 AM,81,84.1,69.1,67,30.07,6,Calm,0,0,0,None,Haze
2017-07-17,5:26 PM,81,84.1,69.1,67,30.06,10,South,9.2,16.1,0,None,Mostly Cloudy
2017-07-20,1:51 AM,82,84.1,66,58,29.98,10,WNW,4.6,0,0,None,Clear
2017-07-11,11:51 PM,81,84.1,69.1,67,29.95,10,Calm,0,0,0,None,Clear
2017-07-11,10:51 PM,81,84.1,69.1,67,29.94,10,Calm,0,0,0,None,Clear
2017-07-11,11:51 AM,81,84.1,69.1,67,29.94,10,Variable,3.5,0,0,None,Partly Cloudy
2017-07-22,9:51 AM,82,84.1,66,58,29.88,10,ENE,4.6,0,0,None,Clear
2017-07-22,3:51 AM,81,84.1,69.1,67,29.87,10,Calm,0,0,0,None,Overcast
2017-07-28,12:51 PM,82,84.1,66,58,29.84,10,Variable,3.5,0,0,None,Mostly Cloudy
2017-07-28,3:51 PM,81,84.1,69.1,67,29.8,9,ENE,6.9,0,0,None,Scattered Clouds
2017-07-08,1:51 PM,82,84.1,66,58,29.74,10,West,8.1,21.9,0,None,Partly Cloudy
2017-07-08,3:51 PM,82,84.1,66,58,29.73,10,Variable,3.5,0,0,None,Clear
2017-08-04,11:51 AM,80.1,84.2,73,79,30.05,10,South,6.9,0,0,None,Clear
2017-06-18,10:51 AM,80.1,84.2,73,79,29.89,8,Variable,3.5,0,0,None,Mostly Cloudy
2017-06-19,8:51 AM,80.1,84.2,73,79,29.85,10,WSW,8.1,17.3,0,None,Mostly Cloudy
2017-06-23,10:41 AM,80.1,84.2,73,79,29.8,7,North,0,0,0,None,Mostly Cloudy
2017-06-23,10:51 AM,80.1,84.2,73,79,29.77,7,WSW,4.6,0,0,None,Scattered Clouds
2017-06-24,12:40 AM,80.1,84.2,73,79,29.65,10,Variable,3.5,0,0,None,Scattered Clouds
2017-06-24,12:15 AM,80.1,84.2,73,79,29.65,10,Variable,4.6,0,0,None,Mostly Cloudy
2017-06-24,12:51 AM,80.1,84.2,73,79,29.62,10,North,0,0,0,None,Scattered Clouds
2017-06-11,10:51 AM,84,84.4,61,46,30.06,10,Variable,4.6,0,0,None,Clear
2017-07-17,4:51 PM,81,84.4,70,69,30.03,10,Variable,6.9,0,0,None,Scattered Clouds
2017-07-13,2:51 AM,81,84.4,70,69,29.99,10,WSW,5.8,0,0,None,Clear
2017-07-20,7:51 AM,81,84.4,70,69,29.98,9,Calm,0,0,0,None,Clear
2017-06-14,1:51 PM,84,84.4,61,46,29.98,10,Variable,5.8,0,0,None,Clear
2017-07-20,3:51 AM,81,84.4,70,69,29.96,9,Calm,0,0,0,None,Clear
2017-07-16,12:51 PM,84,84.4,61,46,29.95,10,Variable,4.6,0,0,None,Clear
2017-06-12,11:51 PM,84,84.4,61,46,29.94,10,Variable,3.5,0,0,None,Clear
2017-07-22,10:51 AM,84,84.4,61,46,29.88,10,Calm,0,0,0,None,Clear
2017-05-18,9:51 PM,82.9,84.4,64,53,29.86,10,SW,9.2,16.1,0,None,Clear
2017-07-28,1:51 PM,82.9,84.4,64,53,29.83,10,Calm,0,0,0,None,Scattered Clouds
2017-08-19,5:51 PM,82.9,84.4,64,53,29.83,10,Calm,0,0,0,None,Clear
2017-08-21,3:51 PM,82,84.5,66.9,60,30.13,9,Variable,3.5,0,0,None,Overcast
2017-09-16,2:51 PM,82,84.5,66.9,60,30.12,7,Variable,3.5,0,0,None,Clear
2017-08-21,5:51 PM,82,84.5,66.9,60,30.11,10,Calm,0,0,0,None,Partly Cloudy
2017-07-17,12:51 PM,82,84.5,66.9,60,30.05,10,North,0,0,0,None,Clear
2017-07-21,9:51 AM,82,84.5,66.9,60,29.93,10,WNW,5.8,0,0,None,Partly Cloudy
2017-05-17,8:51 PM,84,84.5,62.1,47,29.91,10,Variable,5.8,0,0,None,Clear
2017-06-14,12:51 AM,82,84.5,66.9,60,29.88,10,Variable,6.9,0,0,None,Overcast
2017-09-05,5:51 PM,82,84.5,66.9,60,29.73,9,Calm,0,0,0,None,Clear
2017-08-03,11:51 AM,82.9,84.6,64.9,54,30.12,9,Calm,0,0,0,None,Clear
2017-07-15,1:51 PM,82.9,84.6,64.9,54,29.91,10,North,0,0,0,None,Partly Cloudy
2017-08-19,11:51 AM,82.9,84.6,64.9,54,29.86,10,Calm,0,0,0,None,Clear
2017-08-19,12:51 PM,82.9,84.6,64.9,54,29.86,10,Variable,3.5,0,0,None,Mostly Cloudy
2017-06-19,4:49 PM,80.6,84.6,71.6,74,29.82,0.8,North,0,0,0,Rain,Heavy Rain
2017-07-05,12:51 PM,84.9,84.8,60.1,43,30.19,10,East,5.8,0,0,None,Partly Cloudy
2017-06-11,9:51 PM,84.9,84.8,60.1,43,30,10,Variable,4.6,0,0,None,Clear
2017-09-16,1:51 PM,82,84.9,68,62,30.14,6,East,6.9,0,0,None,Haze
2017-07-12,10:51 PM,81,84.9,71.1,72,30.01,10,Variable,5.8,0,0,None,Clear
2017-07-12,11:51 PM,81,84.9,71.1,72,30.01,10,Variable,6.9,0,0,None,Clear
2017-08-01,6:51 PM,84,84.9,63,49,30,10,Variable,4.6,0,0,None,Clear
2017-07-13,12:51 AM,81,84.9,71.1,72,29.99,10,West,3.5,0,0,None,Clear
2017-07-13,1:51 AM,81,84.9,71.1,72,29.99,10,West,4.6,0,0,None,Clear
2017-07-13,3:51 AM,81,84.9,71.1,72,29.98,10,WSW,5.8,0,0,None,Clear
2017-06-30,10:51 PM,82,84.9,68,62,29.96,10,SW,4.6,0,0,None,Mostly Cloudy
2017-08-16,1:51 PM,84,84.9,63,49,29.96,10,Variable,6.9,0,0,None,Partly Cloudy
2017-07-11,1:51 PM,82,84.9,68,62,29.94,10,Variable,4.6,0,0,None,Scattered Clouds
2017-07-01,12:41 PM,81,84.9,71.1,72,29.94,10,South,6.9,0,0,None,Overcast
2017-06-23,12:51 PM,81,84.9,71.1,72,29.73,10,Variable,6.9,18.4,0,None,Mostly Cloudy
2017-08-21,12:51 PM,84.9,85,61,44,30.16,10,North,0,0,0,None,Clear
2017-07-20,12:51 AM,82.9,85,66,56,29.99,10,Calm,0,0,0,None,Clear
2017-06-11,8:51 PM,86,85,57.9,38,29.99,10,Variable,4.6,0,0,None,Clear
2017-07-03,11:51 AM,84.9,85,61,44,29.98,10,Calm,0,0,0,None,Clear
2017-06-12,10:51 PM,84.9,85,61,44,29.94,10,Variable,4.6,0,0,None,Clear
2017-07-08,11:51 AM,82.9,85,66,56,29.75,10,North,0,0,0,None,Clear
2017-07-08,2:51 PM,82.9,85,66,56,29.74,10,WSW,11.5,17.3,0,None,Scattered Clouds
2017-07-19,8:51 AM,81,85.2,72,74,30.05,9,Calm,0,0,0,None,Clear
2017-07-01,12:51 PM,81,85.2,72,74,29.91,10,Variable,4.6,0,0,None,Overcast
2017-06-18,3:51 PM,81,85.2,72,74,29.81,9,Variable,5.8,0,0,None,Scattered Clouds
2017-06-18,5:51 PM,81,85.2,72,74,29.77,9,Variable,5.8,0,0,None,Partly Cloudy
2017-06-23,11:51 AM,81,85.2,72,74,29.76,8,SW,8.1,0,0,None,Clear
2017-06-23,2:51 PM,81,85.2,72,74,29.69,10,WSW,8.1,20.7,0,None,Mostly Cloudy
2017-06-23,4:51 PM,81,85.2,72,74,29.66,10,Variable,5.8,0,0,None,Overcast
2017-06-12,10:51 AM,84.9,85.4,62.1,46,30.02,10,WSW,4.6,0,0,None,Clear
2017-06-30,11:51 AM,82.9,85.4,66.9,58,30,10,WSW,10.4,0,0,None,Mostly Cloudy
2017-08-01,4:51 PM,86,85.4,59,40,29.99,10,WSW,4.6,0,0,None,Clear
2017-08-16,3:51 PM,84.9,85.4,62.1,46,29.96,10,Variable,3.5,0,0,None,Mostly Cloudy
2017-07-03,2:51 PM,86,85.4,59,40,29.95,10,North,0,0,0,None,Mostly Cloudy
2017-07-16,2:51 PM,84,85.4,64,51,29.94,10,Variable,4.6,0,0,None,Partly Cloudy
2017-07-02,7:51 PM,84.9,85.4,62.1,46,29.94,10,West,5.8,0,0,None,Mostly Cloudy
2017-07-16,3:51 PM,84.9,85.4,62.1,46,29.94,10,West,5.8,0,0,None,Clear
2017-05-17,7:51 PM,86,85.4,59,40,29.9,10,North,0,0,0,None,Clear
2017-05-18,8:51 PM,84,85.4,64,51,29.84,10,Variable,5.8,0,0,None,Clear
2017-08-18,2:51 PM,80.1,85.4,75.9,87,29.82,8,Calm,0,0,0,None,Overcast
2017-07-22,5:51 PM,84,85.4,64,51,29.78,10,Variable,4.6,0,0,None,Clear
2017-07-08,12:51 PM,82.9,85.4,66.9,58,29.75,10,WSW,8.1,0,0,None,Clear
2017-09-05,4:51 PM,82.9,85.4,66.9,58,29.72,10,Variable,5.8,0,0,None,Clear
2017-07-18,10:51 AM,82,85.5,69.1,65,30.1,10,Calm,0,0,0,None,Clear
2017-07-18,6:51 PM,82,85.5,69.1,65,30.05,10,North,0,0,0,None,Clear
2017-07-17,2:51 PM,82,85.5,69.1,65,30.03,10,Variable,6.9,0,0,None,Partly Cloudy
2017-06-30,9:51 PM,82,85.5,69.1,65,29.97,10,Variable,4.6,0,0,None,Clear
2017-07-11,9:51 PM,82,85.5,69.1,65,29.96,10,West,3.5,0,0,None,Clear
2017-07-11,12:51 PM,82,85.5,69.1,65,29.94,10,North,0,0,0,None,Mostly Cloudy
2017-07-11,2:51 PM,82,85.5,69.1,65,29.93,10,Variable,4.6,0,0,None,Mostly Cloudy
2017-05-17,12:51 PM,86,85.7,60.1,41,29.95,10,Variable,6.9,0,0,None,Clear
2017-06-12,9:51 PM,86,85.7,60.1,41,29.94,10,Calm,0,0,0,None,Clear
2017-08-22,10:51 AM,81,85.8,73,77,29.99,6,Variable,5.8,0,0,None,Haze
2017-07-11,8:51 PM,82.9,85.8,68,60,29.94,10,North,0,0,0,None,Clear
2017-08-19,1:51 PM,84,85.8,64.9,53,29.85,10,Variable,4.6,0,0,None,Mostly Cloudy
2017-08-19,4:51 PM,84,85.8,64.9,53,29.83,10,Variable,4.6,0,0,None,Partly Cloudy
2017-09-05,12:51 PM,82.9,85.8,68,60,29.78,8,Calm,0,0,0,None,Partly Cloudy
2017-06-23,9:51 AM,81,85.8,73,77,29.78,7,Calm,0,0,0,None,Clear
2017-08-18,4:51 PM,80.1,85.8,77,90,29.78,6,Variable,5.8,0,0,None,Mostly Cloudy
2017-06-23,7:51 PM,81,85.8,73,77,29.64,10,Calm,0,0,0,None,Mostly Cloudy
2017-07-17,4:23 PM,82,85.9,70,67,30.06,10,Variable,3.5,0,0,None,Mostly Cloudy
2017-07-13,7:51 AM,82,85.9,70,67,29.99,10,Variable,3.5,0,0,None,Clear
2017-07-20,2:51 AM,82,85.9,70,67,29.97,10,Calm,0,0,0,None,Mostly Cloudy
2017-07-02,5:51 PM,84.9,85.9,63,48,29.93,10,Variable,4.6,0,0,None,Scattered Clouds
2017-07-11,5:51 PM,82,85.9,70,67,29.92,10,North,0,0,0,None,Mostly Cloudy
2017-05-19,10:51 AM,84.9,85.9,63,48,29.89,10,North,0,0,0,None,Clear
2017-07-22,2:51 AM,82,85.9,70,67,29.87,10,Variable,4.6,0,0,None,Mostly Cloudy
2017-08-19,2:51 PM,84.9,85.9,63,48,29.84,10,Variable,4.6,0,0,None,Partly Cloudy
2017-08-21,1:51 PM,84.9,86.1,64,49,30.14,10,Variable,4.6,0,0,None,Clear
2017-07-31,1:51 PM,87.1,86.1,57.9,37,30.04,10,Variable,3.5,0,0,None,Clear
2017-09-24,5:51 PM,84.9,86.1,64,49,30.01,10,South,3.5,0,0,None,Clear
2017-07-31,5:51 PM,86,86.1,61,43,30,10,Calm,0,0,0,None,Mostly Cloudy
2017-07-03,12:51 PM,86,86.1,61,43,29.96,10,Calm,0,0,0,None,Clear
2017-07-02,6:51 PM,84.9,86.1,64,49,29.94,10,Variable,5.8,0,0,None,Scattered Clouds
2017-06-12,8:51 PM,86,86.1,61,43,29.93,10,Variable,5.8,0,0,None,Clear
2017-06-19,9:51 AM,81,86.2,73.9,79,29.84,10,Variable,3.5,0,0,None,Mostly Cloudy
2017-08-21,4:51 PM,84,86.3,66,55,30.12,9,Variable,3.5,0,0,None,Clear
2017-09-24,11:51 AM,86,86.3,62.1,44,30.07,10,Variable,3.5,0,0,None,Clear
2017-07-17,4:30 PM,82,86.3,71.1,69,30.06,10,North,0,0,0,None,Mostly Cloudy
2017-09-25,11:51 AM,84,86.3,66,55,30.06,10,Variable,4.6,0,0,None,Clear
2017-08-01,11:51 AM,86,86.3,62.1,44,30.05,10,Variable,3.5,0,0,None,Clear
2017-08-04,12:51 PM,82,86.3,71.1,69,30.04,10,Variable,3.5,0,0,None,Clear
2017-07-31,4:51 PM,86,86.3,62.1,44,30,10,Calm,0,0,0,None,Clear
2017-07-19,11:51 PM,84,86.3,66,55,29.99,10,Calm,0,0,0,None,Clear
2017-07-20,8:51 AM,82,86.3,71.1,69,29.98,8,Calm,0,0,0,None,Clear
2017-07-02,12:51 PM,86,86.3,62.1,44,29.98,10,WNW,5.8,0,0,None,Clear
2017-07-02,3:51 PM,86,86.3,62.1,44,29.95,10,West,9.2,0,0,None,Clear
2017-07-01,11:51 AM,82,86.3,71.1,69,29.93,10,Variable,6.9,0,0,None,Mostly Cloudy
2017-06-13,11:51 PM,84,86.3,66,55,29.88,10,WNW,3.5,0,0,None,Overcast
2017-09-27,5:51 PM,82,86.3,71.1,69,29.8,10,ENE,6.9,0,0,None,Partly Cloudy
2017-06-18,6:51 PM,82,86.3,71.1,69,29.78,10,Variable,3.5,0,0,None,Mostly Cloudy
2017-07-13,8:51 AM,82.9,86.5,69.1,63,29.99,10,Variable,3.5,0,0,None,Clear
2017-06-30,8:51 PM,82.9,86.5,69.1,63,29.94,10,Variable,4.6,0,0,None,Partly Cloudy
2017-05-19,7:51 PM,87.1,86.5,59,39,29.87,10,Variable,3.5,0,0,None,Scattered Clouds
2017-09-05,2:51 PM,84,86.5,66.9,56,29.74,10,Variable,4.6,0,0,None,Clear
2017-09-25,4:51 PM,84.9,86.6,64.9,51,30.01,10,Variable,5.8,0,0,None,Clear
2017-08-19,3:51 PM,84.9,86.6,64.9,51,29.83,10,West,3.5,0,0,None,Scattered Clouds
2017-07-28,2:51 PM,84.9,86.6,64.9,51,29.82,10,Variable,3.5,0,0,None,Mostly Cloudy
2017-06-11,11:51 AM,87.1,86.7,60.1,40,30.05,10,Variable,4.6,0,0,None,Clear
2017-08-01,12:51 PM,87.1,86.7,60.1,40,30.04,10,Variable,4.6,0,0,None,Clear
2017-07-31,3:51 PM,87.1,86.7,60.1,40,30,10,Variable,3.5,0,0,None,Clear
2017-06-11,6:51 PM,88,86.7,57,35,29.98,10,Variable,5.8,20.7,0,None,Clear
2017-05-17,6:51 PM,87.1,86.7,60.1,40,29.89,10,Variable,3.5,0,0,None,Clear
2017-06-19,9:59 AM,81,86.7,75,82,29.87,10,Variable,3.5,0,0,None,Mostly Cloudy
2017-05-19,6:51 PM,88,86.7,57,35,29.85,10,Variable,5.8,0,0,None,Partly Cloudy
2017-07-22,1:51 PM,87.1,86.7,60.1,40,29.83,10,Variable,5.8,0,0,None,Clear
2017-08-22,10:51 PM,82,86.7,72,71,29.79,7,Variable,6.9,25.3,0,Rain,Light Rain
2017-06-18,4:51 PM,82,86.7,72,71,29.78,10,North,0,0,0,None,Clear
2017-05-18,10:51 AM,86,86.8,63,46,29.93,10,Variable,4.6,0,0,None,Clear
2017-08-02,10:51 AM,84,87,68,58,30.07,8,Calm,0,0,0,None,Clear
2017-07-17,4:13 PM,82.9,87,70,65,30.06,10,Variable,4.6,17.3,0,None,Scattered Clouds
2017-07-18,5:51 PM,82.9,87,70,65,30.04,10,Calm,0,0,0,None,Clear
2017-07-03,3:51 PM,87.1,87,61,41,29.95,10,North,0,0,0,None,Mostly Cloudy
2017-07-03,1:51 PM,87.1,87,61,41,29.95,10,Variable,5.8,0,0,None,Clear
2017-07-11,6:51 PM,82.9,87,70,65,29.93,10,Variable,3.5,0,0,None,Mostly Cloudy
2017-07-11,4:51 PM,84,87,68,58,29.92,10,Variable,6.9,0,0,None,Mostly Cloudy
2017-09-27,11:51 AM,82.9,87,70,65,29.9,10,ENE,4.6,0,0,None,Clear
2017-06-13,9:51 PM,84,87,68,58,29.87,10,Calm,0,0,0,None,Clear
2017-07-22,11:51 AM,87.1,87,61,41,29.87,10,Variable,3.5,0,0,None,Clear
2017-09-05,1:51 PM,84,87,68,58,29.75,9,Variable,5.8,0,0,None,Partly Cloudy
2017-08-03,12:51 PM,84.9,87.1,66,53,30.11,9,Variable,4.6,0,0,None,Clear
2017-07-17,11:51 AM,84.9,87.1,66,53,30.05,10,South,8.1,0,0,None,Partly Cloudy
2017-07-31,2:51 PM,88,87.1,59,37,30.02,10,Variable,3.5,0,0,None,Clear
2017-07-19,10:51 PM,84.9,87.1,66,53,29.99,10,Calm,0,0,0,None,Clear
2017-06-11,7:51 PM,88,87.1,59,37,29.99,10,West,10.4,17.3,0,None,Clear
2017-07-19,9:51 PM,84.9,87.1,66,53,29.98,10,Calm,0,0,0,None,Clear
2017-06-13,9:51 AM,84.9,87.1,66,53,29.93,10,Variable,5.8,0,0,None,Clear
2017-06-13,10:51 PM,84.9,87.1,66,53,29.86,10,NNE,3.5,0,0,None,Clear
2017-08-03,1:51 PM,86,87.3,64,48,30.09,10,Calm,0,0,0,None,Clear
2017-08-01,5:51 PM,86,87.3,64,48,29.99,10,Variable,3.5,0,0,None,Clear
2017-06-18,11:58 AM,82,87.4,73,74,29.89,10,South,5.8,0,0,None,Scattered Clouds
2017-06-18,11:51 AM,82,87.4,73,74,29.87,10,Variable,6.9,0,0,None,Mostly Cloudy
2017-06-23,6:51 PM,82,87.4,73,74,29.64,10,WSW,6.9,0,0,None,Mostly Cloudy
2017-07-18,3:51 PM,82.9,87.5,71.1,67,30.05,10,South,3.5,0,0,None,Partly Cloudy
2017-07-17,3:51 PM,82.9,87.5,71.1,67,30.03,10,Variable,6.9,0,0,None,Mostly Cloudy
2017-07-12,9:51 PM,82.9,87.5,71.1,67,30,10,West,8.1,0,0,None,Clear
2017-07-12,10:51 AM,82.9,87.5,71.1,67,29.99,10,North,0,0,0,None,Clear
2017-05-18,7:51 PM,87.1,87.5,62.1,43,29.83,10,Variable,5.8,0,0,None,Clear
2017-08-22,9:51 PM,82.9,87.5,71.1,67,29.75,10,SSW,8.1,0,0,None,Clear
2017-08-03,2:51 PM,84.9,87.6,66.9,55,30.08,10,Variable,5.8,0,0,None,Partly Cloudy
2017-09-25,12:51 PM,84.9,87.6,66.9,55,30.05,9,NE,5.8,0,0,None,Clear
2017-09-25,3:51 PM,86,87.6,64.9,49,30.01,10,ENE,5.8,0,0,None,Clear
2017-06-30,12:51 PM,84.9,87.6,66.9,55,29.98,10,Variable,6.9,0,0,None,Partly Cloudy
2017-07-02,1:51 PM,86,87.6,64.9,49,29.96,10,Variable,4.6,0,0,None,Scattered Clouds
2017-07-02,4:51 PM,86,87.6,64.9,49,29.94,10,West,6.9,0,0,None,Partly Cloudy
2017-07-21,10:51 AM,84.9,87.6,66.9,55,29.91,10,Variable,3.5,0,0,None,Partly Cloudy
2017-07-21,8:51 PM,84.9,87.6,66.9,55,29.85,10,Calm,0,0,0,None,Clear
2017-05-19,5:51 PM,88,87.6,60.1,39,29.83,10,Variable,4.6,0,0,None,Mostly Cloudy
2017-08-03,3:51 PM,84,87.8,69.1,61,30.06,10,Variable,6.9,0,0,None,Partly Cloudy
2017-07-02,2:51 PM,87.1,87.8,63,44,29.96,10,Variable,3.5,0,0,None,Partly Cloudy
2017-07-11,7:51 PM,84,87.8,69.1,61,29.94,10,West,6.9,0,0,None,Overcast
2017-06-30,7:51 PM,84,87.8,69.1,61,29.93,10,Variable,5.8,0,0,None,Mostly Cloudy
2017-07-22,12:51 AM,84,87.8,69.1,61,29.87,10,Variable,3.5,0,0,None,Partly Cloudy
2017-07-22,1:51 AM,84,87.8,69.1,61,29.87,10,Variable,4.6,0,0,None,Mostly Cloudy
2017-05-18,6:51 PM,87.1,87.8,63,44,29.82,10,North,0,0,0,None,Clear
2017-09-05,3:51 PM,84,87.8,69.1,61,29.73,9,South,4.6,0,0,None,Partly Cloudy
2017-07-19,11:51 AM,88,87.9,61,40,30.03,10,North,0,0,0,None,Clear
2017-06-12,7:51 PM,88,87.9,61,40,29.93,10,Variable,3.5,0,0,None,Clear
2017-05-17,2:51 PM,88,87.9,61,40,29.92,10,Variable,6.9,19.6,0,None,Clear
2017-05-19,12:51 PM,88,87.9,61,40,29.86,10,Variable,4.6,17.3,0,None,Partly Cloudy
2017-05-19,4:51 PM,88,87.9,61,40,29.83,10,Variable,5.8,0,0,None,Scattered Clouds
2017-06-19,10:51 AM,82,87.9,73.9,76,29.82,10,Variable,6.9,0,0,None,Scattered Clouds
2017-08-18,3:51 PM,81,87.9,77,88,29.79,8,Calm,0,0,0,None,Overcast
2017-07-19,9:51 AM,82.9,88,72,69,30.04,9,North,0,0,0,None,Clear
2017-08-01,1:51 PM,89.1,88,57.9,35,30.02,10,SSE,3.5,0,0,None,Clear
2017-05-17,5:51 PM,89.1,88,57.9,35,29.89,10,Variable,5.8,19.6,0,None,Clear
2017-08-22,8:51 PM,82.9,88,72,69,29.77,10,Variable,4.6,0,0,None,Clear
2017-06-23,5:51 PM,82.9,88,72,69,29.65,10,Variable,3.5,0,0,None,Scattered Clouds
2017-07-18,11:51 AM,84.9,88.2,68,57,30.1,10,Calm,0,0,0,None,Clear
2017-06-11,12:51 PM,89.1,88.2,59,36,30.04,10,North,0,0,0,None,Clear
2017-07-17,1:51 PM,84.9,88.2,68,57,30.03,10,Variable,5.8,0,0,None,Scattered Clouds
2017-06-11,1:51 PM,89.1,88.2,59,36,30.02,10,North,0,0,0,None,Clear
2017-08-01,3:51 PM,89.1,88.2,59,36,30,10,Calm,0,0,0,None,Clear
2017-06-11,4:51 PM,89.1,88.2,59,36,29.99,10,Variable,5.8,0,0,None,Clear
2017-07-21,10:51 PM,84.9,88.2,68,57,29.87,10,Variable,3.5,0,0,None,Clear
2017-07-18,4:51 PM,84,88.4,70,63,30.04,10,South,8.1,0,0,None,Clear
2017-07-11,3:51 PM,84,88.4,70,63,29.94,10,Calm,0,0,0,None,Mostly Cloudy
2017-05-17,1:51 PM,88,88.4,62.1,42,29.93,10,Variable,5.8,19.6,0,None,Clear
2017-09-27,1:51 PM,84,88.4,70,63,29.85,10,Variable,5.8,0,0,None,Scattered Clouds
2017-09-27,2:51 PM,84,88.4,70,63,29.83,10,Variable,6.9,0,0,None,Clear
2017-07-22,3:51 PM,88,88.4,62.1,42,29.8,10,Calm,0,0,0,None,Clear
2017-05-19,11:51 AM,88,88.7,63,43,29.88,10,North,0,0,0,None,Clear
2017-08-02,11:51 AM,86,88.8,66.9,53,30.06,9,West,5.8,0,0,None,Clear
2017-07-19,12:51 PM,90,88.8,57.9,34,30.01,10,Variable,6.9,0,0,None,Clear
2017-06-12,12:51 PM,90,88.8,57.9,34,30,10,Variable,4.6,0,0,None,Clear
2017-06-11,5:51 PM,89.1,88.8,60.1,38,29.99,10,Variable,4.6,17.3,0,None,Clear
2017-07-12,6:51 PM,84.9,88.8,69.1,59,29.95,10,Variable,4.6,0,0,None,Overcast
2017-07-21,11:51 PM,84.9,88.8,69.1,59,29.87,10,Variable,5.8,0,0,None,Clear
2017-05-18,2:51 PM,89.1,88.8,60.1,38,29.86,10,WSW,4.6,0,0,None,Mostly Cloudy
2017-07-21,9:51 PM,86,88.8,66.9,53,29.86,10,WSW,6.9,0,0,None,Clear
2017-05-19,3:51 PM,89.1,88.8,60.1,38,29.83,10,North,0,0,0,None,Clear
2017-06-18,2:51 PM,82.9,88.8,73,72,29.83,10,Variable,4.6,0,0,None,Clear
2017-05-18,5:51 PM,89.1,88.8,60.1,38,29.83,10,Variable,5.8,0,0,None,Partly Cloudy
2017-07-21,7:51 PM,87.1,88.9,64.9,48,29.85,10,Variable,4.6,0,0,None,Clear
2017-06-12,11:51 AM,89.1,89,61,39,30.01,10,Variable,4.6,0,0,None,Clear
2017-06-11,2:51 PM,89.1,89,61,39,30,10,WSW,10.4,17.3,0,None,Clear
2017-07-20,9:51 AM,84,89,71.1,65,29.98,8,Variable,3.5,0,0,None,Clear
2017-06-12,6:51 PM,89.1,89,61,39,29.92,10,Variable,5.8,0,0,None,Clear
2017-05-17,3:51 PM,89.1,89,61,39,29.9,10,Variable,5.8,0,0,None,Clear
2017-09-27,12:51 PM,84,89,71.1,65,29.88,10,ESE,6.9,0,0,None,Clear
2017-09-27,4:51 PM,84,89,71.1,65,29.8,10,ENE,5.8,0,0,None,Clear
2017-06-19,3:51 PM,84,89,71.1,65,29.75,10,North,0,0,0,None,Scattered Clouds
2017-09-25,1:51 PM,87.1,89.2,66,49,30.04,10,Variable,4.6,0,0,None,Clear
2017-09-24,12:51 PM,89.1,89.3,62.1,40,30.06,10,Calm,0,0,0,None,Clear
2017-09-24,4:51 PM,88,89.3,64,45,30.01,10,East,4.6,0,0,None,Clear
2017-05-18,11:51 AM,89.1,89.3,62.1,40,29.91,10,North,0,0,0,None,Clear
2017-06-12,5:51 PM,89.1,89.3,62.1,40,29.91,10,Variable,3.5,0,0,None,Clear
2017-05-19,1:51 PM,89.1,89.3,62.1,40,29.85,10,Variable,3.5,0,0,None,Partly Cloudy
2017-07-22,4:51 PM,89.1,89.3,62.1,40,29.78,10,Calm,0,0,0,None,Clear
2017-07-19,10:51 AM,84.9,89.4,70,61,30.04,10,Calm,0,0,0,None,Clear
2017-07-12,8:51 PM,84.9,89.4,70,61,29.99,10,North,0,0,0,None,Overcast
2017-06-30,6:51 PM,84.9,89.4,70,61,29.9,10,Variable,3.5,0,0,None,Scattered Clouds
2017-06-13,10:51 AM,88,89.6,64.9,46,29.92,10,Variable,4.6,0,0,None,Clear
2017-08-01,2:51 PM,91,89.7,57,32,30.01,10,ENE,3.5,0,0,None,Clear
2017-05-17,4:51 PM,90,89.7,60.1,37,29.89,10,Variable,6.9,0,0,None,Clear
2017-05-18,4:51 PM,90,89.7,60.1,37,29.84,10,North,0,0,0,None,Scattered Clouds
2017-07-22,2:51 PM,91,89.7,57,32,29.81,10,Variable,4.6,0,0,None,Clear
2017-09-24,3:51 PM,89.1,90,63,42,30.02,10,NNE,5.8,0,0,None,Clear
2017-06-11,3:51 PM,90,90,61,38,29.99,10,Variable,5.8,0,0,None,Clear
2017-05-18,3:51 PM,91,90,57.9,33,29.85,10,Variable,6.9,19.6,0,None,Mostly Cloudy
2017-07-22,12:51 PM,90,90,61,38,29.85,10,Variable,5.8,0,0,None,Clear
2017-05-19,2:51 PM,90,90,61,38,29.83,10,Variable,5.8,21.9,0,None,Clear
2017-07-12,11:51 AM,84.9,90.1,71.1,63,29.98,10,Variable,5.8,0,0,None,Clear
2017-07-12,1:51 PM,86,90.1,69.1,57,29.96,10,North,0,0,0,None,Scattered Clouds
2017-07-12,7:51 PM,86,90.1,69.1,57,29.95,10,WNW,6.9,0,0,None,Overcast
2017-07-12,5:51 PM,86,90.1,69.1,57,29.94,10,Variable,6.9,0,0,None,Scattered Clouds
2017-06-30,3:51 PM,86,90.1,69.1,57,29.91,10,Calm,0,0,0,None,Mostly Cloudy
2017-09-27,3:51 PM,84.9,90.1,71.1,63,29.81,10,Calm,0,0,0,None,Clear
2017-08-22,7:51 PM,84.9,90.1,71.1,63,29.78,10,Variable,3.5,0,0,None,Clear
2017-06-12,1:51 PM,91,90.2,59,34,29.97,10,Variable,4.6,17.3,0,None,Clear
2017-08-22,11:51 AM,84,90.2,73,69,29.97,6,Variable,5.8,0,0,None,Haze
2017-06-12,2:51 PM,91,90.2,59,34,29.95,10,Calm,0,0,0,None,Clear
2017-06-18,1:51 PM,84,90.2,73,69,29.84,10,Variable,5.8,0,0,None,Clear
2017-09-24,2:51 PM,90,90.3,62.1,39,30.03,10,Calm,0,0,0,None,Clear
2017-07-19,8:51 PM,88,90.3,66,48,29.98,10,Variable,3.5,0,0,None,Mostly Cloudy
2017-07-21,11:51 AM,88,90.3,66,48,29.91,10,Variable,4.6,0,0,None,Clear
2017-07-21,5:51 PM,88,90.3,66,48,29.86,10,SW,6.9,0,0,None,Partly Cloudy
2017-07-20,5:51 PM,90,90.3,62.1,39,29.86,10,Variable,6.9,0,0,None,Clear
2017-06-13,8:51 PM,88,90.3,66,48,29.84,10,Variable,4.6,0,0,None,Clear
2017-06-13,7:51 PM,91,90.5,60.1,35,29.83,10,WNW,6.9,0,0,None,Clear
2017-07-18,12:51 PM,87.1,90.6,68,53,30.08,10,Calm,0,0,0,None,Partly Cloudy
2017-07-18,1:51 PM,87.1,90.6,68,53,30.06,10,Variable,4.6,0,0,None,Clear
2017-07-19,2:51 PM,90,90.6,63,40,29.99,10,North,0,0,0,None,Clear
2017-07-21,12:51 PM,90,90.6,63,40,29.89,10,Variable,6.9,0,0,None,Clear
2017-07-18,2:51 PM,86,90.7,70,59,30.06,10,South,4.6,0,0,None,Clear
2017-07-13,9:51 AM,86,90.7,70,59,29.98,10,Variable,5.8,0,0,None,Clear
2017-07-13,4:51 PM,84.9,90.7,72,65,29.95,9,West,9.2,0,0,None,Clear
2017-07-01,1:51 PM,84.9,90.7,72,65,29.89,10,Variable,4.6,0,0,None,Mostly Cloudy
2017-06-30,5:51 PM,86,90.7,70,59,29.88,10,Variable,4.6,0,0,None,Clear
2017-07-21,6:51 PM,88,90.7,66.9,49,29.85,10,Variable,4.6,0,0,None,Clear
2017-06-19,11:51 AM,84.9,90.7,72,65,29.81,10,Variable,5.8,0,0,None,Partly Cloudy
2017-08-22,6:51 PM,86,90.7,70,59,29.79,10,Variable,6.9,0,0,None,Clear
2017-07-19,6:51 PM,89.1,91,64.9,45,29.96,10,North,0,0,0,None,Partly Cloudy
2017-07-19,7:51 PM,89.1,91,64.9,45,29.96,10,Variable,3.5,0,0,None,Clear
2017-07-21,3:51 PM,89.1,91,64.9,45,29.86,10,Variable,4.6,0,0,None,Clear
2017-06-18,12:51 PM,84,91.2,73.9,72,29.86,10,SSW,5.8,0,0,None,Partly Cloudy
2017-09-24,1:51 PM,90,91.3,64,42,30.04,10,Variable,3.5,0,0,None,Clear
2017-07-19,3:51 PM,90,91.3,64,42,29.97,10,Variable,3.5,0,0,None,Scattered Clouds
2017-07-12,2:51 PM,87.1,91.3,69.1,55,29.94,10,Variable,4.6,0,0,None,Partly Cloudy
2017-07-12,4:51 PM,87.1,91.3,69.1,55,29.92,10,WSW,11.5,23,0,None,Scattered Clouds
2017-06-30,4:51 PM,87.1,91.3,69.1,55,29.9,10,SSE,8.1,0,0,None,Partly Cloudy
2017-07-20,7:51 PM,89.1,91.3,66,46,29.89,10,WNW,6.9,0,0,None,Scattered Clouds
2017-07-21,2:51 PM,90,91.3,64,42,29.86,10,Variable,3.5,0,0,None,Clear
2017-07-21,4:51 PM,90,91.3,64,42,29.86,10,Variable,5.8,0,0,None,Clear
2017-06-30,1:51 PM,88,91.4,68,51,29.96,10,Variable,4.6,0,0,None,Clear
2017-07-19,1:51 PM,91,91.5,62.1,38,29.99,10,West,6.9,0,0,None,Clear
2017-06-12,3:51 PM,91.9,91.5,60.1,34,29.94,10,Variable,3.5,0,0,None,Clear
2017-06-12,4:51 PM,91.9,91.5,60.1,34,29.93,10,Variable,3.5,0,0,None,Clear
2017-06-13,6:51 PM,91,91.5,62.1,38,29.81,10,Variable,3.5,0,0,None,Partly Cloudy
2017-07-20,6:51 PM,90,91.7,64.9,43,29.87,10,West,8.1,0,0,None,Clear
2017-05-18,1:51 PM,91.9,91.8,61,35,29.87,10,Variable,4.6,0,0,None,Clear
2017-07-13,10:51 AM,87.1,92,70,57,29.97,10,Variable,5.8,0,0,None,Clear
2017-07-12,12:51 PM,87.1,92,70,57,29.97,10,West,5.8,0,0,None,Scattered Clouds
2017-07-12,3:51 PM,87.1,92,70,57,29.94,10,North,0,0,0,None,Scattered Clouds
2017-06-30,2:51 PM,87.1,92,70,57,29.93,10,Variable,3.5,0,0,None,Clear
2017-07-19,5:51 PM,89.1,92.1,66.9,48,29.96,10,Variable,4.6,0,0,None,Clear
2017-06-13,1:51 PM,93,92.7,60.1,33,29.88,10,West,8.1,18.4,0,None,Clear
2017-07-20,10:51 AM,87.1,92.8,71.1,59,29.97,8,Calm,0,0,0,None,Clear
2017-07-20,4:51 PM,90,92.8,66.9,46,29.87,10,Variable,3.5,0,0,None,Partly Cloudy
2017-08-22,5:51 PM,87.1,92.8,71.1,59,29.79,10,SW,11.5,23,0,None,Partly Cloudy
2017-07-13,12:51 PM,88,92.9,70,55,29.96,10,West,10.4,17.3,0,None,Clear
2017-07-13,3:51 PM,86,93,73,65,29.94,9,North,0,0,0,None,Clear
2017-07-21,1:51 PM,91,93,64.9,42,29.88,10,Calm,0,0,0,None,Clear
2017-06-13,5:51 PM,91,93,64.9,42,29.81,10,North,0,0,0,None,Partly Cloudy
2017-06-19,2:51 PM,86,93,73,65,29.75,10,Variable,4.6,0,0,None,Partly Cloudy
2017-07-20,3:51 PM,91.9,93.3,64,39,29.88,10,West,6.9,0,0,None,Clear
2017-06-13,4:51 PM,91.9,93.3,64,39,29.82,10,Variable,4.6,0,0,None,Clear
2017-07-20,12:51 PM,90,93.6,68,48,29.94,10,Calm,0,0,0,None,Mostly Cloudy
2017-06-19,1:51 PM,87.1,93.6,72,61,29.79,10,Variable,6.9,0,0,None,Partly Cloudy
2017-07-19,4:51 PM,91,93.8,66,44,29.96,10,North,0,0,0,None,Clear
2017-07-13,11:51 AM,88,93.8,71.1,57,29.96,10,West,4.6,0,0,None,Partly Cloudy
2017-08-22,4:51 PM,88,93.8,71.1,57,29.82,10,Variable,5.8,17.3,0,None,Partly Cloudy
2017-06-13,11:51 AM,91.9,94.1,64.9,41,29.91,10,Calm,0,0,0,None,Partly Cloudy
2017-06-13,12:51 PM,93,94.2,63,37,29.89,10,North,0,0,0,None,Partly Cloudy
2017-06-19,12:51 PM,87.1,94.5,73,63,29.8,10,North,0,0,0,None,Partly Cloudy
2017-07-13,2:51 PM,88,94.7,72,59,29.95,9,Variable,4.6,17.3,0,None,Clear
2017-07-13,1:51 PM,89.1,95,71.1,55,29.96,10,WNW,8.1,0,0,None,Clear
2017-06-13,3:51 PM,93,95,64.9,39,29.83,10,North,0,0,0,None,Clear
2017-06-13,2:51 PM,93.9,95.2,63,36,29.85,10,Variable,3.5,0,0,None,Partly Cloudy
2017-08-22,12:51 PM,87.1,95.4,73.9,65,29.94,6,Variable,4.6,0,0,None,Haze
2017-08-22,1:51 PM,87.1,95.4,73.9,65,29.92,7,Variable,4.6,0,0,None,Partly Cloudy
2017-08-22,3:51 PM,88,95.6,73,61,29.84,9,SSW,8.1,0,0,None,Partly Cloudy
2017-07-20,1:51 PM,93,96.4,66.9,42,29.91,10,WNW,6.9,0,0,None,Clear
2017-08-22,2:51 PM,88,96.5,73.9,63,29.88,8,SSE,8.1,0,0,None,Partly Cloudy
2017-07-20,11:51 AM,91,96.6,70,50,29.96,10,Calm,0,0,0,None,Partly Cloudy
2017-07-20,2:51 PM,91.9,97.4,70,48,29.89,10,West,8.1,0,0,None,Partly Cloudy
2017-01-09,10:51 AM,19,-,3,50,30.74,10,Calm,0,0,0,None,Clear
2017-01-09,7:51 AM,15.1,-,1.9,56,30.7,10,Calm,0,0,0,None,Clear
2017-01-09,9:51 PM,21.9,-,7,53,30.67,10,North,0,0,0,None,Clear
2017-01-09,5:51 PM,21.9,-,9,58,30.67,10,Calm,0,0,0,None,Partly Cloudy
2017-01-09,8:51 PM,23,-,8.1,53,30.66,10,North,0,0,0,None,Scattered Clouds
2017-01-10,12:51 AM,21.9,-,9,58,30.64,10,North,0,0,0,None,Clear
2017-03-05,10:51 AM,25,-,-11.9,19,30.64,10,North,0,0,0,None,Clear
2017-01-10,7:51 AM,25,-,12,58,30.62,10,Calm,0,0,0,None,Clear
2017-03-05,11:51 AM,28.9,-,-11.9,17,30.61,10,North,0,0,0,None,Clear
2017-01-10,6:51 AM,24.1,-,9,53,30.61,10,Calm,0,0,0,None,Clear
2017-03-04,11:51 PM,17.1,-,-8,33,30.6,10,North,0,0,0,None,Clear
2017-03-05,2:51 AM,15.1,-,-7.1,37,30.6,10,North,0,0,0,None,Clear
2017-03-23,12:51 PM,37,-,-2,19,30.58,10,North,0,0,0,None,Clear
2017-01-14,12:51 PM,33.1,-,15.1,48,30.56,10,Calm,0,0,0,None,Overcast
2017-03-23,9:51 PM,39.9,-,-0.9,18,30.56,10,Calm,0,0,0,None,Clear
2017-03-23,10:51 PM,37.9,-,7,28,30.55,10,Calm,0,0,0,None,Clear
2017-03-05,1:51 PM,33.1,-,-14.1,13,30.54,10,Calm,0,0,0,None,Clear
2017-03-05,10:51 PM,30,-,-0.9,27,30.54,10,Calm,0,0,0,None,Clear
2017-03-06,6:51 AM,26.1,-,3.9,39,30.54,10,Calm,0,0,0,None,Clear
2017-03-06,7:51 AM,28,-,7,41,30.54,10,Calm,0,0,0,None,Clear
2017-03-06,8:51 AM,32,-,6.1,34,30.54,10,Calm,0,0,0,None,Clear
2017-04-19,1:20 AM,46.9,-,39,74,30.54,10,Variable,3.5,0,0,None,Scattered Clouds
2017-04-19,8:39 AM,46.9,-,36,66,30.54,10,Variable,3.5,0,0,None,Scattered Clouds
2017-03-06,12:51 AM,28,-,-2,27,30.53,10,Calm,0,0,0,None,Clear
2017-04-19,1:51 AM,46.9,-,39,74,30.52,10,Calm,0,0,0,None,Scattered Clouds
2017-03-06,1:51 AM,28,-,-0.9,29,30.52,10,Calm,0,0,0,None,Clear
2017-03-06,10:51 AM,37,-,8.1,30,30.52,10,Calm,0,0,0,None,Clear
2017-03-24,12:51 AM,37.9,-,18,45,30.52,10,Calm,0,0,0,None,Clear
2017-04-19,8:51 AM,46.9,-,37,68,30.52,10,Variable,4.6,17.3,0,None,Mostly Cloudy
2017-04-19,12:51 AM,46.9,-,39,74,30.52,10,Variable,6.9,0,0,None,Mostly Cloudy
2017-04-19,9:51 AM,48,-,37,66,30.52,10,SE,8.1,0,0,None,Overcast
2017-01-14,2:51 PM,32,-,19.9,61,30.51,5,Calm,0,0,0,Snow,Light Snow
2017-03-23,6:51 PM,41,-,0,18,30.51,10,North,0,0,0,None,Clear
2017-11-10,9:51 PM,26.1,-,6.1,43,30.51,10,North,0,0,0,None,Clear
2017-12-27,7:51 PM,19.9,-,-0.9,40,30.51,10,North,0,0,0,None,Clear
2017-04-19,2:51 AM,46,-,37.9,73,30.51,10,Calm,0,0,0,None,Scattered Clouds
2017-03-13,8:51 AM,21,-,5,50,30.51,10,Calm,0,0,0,None,Clear
2017-11-11,10:51 PM,33.1,-,14,46,30.51,10,Calm,0,0,0,None,Clear
2017-11-11,11:51 PM,34,-,16,48,30.51,10,Calm,0,0,0,None,Clear
2017-04-19,10:51 AM,48.9,-,37,64,30.5,10,North,0,0,0,None,Overcast
2017-12-27,6:51 AM,19,-,1.9,47,30.5,10,North,0,0,0,None,Overcast
2017-11-12,1:51 AM,33.1,-,19.9,59,30.5,10,Calm,0,0,0,None,Clear
2017-11-12,2:51 AM,33.1,-,21,61,30.5,10,Calm,0,0,0,None,Clear
2017-11-12,3:51 AM,32,-,21,64,30.5,10,Calm,0,0,0,None,Clear
2017-11-12,4:51 AM,33.1,-,21.9,64,30.5,10,Calm,0,0,0,None,Clear
2017-11-12,6:51 AM,34,-,21.9,61,30.5,10,Calm,0,0,0,None,Clear
2017-12-28,12:51 PM,18,-,-6,35,30.49,10,North,0,0,0,None,Clear
2017-12-28,6:51 PM,16,-,-6,38,30.49,10,North,0,0,0,None,Clear
2017-11-12,5:51 AM,34,-,23,64,30.49,10,Calm,0,0,0,None,Clear
2017-11-12,7:51 AM,35.1,-,21.9,59,30.49,10,Calm,0,0,0,None,Clear
2017-11-12,8:51 AM,37,-,15.1,41,30.49,10,Calm,0,0,0,None,Clear
2017-12-27,3:51 AM,21,-,3,46,30.48,10,North,0,0,0,None,Overcast
2017-11-10,7:51 PM,27,-,5,39,30.48,10,North,0,0,0,None,Clear
2017-03-13,6:51 AM,19.9,-,3.9,50,30.48,10,Calm,0,0,0,None,Clear
2017-04-19,11:51 AM,50,-,37,61,30.48,10,South,9.2,17.3,0,None,Overcast
2017-01-13,2:51 PM,44.1,-,19,37,30.47,10,North,0,0,0,None,Clear
2017-01-16,8:51 AM,32,-,19.9,61,30.47,10,Calm,0,0,0,None,Clear
2017-01-16,9:51 AM,34,-,19.9,56,30.47,10,Calm,0,0,0,None,Clear
2017-01-14,4:51 PM,28.9,-,27,92,30.46,1.2,Calm,0,0,0.04,Snow,Light Snow
2017-01-14,5:19 PM,30,-,28,92,30.46,1.8,Calm,0,0,0.01,Snow,Light Snow
2017-01-14,5:27 PM,30,-,28,92,30.46,1.8,Calm,0,0,0.01,Snow,Light Snow
2017-01-14,5:42 PM,30,-,28,92,30.46,2.5,Calm,0,0,0.02,Snow,Light Snow
2017-12-04,12:03 PM,46.9,-,39.9,77,30.46,6,WNW,4.6,0,0,None,Haze
2017-01-14,6:40 PM,30.9,-,28,89,30.45,2,Calm,0,0,0.02,Snow,Light Snow
2017-04-19,12:51 PM,51.1,-,37.9,61,30.45,10,South,11.5,18.4,0,None,Mostly Cloudy
2017-12-04,9:51 AM,46.9,-,39.9,77,30.45,7,ENE,3.5,0,0,None,Clear
2017-12-04,10:51 AM,48,-,39,71,30.45,7,Variable,4.6,0,0,None,Clear
2017-12-27,12:51 PM,23,-,-0.9,35,30.44,10,North,0,0,0,None,Clear
2017-12-04,11:51 AM,48,-,39.9,74,30.44,6,WNW,4.6,0,0,None,Haze
2017-03-06,3:51 PM,42.1,-,17.1,37,30.43,10,North,0,0,0,None,Overcast
2017-04-19,1:51 PM,50,-,39,66,30.43,10,North,0,0,0,None,Mostly Cloudy
2017-03-12,12:51 AM,21.9,-,1,40,30.43,10,North,0,0,0,None,Clear
2017-03-13,12:51 AM,21.9,-,1,40,30.43,10,North,0,0,0,None,Clear
2017-11-12,12:51 PM,45,-,21,39,30.43,10,Calm,0,0,0,None,Clear
2017-01-14,6:51 PM,30,-,28,92,30.42,1.8,Calm,0,0,0.02,Snow,Light Snow
2017-01-13,11:51 AM,46,-,26.1,46,30.42,10,North,0,0,0,None,Clear
2017-01-10,5:51 PM,37,-,30.9,79,30.42,10,Calm,0,0,0,None,Overcast
2017-12-04,12:51 PM,48,-,39.9,74,30.42,5,Calm,0,0,0,None,Haze
2017-12-04,3:51 PM,48.9,-,37,64,30.42,9,Calm,0,0,0,None,Clear
2017-12-04,2:10 PM,48.9,-,39,69,30.42,7,ENE,5.8,0,0,None,Partly Cloudy
2017-12-04,8:51 PM,50,-,39,66,30.41,10,North,0,0,0,None,Mostly Cloudy
2017-11-28,11:51 AM,48,-,30,50,30.41,10,North,0,0,0,None,Clear
2017-12-04,7:51 PM,48.9,-,39,69,30.41,10,Calm,0,0,0,None,Overcast
2017-01-15,11:51 PM,32,-,19,59,30.41,10,Calm,0,0,0,None,Clear
2017-03-13,2:51 PM,34,-,1.9,26,30.41,10,Calm,0,0,0,None,Clear
2017-11-12,9:51 PM,43,-,30,60,30.41,10,Calm,0,0,0,None,Clear
2017-12-04,6:51 PM,48.9,-,39,69,30.41,10,SSE,3.5,0,0,None,Mostly Cloudy
2017-12-04,2:51 PM,50,-,36,59,30.41,8,Variable,3.5,0,0,None,Partly Cloudy
2017-12-04,9:51 PM,50,-,37.9,63,30.41,10,South,4.6,0,0,None,Overcast
2017-02-27,11:51 AM,48.9,-,23,36,30.41,10,Variable,5.8,0,0,None,Clear
2017-02-27,7:43 PM,51.1,-,28,41,30.41,10,WSW,10.4,0,0,None,Mostly Cloudy
2017-03-22,9:51 PM,26.1,-,-4,27,30.4,10,North,0,0,0,None,Clear
2017-01-14,7:51 PM,30.9,-,28,89,30.4,4,Calm,0,0,0.01,None,Overcast
2017-01-14,8:24 PM,30.9,-,28,89,30.4,5,Calm,0,0,0,None,Overcast
2017-01-14,8:34 PM,30.9,-,28.9,92,30.4,5,Calm,0,0,0,None,Overcast
2017-01-15,9:51 PM,33.1,-,19,56,30.4,10,Calm,0,0,0,None,Clear
2017-11-12,4:51 PM,43,-,26.1,51,30.4,10,Calm,0,0,0,None,Clear
2017-11-12,6:51 PM,44.1,-,28,53,30.4,10,Calm,0,0,0,None,Clear
2017-11-12,7:51 PM,43,-,28,56,30.4,10,Calm,0,0,0,None,Clear
2017-02-27,9:51 PM,48.9,-,30,48,30.4,10,WSW,3.5,0,0,None,Clear
2017-12-04,1:51 PM,50,-,39,66,30.4,7,Variable,4.6,0,0,None,Mostly Cloudy
2017-12-04,5:51 PM,48,-,39,71,30.4,9,Variable,5.8,0,0,None,Partly Cloudy
2017-12-04,4:51 PM,48,-,39,71,30.4,10,SE,8.1,0,0,None,Partly Cloudy
2017-12-04,10:51 PM,50,-,39,66,30.4,10,South,10.4,0,0,None,Partly Cloudy
2017-02-04,8:51 AM,23,-,5,46,30.39,10,North,0,0,0,None,Clear
2017-02-27,6:51 PM,51.1,-,27,39,30.39,10,North,0,0,0,None,Clear
2017-02-27,10:51 PM,48.9,-,30,48,30.39,10,Calm,0,0,0,None,Partly Cloudy
2017-11-12,10:51 PM,43,-,28.9,58,30.39,10,Calm,0,0,0,None,Clear
2017-04-19,2:51 PM,52,-,39,61,30.39,10,SSE,9.2,23,0,None,Mostly Cloudy
2017-02-27,8:51 PM,50,-,28.9,44,30.39,10,Variable,4.6,0,0,None,Clear
2017-02-27,7:51 PM,50,-,28,43,30.39,10,West,4.6,0,0,None,Partly Cloudy
2017-12-04,11:51 PM,50,-,37.9,63,30.39,10,South,8.1,0,0,None,Partly Cloudy
2017-01-14,9:41 PM,30.9,-,28,89,30.38,2.5,Calm,0,0,0,Snow,Light Snow
2017-02-27,11:51 PM,48.9,-,30,48,30.38,10,Calm,0,0,0,None,Overcast
2017-11-13,12:51 AM,44.1,-,28.9,55,30.38,10,Calm,0,0,0,None,Clear
2017-02-27,12:51 PM,51.1,-,21,31,30.38,10,WSW,9.2,17.3,0,None,Clear
2017-11-28,12:51 PM,50,-,33.1,52,30.38,10,South,9.2,0,0,None,Clear
2017-11-28,2:36 PM,51.1,-,37,59,30.37,10,North,0,0,0,None,Mostly Cloudy
2017-11-28,1:51 PM,50,-,35.1,57,30.37,10,North,0,0,0,None,Clear
2017-03-07,2:51 AM,43,-,34,71,30.37,10,Calm,0,0,0,None,Overcast
2017-01-15,10:51 AM,34,-,19.9,56,30.37,10,Calm,0,0,0,None,Clear
2017-01-15,5:51 PM,37,-,19.9,50,30.37,10,Calm,0,0,0,None,Clear
2017-02-21,9:51 AM,39.9,-,19.9,45,30.37,10,Calm,0,0,0,None,Clear
2017-04-19,3:51 PM,48.9,-,39,69,30.37,10,Variable,5.8,19.6,0,None,Overcast
2017-02-27,5:51 PM,52,-,23,32,30.37,10,Variable,3.5,0,0,None,Scattered Clouds
2017-04-19,5:43 PM,48.9,-,41,74,30.37,10,Variable,6.9,0,0,None,Overcast
2017-03-07,4:51 AM,43,-,37,80,30.36,10,North,0,0,0,None,Overcast
2017-02-21,10:51 AM,45,-,21.9,40,30.36,10,North,0,0,0,None,Clear
2017-11-01,10:51 AM,52,-,34,50,30.36,10,Calm,0,0,0,None,Overcast
2017-03-13,4:51 PM,35.1,-,1.9,25,30.36,10,Calm,0,0,0,None,Clear
2017-11-13,1:51 AM,43,-,27,53,30.36,10,Calm,0,0,0,None,Clear
2017-02-27,1:51 PM,52,-,21,30,30.36,10,Variable,6.9,0,0,None,Partly Cloudy
2017-02-27,4:51 PM,53.1,-,21,29,30.36,10,West,8.1,0,0,None,Mostly Cloudy
2017-04-19,6:43 PM,48.9,-,41,74,30.35,10,North,0,0,0,None,Overcast
2017-11-28,4:00 PM,51.1,-,41,68,30.35,10,North,0,0,0,None,Mostly Cloudy
2017-01-15,11:51 AM,36,-,21,55,30.35,10,North,0,0,0,None,Clear
2017-03-13,8:51 PM,32,-,17.1,54,30.35,10,Calm,0,0,0,None,Overcast
2017-03-26,9:51 PM,39,-,37.9,96,30.35,4,Calm,0,0,0,None,Overcast
2017-11-13,3:51 AM,44.1,-,30,58,30.35,10,Calm,0,0,0,None,Overcast
2017-11-13,2:51 AM,43,-,27,53,30.35,10,Calm,0,0,0,None,Mostly Cloudy
2017-11-30,4:51 AM,39,-,25,57,30.35,10,Calm,0,0,0,None,Clear
2017-12-04,3:51 AM,41,-,39,93,30.35,3,Calm,0,0,0,None,Clear
2017-04-19,4:51 PM,48,-,39.9,74,30.35,10,South,9.2,18.4,0,None,Overcast
2017-11-28,2:51 PM,51.1,-,37.9,61,30.35,10,Variable,3.5,0,0,None,Scattered Clouds
2017-02-27,2:51 PM,53.1,-,19.9,27,30.35,10,SW,4.6,0,0,None,Mostly Cloudy
2017-10-17,9:51 AM,46.9,-,35.1,63,30.35,10,Variable,4.6,0,0,None,Clear
2017-11-04,8:51 AM,48,-,36,63,30.35,10,NE,5.8,0,0,None,Clear
2017-11-04,10:51 AM,52,-,33.1,49,30.35,10,Variable,5.8,0,0,None,Clear
2017-04-19,5:51 PM,48.9,-,41,74,30.35,10,SE,8.1,0,0,None,Overcast
2017-02-27,3:51 PM,53.1,-,19.9,27,30.35,10,SW,8.1,0,0,None,Overcast
2017-11-04,9:51 AM,48.9,-,32,52,30.35,10,ENE,9.2,0,0,None,Clear
2017-11-14,9:51 AM,42.1,-,33.1,70,30.34,10,North,0,0,0,None,Mostly Cloudy
2017-02-27,4:51 AM,36,-,17.1,46,30.34,10,North,0,0,0,None,Clear
2017-11-01,11:51 AM,54,-,35.1,49,30.34,10,Calm,0,0,0,None,Overcast
2017-11-04,11:48 PM,53.6,-,44.6,72,30.34,10,Calm,0,0,0,None,Overcast
2017-11-01,8:51 AM,48.9,-,34,56,30.34,10,Variable,4.6,0,0,None,Overcast
2017-11-01,9:51 AM,51.1,-,36,56,30.34,10,East,5.8,0,0,None,Overcast
2017-11-04,11:34 PM,53.1,-,44.1,71,30.34,10,Variable,5.8,0,0,None,Overcast
2017-10-17,10:51 AM,48.9,-,32,52,30.34,10,Variable,5.8,0,0,None,Clear
2017-11-04,11:51 AM,53.1,-,30.9,43,30.34,10,East,9.2,0,0,None,Clear
2017-03-07,8:51 AM,46.9,-,43,86,30.33,7,Variable,6.9,0,0,Rain,Light Rain
2017-04-19,7:37 PM,48,-,41,77,30.33,10,North,0,0,0,None,Overcast
2017-12-29,5:51 AM,12,-,-0.9,56,30.33,10,North,0,0,0,None,Overcast
2017-11-14,10:51 AM,44.1,-,34,68,30.33,10,North,0,0,0,None,Mostly Cloudy
2017-11-28,3:51 PM,51.1,-,41,68,30.33,10,Calm,0,0,0,None,Scattered Clouds
2017-11-01,7:51 AM,46.9,-,32,56,30.33,10,Calm,0,0,0,None,Overcast
2017-10-17,7:51 AM,43,-,34,71,30.33,10,Calm,0,0,0,None,Clear
2017-12-04,2:51 AM,42.1,-,39.9,92,30.33,4,Calm,0,0,0,None,Clear
2017-01-13,7:51 AM,46.9,-,36,66,30.33,10,Variable,3.5,0,0,None,Clear
2017-10-17,11:51 AM,52,-,30.9,45,30.33,10,Variable,3.5,0,0,None,Clear
2017-11-28,4:33 PM,50,-,42.1,74,30.33,10,Variable,4.6,0,0,None,Scattered Clouds
2017-01-11,10:51 AM,46.9,-,36,66,30.33,10,Variable,4.6,0,0,None,Clear
2017-11-04,12:51 PM,54,-,34,47,30.33,10,East,8.1,0,0,None,Clear
2017-03-13,9:51 PM,32,-,18,56,30.32,10,Calm,0,0,0,None,Overcast
2017-01-01,5:51 PM,45,-,16,31,30.32,10,Calm,0,0,0,None,Clear
2017-11-13,7:51 PM,41,-,34,76,30.32,10,Calm,0,0,0,None,Clear
2017-11-28,1:51 AM,39,-,23,53,30.32,10,Calm,0,0,0,None,Clear
2017-12-02,7:51 AM,39,-,30,70,30.32,10,Calm,0,0,0,None,Clear
2017-04-19,6:51 PM,48.9,-,41,74,30.32,10,SSE,3.5,0,0,None,Overcast
2017-11-04,6:51 PM,52,-,39,61,30.32,10,Variable,3.5,0,0,None,Clear
2017-11-04,8:51 PM,52,-,42.1,69,30.32,10,ENE,4.6,0,0,None,Clear
2017-04-19,8:01 PM,48,-,43,83,30.32,10,South,4.6,0,0,None,Overcast
2017-11-01,1:51 PM,54,-,39.9,59,30.32,10,WNW,4.6,0,0,None,Mostly Cloudy
2017-11-04,10:51 PM,53.1,-,44.1,71,30.32,10,Variable,5.8,0,0,None,Overcast
2017-11-04,11:51 PM,54,-,44.1,69,30.32,10,Variable,5.8,0,0,None,Overcast
2017-03-24,12:51 PM,46.9,-,21.9,37,30.32,10,West,8.1,0,0,None,Overcast
2017-03-25,7:51 PM,46.9,-,41,80,30.32,10,North,9.2,0,0.01,None,Overcast
2017-01-11,8:51 AM,43,-,36,76,30.31,10,North,0,0,0,None,Clear
2017-01-11,11:51 AM,48,-,37,66,30.31,10,North,0,0,0,None,Clear
2017-12-17,9:51 AM,34,-,21,59,30.31,10,Calm,0,0,0,None,Overcast
2017-11-01,6:51 AM,44.1,-,33.1,65,30.31,10,Calm,0,0,0,None,Mostly Cloudy
2017-11-04,5:51 PM,52,-,36,54,30.31,10,Calm,0,0,0,None,Clear
2017-12-02,6:51 AM,39,-,28.9,67,30.31,10,Calm,0,0,0,None,Clear
2017-11-04,2:51 PM,55,-,35.1,47,30.31,10,Variable,3.5,0,0,None,Clear
2017-11-28,4:51 PM,50,-,43,77,30.31,10,Variable,3.5,0,0,None,Clear
2017-11-01,2:51 PM,55.9,-,39,53,30.31,10,Variable,4.6,0,0,None,Overcast
2017-10-17,12:51 PM,54,-,28.9,38,30.31,10,West,4.6,0,0,None,Clear
2017-11-04,3:51 PM,55,-,35.1,47,30.31,10,ENE,5.8,0,0,None,Clear
2017-11-04,4:51 PM,54,-,35.1,49,30.31,10,ENE,5.8,0,0,None,Clear
2017-01-11,12:51 PM,50,-,37,61,30.31,10,SW,5.8,0,0,None,Clear
2017-11-04,1:51 PM,54,-,33.1,45,30.31,10,Variable,5.8,0,0,None,Clear
2017-11-04,7:51 PM,51.1,-,41,68,30.31,10,Variable,5.8,0,0,None,Clear
2017-11-04,6:51 AM,48,-,35.1,61,30.31,10,ENE,10.4,0,0,None,Clear
2017-04-19,7:51 PM,48,-,42.1,80,30.3,10,North,0,0,0,Rain,Light Rain
2017-03-07,9:51 AM,46.9,-,45,93,30.3,4,Calm,0,0,0.03,Rain,Light Rain
2017-11-01,10:07 PM,55.9,-,46.9,72,30.3,10,Calm,0,0,0,None,Overcast
2017-11-30,11:22 AM,45,-,28.9,53,30.3,10,Calm,0,0,0,None,Overcast
2017-01-01,4:51 PM,46,-,17.1,31,30.3,10,Calm,0,0,0,None,Clear
2017-11-13,11:51 PM,39,-,28.9,67,30.3,10,Calm,0,0,0,None,Clear
2017-11-14,1:51 AM,39,-,30,70,30.3,10,Calm,0,0,0,None,Clear
2017-11-29,9:51 PM,44.1,-,26.1,49,30.3,10,Calm,0,0,0,None,Clear
2017-12-02,3:51 AM,39.9,-,28.9,65,30.3,10,Calm,0,0,0,None,Clear
2017-12-04,12:51 AM,43,-,39,86,30.3,8,Calm,0,0,0,None,Clear
2017-12-04,1:51 AM,42.1,-,39,89,30.3,7,Calm,0,0,0,None,Clear
2017-11-01,3:51 PM,55,-,42.1,62,30.3,10,East,3.5,0,0,None,Overcast
2017-11-01,7:51 PM,55,-,39.9,57,30.3,10,SE,4.6,0,0,None,Mostly Cloudy
2017-11-14,3:11 PM,46.9,-,34,61,30.3,10,Variable,5.8,0,0,None,Overcast
2017-10-17,10:51 PM,54,-,37,53,30.3,10,Variable,5.8,0,0,None,Clear
2017-01-11,1:51 PM,50,-,37,61,30.3,10,West,5.8,0,0,None,Clear
2017-04-19,8:51 PM,48.9,-,43,80,30.29,10,North,0,0,0,None,Overcast
2017-02-27,1:51 AM,36,-,16,44,30.29,10,North,0,0,0,None,Clear
2017-10-17,9:51 PM,55,-,37,51,30.29,10,North,0,0,0,None,Clear
2017-11-01,5:51 PM,55.9,-,37.9,51,30.29,10,Calm,0,0,0,None,Overcast
2017-11-01,11:47 PM,59,-,51.8,77,30.29,10,Calm,0,0,0,None,Overcast
2017-01-11,2:51 PM,51.1,-,37,59,30.29,10,Calm,0,0,0,None,Clear
2017-11-01,5:51 AM,44.1,-,32,63,30.29,10,Calm,0,0,0,None,Clear
2017-12-03,10:51 PM,44.1,-,37.9,79,30.29,9,Calm,0,0,0,None,Clear
2017-12-22,2:51 AM,36,-,18,48,30.29,10,Calm,0,0,0,None,Clear
2017-11-01,4:51 PM,55.9,-,37.9,51,30.29,10,Variable,3.5,0,0,None,Overcast
2017-10-17,11:51 PM,53.1,-,37.9,57,30.29,10,West,3.5,0,0,None,Clear
2017-11-01,8:51 PM,55,-,42.1,62,30.29,10,SE,4.6,0,0,None,Clear
2017-11-01,9:51 PM,55.9,-,46,69,30.29,10,Variable,4.6,0,0,None,Overcast
2017-10-17,1:51 PM,55.9,-,28.9,36,30.29,10,Variable,4.6,0,0,None,Clear
2017-11-29,8:51 PM,46.9,-,26.1,44,30.29,10,Variable,4.6,0,0,None,Clear
2017-11-14,12:51 PM,46.9,-,34,61,30.29,10,Variable,5.8,0,0,None,Overcast
2017-11-04,4:51 AM,48,-,35.1,61,30.29,10,Variable,5.8,0,0,None,Clear
2017-11-01,6:51 PM,55.9,-,39,53,30.29,10,Variable,6.9,0,0,None,Overcast
2017-11-04,5:51 AM,48,-,36,63,30.29,10,Variable,6.9,0,0,None,Clear
2017-11-04,9:51 PM,53.1,-,44.1,71,30.29,10,East,8.1,0,0,None,Clear
2017-03-07,10:51 AM,46.9,-,45,93,30.28,5,Variable,5.8,0,0.05,Rain,Light Rain
2017-03-12,1:51 PM,27,-,3.9,37,30.28,10,North,0,0,0,None,Mostly Cloudy
2017-04-19,9:51 PM,48.9,-,44.1,83,30.28,10,Calm,0,0,0,None,Overcast
2017-12-17,11:51 AM,35.1,-,23,61,30.28,10,Calm,0,0,0,None,Overcast
2017-03-25,6:51 PM,50,-,39,66,30.28,10,ENE,3.5,0,0,None,Overcast
2017-11-14,1:51 PM,46.9,-,34,61,30.28,10,Variable,3.5,0,0,None,Overcast
2017-01-11,5:51 PM,46.9,-,39,74,30.28,10,Variable,3.5,0,0,None,Clear
2017-10-17,8:51 PM,54,-,39.9,59,30.28,10,Variable,3.5,0,0,None,Clear
2017-01-13,6:51 AM,48.9,-,39.9,71,30.28,10,Variable,6.9,0,0,None,Clear
2017-01-15,2:51 AM,32,-,27,82,30.27,9,North,0,0,0,None,Overcast
2017-11-13,4:51 PM,46,-,36,68,30.27,10,North,0,0,0,None,Overcast
2017-01-11,7:51 AM,43,-,37,80,30.27,10,North,0,0,0,None,Clear
2017-11-28,8:51 PM,52,-,42.1,69,30.27,10,North,0,0,0,None,Clear
2017-11-01,11:51 PM,59,-,51.1,75,30.27,10,Calm,0,0,0,None,Overcast
2017-11-01,1:51 AM,45,-,28.9,53,30.27,10,Calm,0,0,0,None,Clear
2017-11-01,3:51 AM,44.1,-,28.9,55,30.27,10,Calm,0,0,0,None,Clear
2017-11-01,4:51 AM,43,-,30.9,62,30.27,10,Calm,0,0,0,None,Clear
2017-12-17,6:51 PM,36,-,25,64,30.27,10,Calm,0,0,0,None,Clear
2017-12-17,7:51 PM,36,-,26.1,67,30.27,10,Calm,0,0,0,None,Clear
2017-12-21,11:51 PM,37,-,14,39,30.27,10,Calm,0,0,0,None,Clear
2017-01-11,6:51 PM,48,-,41,77,30.27,10,South,9.2,17.3,0,None,Clear
2017-11-01,10:51 PM,57,-,48.9,74,30.27,10,East,3.5,0,0,None,Overcast
2017-01-11,3:51 PM,51.1,-,36,56,30.27,10,South,3.5,0,0,None,Clear
2017-10-17,2:51 PM,57.9,-,28.9,33,30.27,10,Variable,3.5,0,0,None,Clear
2017-11-04,3:51 AM,48,-,34,58,30.27,10,Variable,3.5,0,0,None,Clear
2017-03-25,5:51 PM,48.9,-,39,69,30.27,10,NE,4.6,0,0,None,Overcast
2017-11-29,7:51 PM,48,-,26.1,42,30.27,10,Variable,4.6,0,0,None,Clear
2017-10-17,3:51 PM,57.9,-,33.1,39,30.27,10,West,4.6,0,0,None,Clear
2017-11-13,3:51 PM,46.9,-,36,66,30.27,10,NE,5.8,0,0,None,Overcast
2017-01-11,4:51 PM,50,-,37.9,63,30.27,10,South,5.8,0,0,None,Clear
2017-01-13,6:00 AM,51.1,-,43,74,30.27,10,Variable,5.8,0,0,None,Scattered Clouds
2017-11-28,7:51 PM,53.1,-,42.1,66,30.27,10,Variable,5.8,0,0,None,Clear
2017-11-13,2:51 PM,46.9,-,37,68,30.27,10,Variable,6.9,0,0,None,Overcast
2017-03-07,12:11 PM,48.9,-,46,90,30.27,6,SSE,8.1,0,0,None,Overcast
2017-01-11,6:39 AM,44.1,-,37.9,79,30.26,10,North,0,0,0,None,Scattered Clouds
2017-12-17,3:51 AM,33.1,-,19.9,59,30.26,10,Calm,0,0,0,None,Overcast
2017-11-30,11:51 AM,45,-,28.9,53,30.26,10,Calm,0,0,0,None,Mostly Cloudy
2017-12-17,12:51 PM,37,-,23,57,30.26,10,Calm,0,0,0,None,Mostly Cloudy
2017-11-29,6:51 PM,50,-,26.1,39,30.26,10,Calm,0,0,0,None,Clear
2017-03-25,4:51 PM,52,-,39,61,30.26,10,NE,10.4,18.4,0,None,Scattered Clouds
2017-02-20,5:51 PM,48.9,-,10.9,22,30.26,10,NE,15,23,0,None,Clear
2017-12-02,11:51 AM,46.9,-,28.9,50,30.26,10,East,3.5,0,0,None,Clear
2017-11-08,4:42 PM,46.9,-,37,68,30.26,10,North,3.5,0,0,None,Overcast
2017-11-08,6:51 PM,46.9,-,37,68,30.26,10,ENE,4.6,0,0,None,Overcast
2017-10-17,6:51 PM,55.9,-,35.1,45,30.26,10,Variable,5.8,0,0,None,Clear
2017-01-11,9:51 PM,48,-,43,83,30.25,5,North,0,0,0.03,Rain,Rain
2017-03-07,11:51 AM,48,-,46,93,30.25,5,SSE,8.1,0,0.02,Rain,Light Rain
2017-11-04,1:51 AM,50,-,34,54,30.25,10,North,0,0,0,None,Clear
2017-11-28,9:51 PM,52,-,42.1,69,30.25,10,North,0,0,0,None,Clear
2017-04-19,10:51 PM,50,-,43,77,30.25,10,Calm,0,0,0,None,Overcast
2017-11-08,6:51 AM,39.9,-,33.1,77,30.25,10,Calm,0,0,0,None,Overcast
2017-12-17,2:51 AM,33.1,-,19.9,59,30.25,10,Calm,0,0,0,None,Overcast
2017-12-22,10:51 AM,39,-,24.1,55,30.25,10,Calm,0,0,0,None,Overcast
2017-01-17,9:08 AM,42.1,-,28,58,30.25,6,Calm,0,0,0,None,Haze
2017-08-10,8:51 AM,75,-,61,62,30.25,10,Calm,0,0,0,None,Clear
2017-10-17,4:51 PM,57.9,-,32,37,30.25,10,Calm,0,0,0,None,Clear
2017-01-11,8:51 PM,50,-,39.9,68,30.25,10,Variable,3.5,0,0,None,Overcast
2017-11-08,2:41 PM,48,-,37,66,30.25,10,Variable,3.5,0,0,None,Overcast
2017-11-08,5:51 PM,46.9,-,37,68,30.25,10,Variable,3.5,0,0,None,Overcast
2017-10-17,5:51 PM,55.9,-,33.1,42,30.25,10,Variable,3.5,0,0,None,Clear
2017-11-04,2:51 AM,48.9,-,35.1,59,30.25,10,Variable,3.5,0,0,None,Clear
2017-11-08,11:51 AM,46.9,-,36,66,30.25,10,Variable,4.6,0,0,None,Mostly Cloudy
2017-01-01,3:51 PM,46.9,-,18,32,30.25,10,West,5.8,0,0,None,Clear
2017-01-17,10:17 AM,39.9,-,33.1,77,30.24,5,Calm,0,0,0.02,Rain,Light Rain
2017-12-02,11:51 PM,44.1,-,34,68,30.24,10,Calm,0,0,0,None,Scattered Clouds
2017-12-02,10:51 PM,45,-,34,65,30.24,10,Calm,0,0,0,None,Partly Cloudy
2017-01-17,8:03 AM,41,-,28,60,30.24,7,Calm,0,0,0,None,Overcast
2017-11-08,3:51 PM,48,-,37.9,68,30.24,10,Calm,0,0,0,None,Overcast
2017-11-09,6:51 AM,42.1,-,37,82,30.24,10,Calm,0,0,0,None,Mostly Cloudy
2017-12-03,6:51 PM,45,-,39,80,30.24,10,Calm,0,0,0,None,Mostly Cloudy
2017-02-03,9:51 AM,27,-,9,47,30.24,10,Calm,0,0,0,None,Clear
2017-08-10,7:51 AM,72,-,62.1,71,30.24,10,Calm,0,0,0,None,Clear
2017-08-10,9:51 AM,78.1,-,60.1,54,30.24,10,Calm,0,0,0,None,Clear
2017-12-02,3:51 PM,46.9,-,30,52,30.24,10,Calm,0,0,0,None,Clear
2017-12-17,1:51 PM,36,-,23,59,30.24,10,Calm,0,0,0,None,Clear
2017-11-04,12:51 AM,51.1,-,35.1,54,30.24,10,NNW,9.2,17.3,0,None,Clear
2017-01-13,5:23 AM,55,-,46.9,74,30.24,10,NW,10.4,17.3,0,None,Mostly Cloudy
2017-12-03,5:42 PM,46.9,-,39.9,77,30.24,10,ENE,3.5,0,0,None,Overcast
2017-03-07,1:02 PM,50,-,46,86,30.24,7,Variable,3.5,0,0,None,Overcast
2017-12-02,12:51 PM,46.9,-,28.9,50,30.24,10,Variable,3.5,0,0,None,Clear
2017-11-08,4:51 PM,48,-,37,66,30.24,10,NNE,4.6,0,0,None,Overcast
2017-12-01,5:51 PM,46.9,-,30,52,30.24,10,Variable,4.6,0,0,None,Clear
2017-01-11,7:51 PM,48,-,41,77,30.24,10,Variable,5.8,0,0,None,Overcast
2017-01-13,5:51 AM,52,-,43,71,30.24,10,NW,8.1,0,0,None,Mostly Cloudy
2017-01-11,1:46 AM,42.8,-,39.2,87,30.23,4,North,0,0,0.02,Rain,Rain
2017-02-21,3:51 PM,44.1,-,30,58,30.23,10,North,0,0,0,None,Clear
2017-01-17,8:51 AM,42.1,-,28,58,30.23,7,Calm,0,0,0,None,Overcast
2017-12-03,5:14 PM,46.9,-,39.9,77,30.23,10,Calm,0,0,0,None,Overcast
2017-12-03,5:51 PM,46.9,-,39.9,77,30.23,10,Calm,0,0,0,None,Overcast
2017-03-18,12:51 AM,37.9,-,16,41,30.23,10,Calm,0,0,0,None,Clear
2017-08-09,9:51 PM,75,-,59,57,30.23,10,Calm,0,0,0,None,Clear
2017-08-10,6:51 AM,69.1,-,62.1,78,30.23,9,Calm,0,0,0,None,Clear
2017-12-02,9:51 PM,44.1,-,33.1,65,30.23,10,Calm,0,0,0,None,Clear
2017-11-28,10:51 PM,52,-,43,71,30.23,10,WSW,9.2,19.6,0,None,Clear
2017-11-08,1:51 PM,48,-,37,66,30.23,10,Variable,3.5,0,0,None,Mostly Cloudy
2017-08-09,11:51 PM,73,-,60.1,64,30.23,10,Variable,3.5,0,0,None,Clear
2017-12-02,2:51 PM,46.9,-,30,52,30.23,10,Variable,3.5,0,0,None,Clear
2017-08-10,12:51 AM,72,-,60.1,66,30.23,10,WSW,3.5,0,0,None,Clear
2017-11-08,2:51 PM,48,-,37.9,68,30.23,10,Variable,4.6,0,0,None,Overcast
2017-12-03,9:51 AM,46.9,-,37,68,30.23,10,Variable,4.6,0,0,None,Overcast
2017-08-09,10:51 PM,73.9,-,59,59,30.23,10,Variable,4.6,0,0,None,Clear
2017-11-08,12:51 PM,48,-,37,66,30.23,10,NNE,5.8,0,0,None,Mostly Cloudy
2017-12-02,1:51 PM,48,-,28.9,48,30.23,10,SSE,5.8,0,0,None,Clear
2017-11-15,11:51 AM,46.9,-,34,61,30.23,10,Variable,5.8,0,0,None,Partly Cloudy
2017-03-25,3:51 PM,54,-,41,62,30.23,9,Variable,5.8,0,0,None,Mostly Cloudy
2017-01-17,11:07 AM,39.9,-,36,86,30.22,3,Calm,0,0,0.01,Rain,Light Rain
2017-01-17,7:51 AM,39.9,-,28,63,30.22,7,Calm,0,0,0,None,Overcast
2017-04-19,11:51 PM,50,-,44.1,80,30.22,10,Calm,0,0,0,None,Overcast
2017-08-10,12:51 PM,79,-,61,54,30.22,8,Calm,0,0,0,None,Overcast
2017-12-03,8:51 AM,46,-,37.9,73,30.22,10,Calm,0,0,0,None,Overcast
2017-01-17,6:51 AM,39.9,-,28,63,30.22,9,Calm,0,0,0,None,Mostly Cloudy
2017-03-18,1:51 AM,37.9,-,16,41,30.22,10,Calm,0,0,0,None,Clear
2017-03-18,2:51 AM,36,-,16,44,30.22,10,Calm,0,0,0,None,Clear
2017-08-10,4:51 AM,70,-,60.1,71,30.22,10,Calm,0,0,0,None,Clear
2017-11-29,5:51 PM,52,-,25,35,30.22,10,Calm,0,0,0,None,Clear
2017-12-21,9:51 AM,34,-,18,52,30.22,10,Calm,0,0,0,None,Clear
2017-11-30,12:51 PM,46.9,-,30,52,30.22,10,NE,3.5,0,0,None,Partly Cloudy
2017-03-07,12:51 PM,48.9,-,46,90,30.22,7,Variable,3.5,0,0,None,Overcast
2017-03-30,11:51 AM,46.9,-,23,39,30.22,10,Variable,3.5,0,0,None,Clear
2017-08-10,1:51 AM,72,-,59,64,30.22,10,Variable,3.5,0,0,None,Clear
2017-08-10,2:51 AM,71.1,-,60.1,68,30.22,10,Variable,3.5,0,0,None,Clear
2017-10-17,12:51 AM,46.9,-,28.9,50,30.22,10,Variable,3.5,0,0,None,Clear
2017-08-10,3:51 AM,71.1,-,60.1,68,30.22,10,West,3.5,0,0,None,Clear
2017-08-10,5:51 AM,69.1,-,61,75,30.22,10,West,3.5,0,0,None,Clear
2017-08-10,11:51 AM,78.1,-,61,56,30.22,9,WSW,3.5,0,0,None,Overcast
2017-01-01,2:51 PM,46.9,-,18,32,30.22,10,Variable,4.6,0,0,None,Clear
2017-12-01,4:51 PM,48,-,28.9,48,30.22,10,Variable,4.6,0,0,None,Clear
2017-11-07,9:51 AM,48,-,33.1,56,30.22,10,North,9.2,0,0,None,Clear
2017-01-17,10:51 AM,39.9,-,36,86,30.21,4,Calm,0,0,0.02,Rain,Light Rain
2017-02-03,4:51 AM,27,-,8.1,45,30.21,10,North,0,0,0,None,Clear
2017-02-21,4:51 PM,43,-,30.9,62,30.21,10,North,0,0,0,None,Clear
2017-08-09,10:51 AM,75.9,-,54,46,30.21,10,North,0,0,0,None,Clear
2017-12-31,6:51 AM,15.1,-,-0.9,49,30.21,10,North,0,0,0,None,Clear
2017-07-05,9:51 PM,72,-,57,59,30.21,10,Calm,0,0,0,None,Partly Cloudy
2017-12-03,5:51 AM,44.1,-,36,73,30.21,10,Calm,0,0,0,None,Overcast
2017-12-03,7:51 AM,45,-,36,71,30.21,10,Calm,0,0,0,None,Overcast
2017-12-17,10:51 PM,36,-,25,64,30.21,10,Calm,0,0,0,None,Overcast
2017-12-22,11:51 AM,41,-,27,57,30.21,10,Calm,0,0,0,None,Overcast
2017-12-22,12:17 PM,42.1,-,28,58,30.21,10,Calm,0,0,0,None,Overcast
2017-08-09,11:51 AM,79,-,57,47,30.21,10,Calm,0,0,0,None,Clear
2017-08-09,8:51 PM,75,-,57,53,30.21,10,Calm,0,0,0,None,Clear
2017-12-21,10:51 AM,36,-,18,48,30.21,10,Calm,0,0,0,None,Clear
2017-03-24,2:51 PM,48,-,27,44,30.21,10,WSW,9.2,17.3,0,None,Overcast
2017-03-29,9:51 PM,46.9,-,23,39,30.21,10,NE,15,20.7,0,None,Clear
2017-03-30,12:51 PM,48.9,-,23,36,30.21,10,East,3.5,0,0,None,Clear
2017-12-03,12:16 PM,48,-,37,66,30.21,10,NE,3.5,0,0,None,Overcast
2017-12-03,4:51 PM,46.9,-,39.9,77,30.21,10,ENE,4.6,0,0,None,Overcast
2017-07-05,10:51 PM,73,-,57.9,59,30.21,10,Variable,4.6,0,0,None,Overcast
2017-12-03,10:51 AM,46.9,-,37.9,71,30.21,10,Variable,4.6,0,0,None,Overcast
2017-08-09,9:51 AM,73,-,54,51,30.21,10,WNW,4.6,0,0,None,Clear
2017-11-07,10:51 AM,48.9,-,34,56,30.21,10,Variable,5.8,0,0,None,Overcast
2017-11-07,12:38 PM,48,-,33.1,56,30.21,10,Variable,6.9,0,0,None,Overcast
2017-02-20,4:51 PM,52,-,10,19,30.21,10,NNW,9.2,0,0,None,Clear
2017-01-17,11:33 AM,39.9,-,37,89,30.2,2,Calm,0,0,0.02,Rain,Light Rain
2017-02-20,10:51 AM,50,-,26.1,39,30.2,10,North,0,0,0,None,Clear
2017-11-15,12:51 PM,46.9,-,34,61,30.2,10,Calm,0,0,0,None,Overcast
2017-12-03,4:51 AM,44.1,-,36,73,30.2,10,Calm,0,0,0,None,Overcast
2017-12-03,6:51 AM,45,-,36,71,30.2,10,Calm,0,0,0,None,Overcast
2017-03-18,3:51 AM,37,-,17.1,44,30.2,10,Calm,0,0,0,None,Clear
2017-08-09,8:51 AM,72,-,55.9,57,30.2,10,Calm,0,0,0,None,Clear
2017-08-09,7:51 PM,75.9,-,57.9,54,30.2,10,Calm,0,0,0,None,Clear
2017-08-21,8:51 AM,75.9,-,63,64,30.2,10,Calm,0,0,0,None,Clear
2017-12-01,3:51 PM,48.9,-,28.9,46,30.2,10,Variable,5.8,16.1,0,None,Clear
2017-12-03,11:51 AM,48,-,37,66,30.2,10,Variable,3.5,0,0,None,Overcast
2017-09-17,9:18 AM,73,-,66.9,81,30.2,3,Variable,3.5,0,0,None,Haze
2017-11-09,9:51 AM,48,-,37,66,30.2,4,Variable,3.5,0,0,None,Haze
2017-08-21,7:51 AM,73.9,-,63,68,30.2,10,Variable,3.5,0,0,None,Clear
2017-07-05,8:51 AM,73.9,-,60.1,62,30.2,10,ENE,4.6,0,0,None,Clear
2017-11-07,11:51 AM,48,-,34,58,30.2,10,Variable,4.6,0,0,None,Overcast
2017-01-11,2:48 AM,44.6,-,41,87,30.19,3,North,0,0,0.12,Rain,Rain
2017-01-11,11:59 PM,46.9,-,45,93,30.19,3,South,8.1,0,0.01,Rain,Light Rain
2017-01-10,11:51 PM,45,-,39,80,30.19,10,North,0,0,0,None,Overcast
2017-02-02,10:51 PM,33.1,-,17.1,52,30.19,10,North,0,0,0,None,Clear
2017-09-17,6:43 AM,70,-,66.9,90,30.19,2.5,Calm,0,0,0,None,Overcast
2017-09-17,7:09 AM,70,-,66.9,90,30.19,2,Calm,0,0,0,None,Overcast
2017-12-03,2:51 PM,46.9,-,39,74,30.19,9,Calm,0,0,0,None,Overcast
2017-08-09,7:51 AM,69.1,-,55.9,63,30.19,10,Calm,0,0,0,None,Clear
2017-08-10,6:51 PM,75,-,61,62,30.19,10,Calm,0,0,0,None,Clear
2017-08-21,5:51 AM,72,-,63,73,30.19,10,Calm,0,0,0,None,Clear
2017-01-13,4:51 AM,55.9,-,48,75,30.19,10,West,10.4,17.3,0,None,Clear
2017-10-05,12:51 AM,66,-,57,73,30.19,10,Variable,6.9,19.6,0,None,Partly Cloudy
2017-12-03,3:51 PM,46.9,-,39.9,77,30.19,10,ENE,3.5,0,0,None,Overcast
2017-09-17,7:32 AM,71.1,-,68,90,30.19,2,NE,3.5,0,0,None,Overcast
2017-03-07,1:51 PM,51.1,-,46,83,30.19,8,SSE,3.5,0,0,None,Overcast
2017-07-05,11:51 PM,73,-,57.9,59,30.19,10,Variable,3.5,0,0,None,Overcast
2017-09-16,11:11 AM,75,-,68,79,30.19,5,Variable,3.5,0,0,None,Haze
2017-03-30,1:51 PM,50,-,21.9,33,30.19,10,Variable,3.5,0,0,None,Clear
2017-07-05,8:51 PM,73.9,-,52,46,30.19,10,Variable,3.5,0,0,None,Clear
2017-08-21,9:51 AM,79,-,64,60,30.19,9,Variable,3.5,0,0,None,Clear
2017-08-21,6:51 AM,73,-,62.1,68,30.19,10,West,3.5,0,0,None,Clear
2017-09-17,10:39 AM,75,-,66.9,76,30.19,4,ENE,4.6,0,0,None,Haze
2017-09-16,11:20 AM,77,-,68,74,30.19,4,Variable,4.6,0,0,None,Haze
2017-01-01,1:51 PM,46.9,-,19.9,34,30.19,10,Variable,4.6,0,0,None,Clear
2017-03-30,2:51 PM,50,-,21.9,33,30.19,10,WSW,4.6,0,0,None,Scattered Clouds
2017-11-28,11:51 PM,51.1,-,43,74,30.19,10,WSW,4.6,0,0,None,Clear
2017-02-20,3:51 PM,53.1,-,10,18,30.19,10,Variable,5.8,0,0,None,Clear
2017-07-05,7:51 AM,73.9,-,57,55,30.19,10,Variable,5.8,0,0,None,Clear
2017-09-16,11:33 AM,78.1,-,68,71,30.19,5,Variable,6.9,0,0,None,Haze
2017-07-05,9:51 AM,77,-,61,58,30.19,10,NE,8.1,0,0,None,Mostly Cloudy
2017-11-07,12:51 PM,46.9,-,33.1,59,30.19,10,North,8.1,0,0,None,Overcast
2017-02-20,9:51 AM,46.9,-,30,52,30.19,10,NW,9.2,0,0,None,Clear
2017-02-20,11:51 AM,51.1,-,25,36,30.19,10,West,9.2,0,0,None,Clear
2017-03-11,7:51 AM,19,-,3.9,52,30.18,10,North,0,0,0,None,Overcast
2017-12-01,9:51 AM,48,-,33.1,56,30.18,10,North,0,0,0,None,Clear
2017-09-17,6:33 AM,70,-,66.9,90,30.18,3,Calm,0,0,0,None,Overcast
2017-12-03,1:51 PM,48,-,37,66,30.18,10,Calm,0,0,0,None,Overcast
2017-09-17,8:51 AM,72,-,66.9,84,30.18,2.5,Calm,0,0,0,None,Haze
2017-08-09,6:51 AM,66,-,57,73,30.18,10,Calm,0,0,0,None,Clear
2017-08-10,8:51 PM,73,-,57,57,30.18,10,Calm,0,0,0,None,Clear
2017-11-09,10:51 AM,50,-,36,59,30.18,10,Calm,0,0,0,None,Clear
2017-12-21,12:51 PM,37,-,16,42,30.18,10,Calm,0,0,0,None,Clear
2017-10-05,1:51 AM,66,-,55.9,70,30.18,10,Variable,6.9,20.7,0,None,Partly Cloudy
2017-12-03,12:51 PM,48,-,37,66,30.18,10,SE,3.5,0,0,None,Overcast
2017-08-09,6:51 PM,78.1,-,59,52,30.18,10,Variable,3.5,0,0,None,Mostly Cloudy
2017-11-15,1:51 PM,48,-,34,58,30.18,10,Variable,3.5,0,0,None,Mostly Cloudy
2017-07-05,5:51 PM,78.1,-,55,45,30.18,10,Variable,3.5,0,0,None,Clear
2017-09-16,11:40 PM,71.1,-,66.9,87,30.18,6,WNW,3.5,0,0,None,Mostly Cloudy
2017-08-11,12:51 AM,71.1,-,57,61,30.18,10,WSW,3.5,0,0,None,Clear
2017-09-16,8:00 AM,71.1,-,68,90,30.18,2,ENE,4.6,0,0,None,Overcast
2017-09-17,11:07 AM,75,-,66,73,30.18,5,ENE,4.6,0,0,None,Haze
2017-07-05,7:51 PM,75,-,54,48,30.18,10,South,4.6,0,0,None,Clear
2017-08-10,9:51 PM,73,-,55.9,55,30.18,10,South,4.6,0,0,None,Clear
2017-11-30,1:51 PM,48,-,32,54,30.18,10,Variable,4.6,0,0,None,Partly Cloudy
2017-08-10,7:51 PM,73.9,-,59,59,30.18,10,Variable,4.6,0,0,None,Clear
2017-03-25,1:51 PM,60.1,-,39,46,30.18,9,ENE,5.8,0,0,None,Partly Cloudy
2017-07-05,6:51 PM,77,-,52,42,30.18,10,Variable,5.8,0,0,None,Clear
2017-12-01,10:51 AM,50,-,30.9,48,30.18,10,North,6.9,0,0,None,Clear
2017-07-05,4:51 PM,79,-,57,47,30.18,10,Variable,6.9,0,0,None,Clear
2017-09-16,12:16 PM,79,-,68,69,30.18,5,ENE,8.1,0,0,None,Haze
2017-02-20,12:51 PM,52,-,21.9,31,30.18,10,West,8.1,0,0,None,Clear
2017-03-25,2:51 PM,57.9,-,41,53,30.18,10,ESE,9.2,0,0,None,Partly Cloudy
2017-03-24,3:51 PM,51.1,-,28.9,43,30.17,10,North,0,0,0,None,Partly Cloudy
2017-01-01,11:51 AM,46,-,23,40,30.17,10,North,0,0,0,None,Clear
2017-01-01,12:51 PM,46.9,-,21.9,37,30.17,10,North,0,0,0,None,Clear
2017-02-20,1:51 PM,54,-,16,22,30.17,10,North,0,0,0,None,Clear
2017-02-21,9:51 PM,43,-,32,65,30.17,10,North,0,0,0,None,Clear
2017-03-17,6:51 PM,44.1,-,10,25,30.17,10,North,0,0,0,None,Clear
2017-08-09,5:51 PM,79,-,60.1,52,30.17,10,North,0,0,0,None,Clear
2017-09-17,12:18 AM,71.1,-,66.9,87,30.17,5,Calm,0,0,0,None,Scattered Clouds
2017-09-17,5:32 AM,70,-,68,93,30.17,3,Calm,0,0,0,None,Overcast
2017-09-17,7:51 AM,71.1,-,66.9,87,30.17,2.5,Calm,0,0,0,None,Overcast
2017-12-22,10:11 PM,41,-,37,86,30.17,9,Calm,0,0,0,None,Overcast
2017-03-25,11:51 AM,57.9,-,37.9,47,30.17,8,Calm,0,0,0,None,Clear
2017-04-09,9:51 AM,52,-,23,32,30.17,10,Calm,0,0,0,None,Clear
2017-04-09,10:51 AM,55.9,-,21,26,30.17,10,Calm,0,0,0,None,Clear
2017-08-10,10:51 PM,72,-,57,59,30.17,10,Calm,0,0,0,None,Clear
2017-08-10,11:51 PM,71.1,-,57,61,30.17,10,Calm,0,0,0,None,Clear
2017-08-11,1:51 AM,71.1,-,59,66,30.17,10,Calm,0,0,0,None,Clear
2017-08-11,2:51 AM,72,-,55,55,30.17,10,Calm,0,0,0,None,Clear
2017-08-21,1:51 AM,73.9,-,60.1,62,30.17,10,Calm,0,0,0,None,Clear
2017-08-21,4:51 AM,73,-,62.1,68,30.17,10,Calm,0,0,0,None,Clear
2017-12-24,7:51 AM,37.9,-,27,65,30.17,10,Calm,0,0,0,None,Clear
2017-02-20,2:51 PM,54,-,12.9,20,30.17,10,Variable,3.5,17.3,0,None,Clear
2017-12-01,1:51 PM,51.1,-,30,44,30.17,10,North,9.2,18.4,0,None,Clear
2017-11-29,4:51 PM,55,-,24.1,30,30.17,10,NW,10.4,19.6,0,None,Clear
2017-11-15,2:51 PM,48,-,34,58,30.17,10,East,3.5,0,0,None,Overcast
2017-09-17,12:18 PM,77,-,64.9,66,30.17,5,ENE,3.5,0,0,None,Haze
2017-09-17,1:06 PM,78.1,-,66,66,30.17,6,NNE,3.5,0,0,None,Haze
2017-03-07,2:51 PM,51.1,-,45,80,30.17,9,South,3.5,0,0,None,Overcast
2017-09-17,1:41 PM,78.1,-,66,66,30.17,6,Variable,3.5,0,0,None,Haze
2017-08-11,6:51 AM,70,-,57,63,30.17,10,Variable,3.5,0,0,None,Clear
2017-09-17,9:51 AM,73.9,-,66.9,79,30.17,3,East,4.6,0,0,None,Haze
2017-09-17,10:51 AM,75,-,66,73,30.17,4,East,4.6,0,0,None,Haze
2017-11-15,3:51 PM,48,-,35.1,61,30.17,10,Variable,4.6,0,0,None,Overcast
2017-12-01,12:51 PM,51.1,-,30,44,30.17,10,Variable,4.6,0,0,None,Clear
2017-08-11,7:51 AM,71.1,-,57.9,63,30.17,10,WSW,4.6,0,0,None,Clear
2017-03-25,12:51 PM,61,-,37.9,42,30.17,9,ENE,5.8,0,0,None,Clear
2017-11-07,2:51 PM,46.9,-,33.1,59,30.17,10,NE,5.8,0,0,None,Overcast
2017-03-29,8:51 PM,50,-,23,35,30.17,10,NNW,5.8,0,0,None,Clear
2017-08-10,5:51 PM,78.1,-,61,56,30.17,10,South,5.8,0,0,None,Clear
2017-04-09,11:51 AM,59,-,23,25,30.17,10,Variable,5.8,0,0,None,Clear
2017-09-16,10:51 AM,75,-,66.9,76,30.17,5,Variable,6.9,0,0,None,Haze
2017-12-01,11:51 AM,51.1,-,30,44,30.17,10,North,9.2,0,0,None,Partly Cloudy
2017-12-01,2:51 PM,50,-,30.9,48,30.17,10,NW,9.2,0,0,None,Clear
2017-03-25,9:51 AM,57,-,39,51,30.16,10,Calm,0,0,0,None,Scattered Clouds
2017-09-16,6:35 AM,70,-,68,93,30.16,2.5,Calm,0,0,0,None,Scattered Clouds
2017-09-17,3:39 AM,69.1,-,66.9,93,30.16,2.5,Calm,0,0,0,None,Scattered Clouds
2017-03-25,8:51 AM,55,-,37.9,53,30.16,10,Calm,0,0,0,None,Partly Cloudy
2017-09-17,3:28 AM,69.1,-,66.9,93,30.16,3,Calm,0,0,0,None,Partly Cloudy
2017-09-17,4:22 AM,69.1,-,66.9,93,30.16,3,Calm,0,0,0,None,Overcast
2017-09-17,4:33 AM,69.1,-,66.9,93,30.16,2.5,Calm,0,0,0,None,Overcast
2017-09-17,4:59 AM,69.1,-,66.9,93,30.16,3,Calm,0,0,0,None,Overcast
2017-09-17,5:08 AM,69.1,-,66.9,93,30.16,3,Calm,0,0,0,None,Overcast
2017-09-17,6:51 AM,70,-,66.9,90,30.16,2,Calm,0,0,0,None,Overcast
2017-11-15,4:51 PM,46.9,-,34,61,30.16,10,Calm,0,0,0,None,Overcast
2017-12-22,12:51 PM,43,-,28.9,58,30.16,10,Calm,0,0,0,None,Overcast
2017-03-07,3:51 PM,51.1,-,46,83,30.16,8,Calm,0,0,0,None,Mostly Cloudy
2017-03-30,3:51 PM,51.1,-,21.9,32,30.16,10,Calm,0,0,0,None,Mostly Cloudy
2017-09-17,3:49 AM,69.8,-,66.2,88,30.16,2.5,Calm,0,0,0,None,Mostly Cloudy
2017-09-17,10:25 PM,69.1,-,64.9,87,30.16,7,Calm,0,0,0,None,Mostly Cloudy
2017-09-17,10:49 PM,69.8,-,64.4,83,30.16,6,Calm,0,0,0,None,Mostly Cloudy
2017-10-07,8:59 AM,70,-,66,87,30.16,4,Calm,0,0,0,None,Mostly Cloudy
2017-08-03,9:17 AM,73.9,-,66.9,79,30.16,5,Calm,0,0,0,None,Haze
2017-04-09,9:51 PM,55,-,36,49,30.16,10,Calm,0,0,0,None,Clear
2017-08-09,5:51 AM,64.9,-,57,75,30.16,10,Calm,0,0,0,None,Clear
2017-08-20,11:51 PM,75,-,59,57,30.16,10,Calm,0,0,0,None,Clear
2017-08-21,12:51 AM,75,-,60.1,60,30.16,10,Calm,0,0,0,None,Clear
2017-08-21,3:51 AM,73,-,61,66,30.16,10,Calm,0,0,0,None,Clear
2017-12-24,6:51 AM,37.9,-,27,65,30.16,10,Calm,0,0,0,None,Clear
2017-03-24,9:51 PM,54,-,32,43,30.16,10,Variable,4.6,18.4,0,None,Clear
2017-10-05,2:51 AM,66,-,55.9,70,30.16,10,Variable,6.9,19.6,0,None,Overcast
2017-04-09,11:51 PM,57.9,-,28,32,30.16,10,WSW,12.7,23,0,None,Clear
2017-09-16,7:00 AM,70,-,68,93,30.16,1.2,ENE,3.5,0,0,None,Mostly Cloudy
2017-09-16,9:51 AM,73.9,-,68,82,30.16,4,ENE,3.5,0,0,None,Haze
2017-04-09,10:51 PM,55.9,-,33.1,42,30.16,10,Variable,3.5,0,0,None,Clear
2017-08-11,3:51 AM,72,-,55.9,57,30.16,10,Variable,3.5,0,0,None,Clear
2017-08-21,2:51 AM,73.9,-,60.1,62,30.16,10,West,3.5,0,0,None,Clear
2017-08-11,5:51 AM,70,-,55,59,30.16,10,WSW,3.5,0,0,None,Clear
2017-10-07,9:14 AM,71.1,-,66,84,30.16,4,East,4.6,0,0,None,Haze
2017-09-16,8:51 AM,72,-,68,87,30.16,3,Variable,4.6,0,0,None,Overcast
2017-06-29,6:51 AM,68,-,57.9,70,30.16,10,Variable,4.6,0,0,None,Clear
2017-06-29,7:51 AM,70,-,57.9,65,30.16,10,Variable,4.6,0,0,None,Clear
2017-07-05,6:51 AM,71.1,-,57,61,30.16,10,Variable,5.8,0,0,None,Clear
2017-09-16,11:51 AM,78.1,-,68,71,30.16,5,ENE,6.9,0,0,None,Haze
2017-04-09,12:51 PM,62.1,-,26.1,25,30.16,10,WSW,8.1,0,0,None,Clear
2017-03-31,4:01 AM,39,-,37,93,30.15,4,Calm,0,0,0.02,Rain,Rain
2017-11-15,5:51 PM,48,-,34,58,30.15,10,North,0,0,0,None,Overcast
2017-02-06,9:51 AM,37.9,-,16,41,30.15,10,North,0,0,0,None,Clear
2017-08-11,10:51 AM,78.1,-,63,60,30.15,10,Calm,0,0,0,None,Scattered Clouds
2017-08-03,7:12 AM,71.1,-,66.9,87,30.15,5,Calm,0,0,0,None,Overcast
2017-08-03,7:32 AM,71.1,-,66.9,87,30.15,4,Calm,0,0,0,None,Overcast
2017-09-17,5:51 AM,70,-,68,93,30.15,3,Calm,0,0,0,None,Overcast
2017-04-09,8:51 PM,54,-,36,51,30.15,10,Calm,0,0,0,None,Clear
2017-08-11,4:51 AM,70,-,55,59,30.15,10,Calm,0,0,0,None,Clear
2017-11-29,1:51 AM,51.1,-,44.1,77,30.15,10,Variable,5.8,19.6,0,None,Clear
2017-06-29,8:51 AM,71.1,-,59,66,30.15,10,WSW,10.4,21.9,0,None,Clear
2017-10-07,8:08 AM,68,-,66,93,30.15,3,East,3.5,0,0,None,Mostly Cloudy
2017-10-05,7:51 AM,64.9,-,57,75,30.15,10,Variable,3.5,0,0,None,Overcast
2017-11-30,2:51 PM,48,-,34,58,30.15,10,Variable,3.5,0,0,None,Mostly Cloudy
2017-06-29,3:51 AM,69.1,-,55,61,30.15,10,Variable,3.5,0,0,None,Clear
2017-10-05,8:51 AM,66.9,-,57,70,30.15,9,Variable,3.5,0,0,None,Clear
2017-08-11,8:51 AM,73.9,-,61,64,30.15,10,WSW,3.5,0,0,None,Clear
2017-09-17,11:51 AM,75.9,-,66,71,30.15,5,ENE,4.6,0,0,None,Haze
2017-06-29,4:51 AM,69.1,-,55,61,30.15,10,Variable,4.6,0,0,None,Clear
2017-04-09,8:51 AM,50,-,21,32,30.15,10,West,4.6,0,0,None,Clear
2017-04-02,10:51 AM,50,-,30.9,48,30.15,10,Variable,5.8,0,0,None,Clear
2017-06-29,5:51 AM,68,-,55.9,65,30.15,10,Variable,5.8,0,0,None,Clear
2017-10-05,9:51 AM,69.1,-,57,65,30.15,9,Variable,5.8,0,0,None,Clear
2017-01-13,2:51 AM,59,-,53.1,81,30.15,10,West,5.8,0,0,None,Clear
2017-01-13,3:51 AM,57.9,-,50,75,30.15,10,West,5.8,0,0,None,Clear
2017-04-09,7:51 AM,48,-,21,34,30.15,10,WNW,5.8,0,0,None,Clear
2017-12-22,3:07 PM,48.9,-,42.1,77,30.15,10,South,8.1,0,0,None,Overcast
2017-01-07,9:07 PM,21,-,16,81,30.14,2,Calm,0,0,0,Snow,Light Snow
2017-03-31,3:51 AM,39,-,36,89,30.14,2.5,Calm,0,0,0.13,Rain,Rain
2017-03-31,12:51 AM,44.1,-,30.9,60,30.14,9,Calm,0,0,0,Rain,Light Rain
2017-02-21,10:51 PM,43,-,32,65,30.14,10,North,0,0,0,None,Clear
2017-04-02,9:51 AM,46.9,-,30.9,54,30.14,10,North,0,0,0,None,Clear
2017-09-17,12:51 AM,70,-,66.9,90,30.14,5,Calm,0,0,0,None,Partly Cloudy
2017-03-30,11:51 PM,45,-,30,56,30.14,10,Calm,0,0,0,None,Overcast
2017-09-17,10:51 PM,69.1,-,64.9,87,30.14,6,Calm,0,0,0,None,Overcast
2017-12-18,3:51 AM,34,-,30,85,30.14,8,Calm,0,0,0.01,None,Overcast
2017-12-22,4:51 PM,48.9,-,41,74,30.14,10,Calm,0,0,0,None,Overcast
2017-12-22,6:51 PM,50,-,41,71,30.14,10,Calm,0,0,0,None,Overcast
2017-12-30,5:51 AM,19.9,-,5,52,30.14,10,Calm,0,0,0,None,Overcast
2017-08-03,8:51 AM,73,-,66.9,81,30.14,5,Calm,0,0,0,None,Haze
2017-08-03,9:51 AM,75,-,68,79,30.14,5,Calm,0,0,0,None,Haze
2017-02-20,6:51 AM,44.1,-,30.9,60,30.14,10,Calm,0,0,0,None,Clear
2017-03-07,4:51 PM,50,-,44.1,80,30.14,8,Calm,0,0,0,None,Clear
2017-03-25,7:51 AM,52,-,37.9,59,30.14,10,Calm,0,0,0,None,Clear
2017-08-09,4:51 AM,64.9,-,57.9,78,30.14,10,Calm,0,0,0,None,Clear
2017-08-11,9:51 AM,75.9,-,61,60,30.14,10,Calm,0,0,0,None,Clear
2017-09-16,6:51 PM,73.9,-,66.9,79,30.14,10,Calm,0,0,0,None,Clear
2017-09-16,7:51 PM,72,-,66.9,84,30.14,10,Calm,0,0,0,None,Clear
2017-09-16,9:51 PM,71.1,-,66.9,87,30.14,8,Calm,0,0,0,None,Clear
2017-09-17,1:51 AM,70,-,66.9,90,30.14,4,Calm,0,0,0,None,Clear
2017-03-24,8:51 PM,55,-,34,45,30.14,10,WSW,10.4,17.3,0,None,Clear
2017-03-29,7:51 PM,51.1,-,23,33,30.14,10,NNW,9.2,19.6,0,None,Clear
2017-10-07,9:51 AM,72,-,66,81,30.14,5,ENE,3.5,0,0,None,Haze
2017-09-16,10:51 PM,71.1,-,66.9,87,30.14,6,NE,3.5,0,0,None,Clear
2017-11-15,6:51 PM,48,-,36,63,30.14,10,SSE,3.5,0,0,None,Overcast
2017-09-16,8:51 PM,72,-,66.9,84,30.14,9,SSE,3.5,0,0,None,Clear
2017-10-07,7:59 AM,68,-,66,93,30.14,2.5,Variable,3.5,0,0,None,Partly Cloudy
2017-03-24,4:51 PM,54,-,30.9,41,30.14,10,Variable,3.5,0,0,None,Overcast
2017-06-29,2:51 AM,69.1,-,54,58,30.14,10,Variable,3.5,0,0,None,Clear
2017-07-05,5:51 AM,70,-,55,59,30.14,10,Variable,3.5,0,0,None,Clear
2017-09-16,11:51 PM,71.1,-,68,90,30.14,6,WNW,3.5,0,0,None,Overcast
2017-08-20,10:51 PM,75,-,59,57,30.14,10,WSW,3.5,0,0,None,Clear
2017-12-22,7:51 PM,46.9,-,41,80,30.14,10,NE,4.6,0,0,None,Scattered Clouds
2017-07-04,10:36 PM,75.9,-,59,56,30.14,6,SE,4.6,0,0,None,Haze
2017-10-05,6:51 AM,64.9,-,57,75,30.14,10,Variable,4.6,0,0,None,Overcast
2017-03-25,10:51 AM,57.9,-,39,49,30.14,10,Variable,4.6,0,0,None,Clear
2017-08-20,9:51 PM,77,-,59,54,30.14,10,Variable,4.6,0,0,None,Clear
2017-11-27,5:51 PM,48,-,23,37,30.14,10,Variable,4.6,0,0,None,Clear
2017-10-05,5:51 AM,64.9,-,57,75,30.14,10,Variable,5.8,0,0,None,Mostly Cloudy
2017-11-09,11:51 AM,52,-,37,57,30.14,10,Variable,5.8,0,0,None,Mostly Cloudy
2017-10-05,4:51 AM,64.9,-,57,75,30.14,10,West,5.8,0,0,None,Scattered Clouds
2017-09-16,7:51 AM,71.1,-,68,90,30.14,1.8,ENE,6.9,0,0,None,Overcast
2017-09-17,12:51 PM,78.1,-,66,66,30.14,5,ENE,6.9,0,0,None,Haze
2017-12-22,2:51 PM,46.9,-,37,68,30.14,10,South,6.9,0,0,None,Overcast
2017-04-09,1:51 PM,64,-,25,23,30.14,10,SSW,6.9,0,0,None,Clear
2017-10-05,3:51 AM,64.9,-,57,75,30.14,10,Variable,6.9,0,0,None,Overcast
2017-04-23,10:51 AM,55,-,35.1,47,30.14,10,Variable,6.9,0,0,None,Clear
2017-06-29,1:51 AM,70,-,53.1,55,30.14,10,WSW,6.9,0,0,None,Clear
2017-11-29,12:51 AM,51.1,-,44.1,77,30.14,10,WSW,6.9,0,0,None,Clear
2017-03-30,5:51 PM,46.9,-,27,46,30.14,10,South,8.1,0,0,None,Overcast
2017-08-02,5:58 PM,69.1,-,66.9,93,30.13,5,NNW,3.5,0,0,Rain,Light Rain
2017-08-02,5:46 PM,69.8,-,66.2,88,30.13,1,North,4.6,0,0.07,Rain,Rain
2017-03-30,7:51 PM,45,-,30.9,58,30.13,10,North,0,0,0.01,None,Overcast
2017-02-06,8:51 AM,37,-,16,42,30.13,10,North,0,0,0,None,Clear
2017-11-21,6:51 AM,43,-,28.9,58,30.13,10,North,0,0,0,None,Clear
2017-09-16,5:51 PM,75.9,-,68,76,30.13,10,Calm,0,0,0,None,Scattered Clouds
2017-09-17,4:51 AM,69.1,-,66.9,93,30.13,2.5,Calm,0,0,0,None,Overcast
2017-09-17,11:51 PM,70,-,66,87,30.13,6,Calm,0,0,0,None,Overcast
2017-12-22,5:51 PM,48.9,-,39,69,30.13,10,Calm,0,0,0,None,Overcast
2017-08-03,6:31 AM,70,-,66.9,90,30.13,4,Calm,0,0,0,None,Mostly Cloudy
2017-08-03,7:51 AM,71.1,-,66.9,87,30.13,5,Calm,0,0,0,None,Mostly Cloudy
2017-09-17,3:51 AM,69.1,-,66.9,93,30.13,2.5,Calm,0,0,0,None,Mostly Cloudy
2017-10-07,7:35 AM,66.9,-,64.9,93,30.13,3,Calm,0,0,0,None,Mostly Cloudy
2017-08-03,10:51 AM,79,-,66.9,66,30.13,7,Calm,0,0,0,None,Clear
2017-08-09,3:51 AM,68,-,57.9,70,30.13,10,Calm,0,0,0,None,Clear
2017-09-16,4:59 AM,70,-,68,93,30.13,2.5,Calm,0,0,0,None,Clear
2017-09-16,5:06 AM,70,-,68,93,30.13,3,Calm,0,0,0,None,Clear
2017-09-17,2:51 AM,69.1,-,66.9,93,30.13,2.5,Calm,0,0,0,None,Clear
2017-12-21,6:51 AM,33.1,-,17.1,52,30.13,10,Calm,0,0,0,None,Clear
2017-11-29,3:51 PM,59,-,19,21,30.13,10,NW,10.4,16.1,0,None,Clear
2017-03-19,3:51 PM,46.9,-,17.1,30,30.13,10,NE,11.5,17.3,0,None,Clear
2017-03-30,4:51 PM,48,-,28,46,30.13,10,South,11.5,17.3,0,None,Mostly Cloudy
2017-10-07,7:46 AM,66.2,-,64.4,94,30.13,3,ESE,3.5,0,0,None,Scattered Clouds
2017-09-16,5:30 AM,70,-,68,93,30.13,2.5,NE,3.5,0,0,None,Scattered Clouds
2017-10-07,7:21 AM,66.9,-,64.9,93,30.13,2.5,SE,3.5,0,0,None,Mostly Cloudy
2017-09-17,9:51 PM,69.1,-,64.9,87,30.13,8,Variable,3.5,0,0,None,Partly Cloudy
2017-10-07,8:51 AM,70,-,66,87,30.13,4,Variable,3.5,0,0,None,Overcast
2017-10-07,5:24 AM,66.9,-,64,90,30.13,7,ENE,4.6,0,0,None,Scattered Clouds
2017-12-22,3:51 PM,48.9,-,42.1,77,30.13,10,SSW,4.6,0,0,None,Overcast
2017-03-07,5:51 PM,48.9,-,44.1,83,30.13,8,Variable,4.6,0,0,None,Clear
2017-03-24,10:51 PM,53.1,-,32,45,30.13,10,Variable,4.6,0,0,None,Clear
2017-04-23,10:51 PM,52,-,41,66,30.13,10,Variable,4.6,0,0,None,Clear
2017-07-05,4:51 AM,72,-,55.9,57,30.13,10,Variable,4.6,0,0,None,Clear
2017-10-05,10:51 AM,72,-,57,59,30.13,10,Variable,4.6,0,0,None,Clear
2017-04-23,9:51 PM,52,-,41,66,30.13,10,South,5.8,0,0,None,Clear
2017-04-23,9:51 AM,54,-,36,51,30.13,10,Variable,5.8,0,0,None,Clear
2017-03-24,11:51 PM,54,-,32,43,30.13,10,West,5.8,0,0,None,Clear
2017-04-23,8:51 AM,51.1,-,36,56,30.13,10,Variable,6.9,0,0,None,Clear
2017-01-07,7:51 PM,21,-,17.1,85,30.12,1,North,0,0,0.01,Snow,Light Snow
2017-03-24,5:51 PM,55.9,-,32,40,30.12,10,North,0,0,0,None,Overcast
2017-03-29,6:51 PM,53.1,-,25,34,30.12,10,North,0,0,0,None,Clear
2017-06-29,10:51 AM,75.9,-,61,60,30.12,10,North,0,0,0,None,Clear
2017-11-21,2:51 AM,43,-,26.1,51,30.12,10,North,0,0,0,None,Clear
2017-11-21,8:51 AM,46.9,-,32,56,30.12,10,North,0,0,0,None,Clear
2017-11-23,9:51 AM,35.1,-,19,52,30.12,10,North,0,0,0,None,Clear
2017-10-06,7:51 AM,69.1,-,62.1,78,30.12,10,Calm,0,0,0,None,Partly Cloudy
2017-08-03,6:51 AM,70,-,66.9,90,30.12,5,Calm,0,0,0,None,Overcast
2017-03-24,7:51 PM,55,-,34,45,30.12,10,Calm,0,0,0,None,Clear
2017-04-23,12:51 PM,61,-,35.1,38,30.12,10,Calm,0,0,0,None,Clear
2017-04-23,11:51 PM,52,-,39,61,30.12,10,Calm,0,0,0,None,Clear
2017-08-09,2:51 AM,69.1,-,57,65,30.12,10,Calm,0,0,0,None,Clear
2017-09-17,8:51 PM,70,-,64.9,84,30.12,8,Calm,0,0,0,None,Clear
2017-11-07,1:51 AM,44.1,-,34,68,30.12,10,Calm,0,0,0,None,Clear
2017-12-01,6:51 AM,45,-,37.9,76,30.12,10,Calm,0,0,0,None,Clear
2017-04-09,4:51 PM,61,-,25,25,30.12,10,South,6.9,16.1,0,None,Clear
2017-11-21,9:51 AM,50,-,30.9,48,30.12,10,Variable,6.9,17.3,0,None,Clear
2017-04-09,3:51 PM,63,-,26.1,25,30.12,10,South,8.1,18.4,0,None,Clear
2017-04-09,7:51 PM,55,-,34,45,30.12,10,South,3.5,0,0,None,Clear
2017-09-16,4:51 PM,79,-,68,69,30.12,9,Variable,3.5,0,0,None,Partly Cloudy
2017-11-30,3:51 PM,48,-,36,63,30.12,10,Variable,3.5,0,0,None,Partly Cloudy
2017-07-05,3:51 AM,73,-,59,61,30.12,7,Variable,3.5,0,0,None,Mostly Cloudy
2017-04-09,6:51 PM,57,-,30.9,37,30.12,10,Variable,3.5,0,0,None,Clear
2017-04-23,11:51 AM,57.9,-,35.1,42,30.12,10,Variable,3.5,0,0,None,Clear
2017-11-29,2:51 AM,51.1,-,44.1,77,30.12,10,Variable,3.5,0,0,None,Clear
2017-10-07,10:51 AM,75.9,-,63,64,30.12,10,South,4.6,0,0,None,Clear
2017-03-07,6:51 PM,48.9,-,44.1,83,30.12,9,SSE,4.6,0,0,None,Clear
2017-04-09,2:51 PM,66,-,25,21,30.12,10,Variable,4.6,0,0,None,Clear
2017-08-09,1:51 AM,68,-,60.1,76,30.12,10,WNW,4.6,0,0,None,Clear
2017-10-07,11:51 AM,79,-,62.1,56,30.12,10,SSE,5.8,0,0,None,Clear
2017-04-02,11:51 AM,54,-,28,37,30.12,10,Variable,5.8,0,0,None,Clear
2017-04-23,7:51 AM,48.9,-,36,61,30.12,10,Variable,5.8,0,0,None,Clear
2017-04-29,11:51 PM,69.1,-,54,58,30.12,10,WNW,5.8,0,0,None,Overcast
2017-06-29,9:51 AM,75,-,59,57,30.12,10,Variable,6.9,0,0,None,Clear
2017-06-29,12:51 AM,72,-,51.1,48,30.12,10,SW,8.1,0,0,None,Clear
2017-03-24,6:51 PM,55.9,-,34,44,30.11,10,North,0,0,0,None,Clear
2017-06-29,11:51 AM,78.1,-,62.1,58,30.11,10,North,0,0,0,None,Clear
2017-10-07,5:51 AM,66.9,-,64.9,93,30.11,5,Calm,0,0,0,None,Scattered Clouds
2017-10-07,6:51 AM,66,-,64.9,96,30.11,4,Calm,0,0,0,None,Partly Cloudy
2017-11-09,12:51 PM,53.1,-,37.9,57,30.11,10,Calm,0,0,0,None,Overcast
2017-07-04,10:51 PM,75.9,-,57.9,54,30.11,5,Calm,0,0,0,None,Haze
2017-02-20,5:51 AM,45,-,30.9,58,30.11,10,Calm,0,0,0,None,Clear
2017-07-04,11:51 PM,75,-,55,50,30.11,10,Calm,0,0,0,None,Clear
2017-07-05,12:51 AM,73.9,-,57.9,57,30.11,10,Calm,0,0,0,None,Clear
2017-07-05,1:51 AM,73.9,-,55,52,30.11,10,Calm,0,0,0,None,Clear
2017-07-18,8:51 AM,78.1,-,69.1,74,30.11,10,Calm,0,0,0,None,Clear
2017-08-02,11:51 PM,70,-,66.9,90,30.11,10,Calm,0,0,0,None,Clear
2017-08-20,8:51 PM,77,-,57.9,52,30.11,10,Calm,0,0,0,None,Clear
2017-10-10,10:51 PM,71.1,-,60.1,68,30.11,10,Calm,0,0,0,None,Clear
2017-11-20,9:51 PM,43,-,24.1,47,30.11,10,Calm,0,0,0,None,Clear
2017-12-21,5:51 AM,33.1,-,17.1,52,30.11,10,Calm,0,0,0,None,Clear
2017-03-25,12:51 AM,53.1,-,33.1,47,30.11,10,WSW,11.5,16.1,0,None,Clear
2017-11-07,1:51 PM,46.9,-,34,61,30.11,10,NE,11.5,17.3,0,None,Overcast
2017-09-16,5:51 AM,70,-,68,93,30.11,2.5,NE,3.5,0,0,None,Partly Cloudy
2017-10-06,6:51 AM,69.1,-,63,81,30.11,10,Variable,3.5,0,0,None,Mostly Cloudy
2017-10-06,8:51 AM,70,-,62.1,76,30.11,9,West,3.5,0,0,None,Clear
2017-10-07,7:51 AM,66.9,-,66,97,30.11,3,East,4.6,0,0,None,Scattered Clouds
2017-07-05,2:51 AM,73.9,-,59,59,30.11,8,NNE,4.6,0,0,None,Clear
2017-01-13,1:51 AM,60.1,-,53.1,78,30.11,10,Variable,4.6,0,0,None,Clear
2017-09-17,7:51 PM,71.1,-,66,84,30.11,9,Variable,4.6,0,0,None,Clear
2017-10-06,9:51 AM,71.1,-,60.1,68,30.11,10,Variable,4.6,0,0,None,Clear
2017-03-29,11:19 AM,51.1,-,37,59,30.11,10,Variable,5.8,0,0,None,Mostly Cloudy
2017-03-25,6:51 AM,53.1,-,37.9,57,30.11,10,Variable,5.8,0,0,None,Clear
2017-04-23,8:51 PM,51.1,-,41,68,30.11,10,Variable,5.8,0,0,None,Clear
2017-10-05,11:51 AM,77,-,57,50,30.11,10,Variable,5.8,0,0,None,Clear
2017-07-18,7:51 AM,75.9,-,70,82,30.11,10,WNW,5.8,0,0,None,Clear
2017-11-15,7:51 PM,48,-,37,66,30.11,10,ESE,8.1,0,0,None,Overcast
2017-04-09,5:51 PM,60.1,-,28,30,30.11,10,SSE,9.2,0,0,None,Clear
2017-08-02,5:51 PM,69.1,-,66.9,93,30.1,2,Variable,3.5,0,0.08,Rain,Light Rain
2017-08-21,10:51 PM,78.1,-,70,76,30.1,10,North,0,0,0,None,Clear
2017-10-07,12:51 PM,78.1,-,61,56,30.1,10,North,0,0,0,None,Clear
2017-11-20,7:51 PM,44.1,-,24.1,45,30.1,10,North,0,0,0,None,Clear
2017-11-23,10:51 AM,36,-,19,50,30.1,10,North,0,0,0,None,Clear
2017-08-09,12:51 AM,71.1,-,59,66,30.1,10,Calm,0,0,0,None,Partly Cloudy
2017-03-31,7:03 AM,37.9,-,37,97,30.1,5,Calm,0,0,0,None,Overcast
2017-12-18,9:51 AM,39,-,33.1,79,30.1,10,Calm,0,0,0,None,Overcast
2017-02-02,5:51 PM,37.9,-,21,51,30.1,10,Calm,0,0,0,None,Mostly Cloudy
2017-07-17,11:38 PM,77,-,72,84,30.1,10,Calm,0,0,0,None,Mostly Cloudy
2017-04-02,11:51 PM,55,-,28.9,37,30.1,10,Calm,0,0,0,None,Clear
2017-07-04,9:51 PM,77,-,57,50,30.1,10,Calm,0,0,0,None,Clear
2017-08-02,10:51 PM,70,-,66,87,30.1,10,Calm,0,0,0,None,Clear
2017-08-03,12:51 AM,70,-,66,87,30.1,10,Calm,0,0,0,None,Clear
2017-08-03,5:51 AM,69.1,-,66,90,30.1,6,Calm,0,0,0,None,Clear
2017-09-16,12:51 AM,72,-,69.1,91,30.1,7,Calm,0,0,0,None,Clear
2017-09-16,1:51 AM,72,-,68,87,30.1,7,Calm,0,0,0,None,Clear
2017-09-16,3:51 AM,71.1,-,68,90,30.1,4,NE,3.5,0,0,None,Clear
2017-09-16,4:51 AM,70,-,68,93,30.1,3,NE,3.5,0,0,None,Clear
2017-10-10,11:51 PM,69.1,-,59,70,30.1,10,NNE,3.5,0,0,None,Clear
2017-04-23,1:51 PM,64.9,-,33.1,31,30.1,10,North,3.5,0,0,None,Clear
2017-03-07,7:51 PM,50,-,45,83,30.1,9,South,3.5,0,0,None,Mostly Cloudy
2017-07-18,1:01 AM,77,-,71.1,82,30.1,10,Variable,3.5,0,0,None,Scattered Clouds
2017-09-17,5:51 PM,75.9,-,66.9,74,30.1,9,Variable,3.5,0,0,None,Clear
2017-10-06,10:51 AM,73,-,57.9,59,30.1,10,Variable,3.5,0,0,None,Clear
2017-10-10,9:51 PM,73,-,61,66,30.1,10,WNW,3.5,0,0,None,Clear
2017-10-07,3:51 AM,68,-,66,93,30.1,6,SE,4.6,0,0,None,Mostly Cloudy
2017-09-17,4:51 PM,78.1,-,66.9,68,30.1,9,South,4.6,0,0,None,Clear
2017-11-29,3:51 AM,50,-,44.1,80,30.1,10,Variable,4.6,0,0,None,Clear
2017-09-17,6:51 PM,73,-,66,79,30.1,9,South,5.8,0,0,None,Clear
2017-07-17,11:05 PM,77,-,72,84,30.1,10,SSE,5.8,0,0,None,Mostly Cloudy
2017-04-23,6:51 AM,46.9,-,36,66,30.1,10,Variable,5.8,0,0,None,Clear
2017-11-21,10:51 AM,53.1,-,30,41,30.1,10,Variable,5.8,0,0,None,Clear
2017-11-15,8:51 PM,48,-,37,66,30.1,10,Variable,6.9,0,0,None,Overcast
2017-04-02,12:51 PM,57,-,26.1,30,30.1,10,Variable,6.9,0,0,None,Clear
2017-11-27,4:51 PM,48.9,-,23,36,30.1,10,NW,9.2,0,0,None,Clear
2017-01-17,5:36 PM,39,-,37,93,30.09,2.5,Calm,0,0,0,Rain,Rain
2017-08-04,7:07 AM,73,-,69.1,87,30.09,1.8,Calm,0,0,0.02,Rain,Rain
2017-03-27,10:51 AM,42.1,-,41,96,30.09,3,Calm,0,0,0.06,Rain,Light Rain
2017-08-04,7:14 AM,72,-,69.1,91,30.09,3,Variable,3.5,0,0.04,Rain,Light Rain
2017-08-04,7:30 AM,71.1,-,69.1,93,30.09,1.8,Variable,3.5,0,0.06,Rain,Light Rain
2017-08-04,7:40 AM,70,-,69.1,97,30.09,0.8,Variable,3.5,0,0.15,Rain,Light Rain
2017-08-04,7:46 AM,71.6,-,69.8,94,30.09,2,Variable,3.5,0,0.15,Rain,Light Rain
2017-02-03,2:51 PM,33.1,-,10,38,30.09,10,North,0,0,0,None,Clear
2017-03-20,12:51 PM,46,-,14,28,30.09,10,North,0,0,0,None,Clear
2017-11-10,6:51 AM,37.9,-,21.9,53,30.09,10,North,0,0,0,None,Clear
2017-09-15,10:51 PM,73.9,-,66.9,79,30.09,9,Calm,0,0,0,None,Partly Cloudy
2017-10-06,5:51 AM,69.1,-,64,84,30.09,10,Calm,0,0,0,None,Partly Cloudy
2017-12-15,7:51 AM,21.9,-,9,58,30.09,10,Calm,0,0,0,None,Partly Cloudy
2017-09-26,10:10 AM,72,-,66.9,84,30.09,10,Calm,0,0,0,None,Overcast
2017-11-09,1:51 PM,53.1,-,37.9,57,30.09,10,Calm,0,0,0,None,Overcast
2017-02-03,3:51 PM,33.1,-,10,38,30.09,10,Calm,0,0,0,None,Mostly Cloudy
2017-09-15,11:51 PM,73,-,68,84,30.09,8,Calm,0,0,0,None,Mostly Cloudy
2017-08-02,9:51 PM,69.1,-,64.9,87,30.09,10,Calm,0,0,0,None,Clear
2017-08-03,1:51 AM,70,-,66,87,30.09,9,Calm,0,0,0,None,Clear
2017-08-03,3:51 AM,69.1,-,66.9,93,30.09,6,Calm,0,0,0,None,Clear
2017-09-16,2:51 AM,71.1,-,68,90,30.09,6,Calm,0,0,0,None,Clear
2017-10-06,10:51 PM,71.1,-,66,84,30.09,9,Calm,0,0,0,None,Clear
2017-10-07,12:51 AM,72,-,64,76,30.09,10,Calm,0,0,0,None,Clear
2017-10-07,1:51 AM,72,-,64,76,30.09,9,Calm,0,0,0,None,Clear
2017-10-10,8:51 PM,73.9,-,60.1,62,30.09,10,Calm,0,0,0,None,Clear
2017-11-17,9:51 PM,39,-,16,39,30.09,10,Calm,0,0,0,None,Clear
2017-12-15,5:51 AM,19.9,-,8.1,60,30.09,10,Calm,0,0,0,None,Clear
2017-11-29,8:51 AM,50,-,39.9,68,30.09,7,Variable,3.5,17.3,0,None,Mostly Cloudy
2017-01-13,12:51 AM,61,-,53.1,75,30.09,10,WSW,10.4,19.6,0,None,Overcast
2017-11-29,4:51 AM,50,-,44.1,80,30.09,10,Variable,4.6,24.2,0,None,Clear
2017-07-04,10:51 AM,77,-,57.9,52,30.09,10,East,3.5,0,0,None,Mostly Cloudy
2017-10-07,2:51 AM,69.1,-,66,90,30.09,8,ENE,3.5,0,0,None,Clear
2017-07-04,9:51 AM,73,-,55.9,55,30.09,10,NNE,3.5,0,0,None,Overcast
2017-08-03,4:51 AM,69.1,-,66.9,93,30.09,5,NNE,3.5,0,0,None,Clear
2017-04-29,10:51 PM,72,-,55.9,57,30.09,10,Variable,3.5,0,0,None,Overcast
2017-07-04,8:51 AM,73.9,-,55.9,53,30.09,10,Variable,3.5,0,0,None,Overcast
2017-04-02,9:51 PM,57,-,28,33,30.09,10,Variable,3.5,0,0,None,Clear
2017-04-02,10:51 PM,55.9,-,28.9,36,30.09,10,Variable,3.5,0,0,None,Clear
2017-08-20,7:51 PM,79,-,57.9,48,30.09,10,Variable,3.5,0,0,None,Clear
2017-10-10,7:51 PM,75,-,60.1,60,30.09,10,WNW,3.5,0,0,None,Clear
2017-04-29,9:51 PM,75,-,57,53,30.09,10,Variable,4.6,0,0,None,Overcast
2017-11-15,9:51 PM,48.9,-,37.9,66,30.09,10,Variable,4.6,0,0,None,Overcast
2017-10-06,11:51 AM,75.9,-,57,52,30.09,10,West,4.6,0,0,None,Clear
2017-04-23,7:51 PM,53.1,-,41,64,30.09,10,Variable,6.9,0,0,None,Clear
2017-08-21,11:51 PM,77,-,70,79,30.09,10,WSW,6.9,0,0,None,Clear
2017-03-29,10:51 AM,48,-,37,66,30.09,10,North,8.1,0,0,None,Overcast
2017-08-02,4:51 PM,73,-,66.9,81,30.08,5,WNW,9.2,18.4,0.01,Rain,Light Rain
2017-11-29,9:51 AM,53.1,-,37,55,30.08,10,North,0,0,0,None,Partly Cloudy
2017-11-30,7:31 PM,51.1,-,43,74,30.08,10,North,0,0,0,None,Mostly Cloudy
2017-02-06,1:51 PM,46,-,19,34,30.08,10,North,0,0,0,None,Clear
2017-02-06,6:51 PM,42.1,-,30.9,65,30.08,10,North,0,0,0,None,Clear
2017-11-21,11:51 AM,54,-,30,40,30.08,10,North,0,0,0,None,Clear
2017-11-23,4:51 AM,32,-,19,59,30.08,10,North,0,0,0,None,Clear
2017-08-17,9:51 AM,73.9,-,59,59,30.08,10,Calm,0,0,0,None,Scattered Clouds
2017-09-26,11:04 AM,73.9,-,66.9,79,30.08,10,Calm,0,0,0,None,Scattered Clouds
2017-09-15,8:51 PM,75.9,-,64.9,69,30.08,10,Calm,0,0,0,None,Overcast
2017-09-15,9:51 PM,75.9,-,66.9,74,30.08,10,Calm,0,0,0,None,Overcast
2017-11-09,2:51 PM,54,-,37.9,55,30.08,10,Calm,0,0,0,None,Overcast
2017-08-22,3:12 AM,75.9,-,71.1,85,30.08,9,Calm,0,0,0,None,Mostly Cloudy
2017-09-26,8:09 AM,70,-,66,87,30.08,7,Calm,0,0,0,None,Mostly Cloudy
2017-07-18,6:51 AM,75.9,-,69.1,79,30.08,10,Calm,0,0,0,None,Clear
2017-08-03,2:51 AM,70,-,66.9,90,30.08,6,Calm,0,0,0,None,Clear
2017-08-03,7:51 PM,78.1,-,66,66,30.08,10,Calm,0,0,0,None,Clear
2017-08-03,8:51 PM,78.1,-,66,66,30.08,10,Calm,0,0,0,None,Clear
2017-09-24,7:51 AM,71.1,-,62.1,73,30.08,10,Calm,0,0,0,None,Clear
2017-09-24,8:51 AM,75,-,63,66,30.08,10,Calm,0,0,0,None,Clear
2017-10-06,11:51 PM,72,-,64.9,78,30.08,9,Calm,0,0,0,None,Clear
2017-12-01,5:51 AM,45,-,39.9,82,30.08,10,Calm,0,0,0,None,Clear
2017-12-15,10:51 AM,25,-,10.9,55,30.08,10,Calm,0,0,0,None,Clear
2017-03-29,5:51 PM,55.9,-,26.1,32,30.08,10,Variable,4.6,18.4,0,None,Clear
2017-11-29,6:51 AM,48.9,-,42.1,77,30.08,10,West,12.7,20.7,0,None,Partly Cloudy
2017-03-25,1:51 AM,54,-,34,47,30.08,10,WSW,12.7,20.7,0,None,Clear
2017-11-30,5:51 PM,46.9,-,39,74,30.08,10,ENE,3.5,0,0,None,Clear
2017-08-02,8:51 PM,69.1,-,66.9,93,30.08,10,ESE,3.5,0,0,None,Clear
2017-10-06,9:51 PM,72,-,66,81,30.08,9,NE,3.5,0,0,None,Clear
2017-07-04,8:51 PM,78.1,-,55.9,46,30.08,10,South,3.5,0,0,None,Partly Cloudy
2017-08-17,7:51 AM,71.1,-,57,61,30.08,10,Variable,3.5,0,0,None,Overcast
2017-07-10,8:51 AM,75,-,55,50,30.08,10,Variable,3.5,0,0,None,Mostly Cloudy
2017-07-17,11:51 PM,77,-,72,84,30.08,10,Variable,3.5,0,0,None,Mostly Cloudy
2017-08-11,3:51 PM,78.1,-,62.1,58,30.08,10,Variable,3.5,0,0,None,Mostly Cloudy
2017-08-17,8:51 AM,73,-,55.9,55,30.08,10,Variable,3.5,0,0,None,Mostly Cloudy
2017-10-06,1:51 AM,70,-,64.9,84,30.08,10,Variable,3.5,0,0,None,Mostly Cloudy
2017-10-10,9:51 AM,70,-,61,73,30.08,10,Variable,3.5,0,0,None,Clear
2017-10-06,4:51 AM,69.1,-,64.9,87,30.08,9,West,3.5,0,0,None,Partly Cloudy
2017-08-03,11:51 PM,75.9,-,66,71,30.08,10,West,3.5,0,0,None,Clear
2017-08-22,12:51 AM,75.9,-,70,82,30.08,10,WSW,3.5,0,0,None,Clear
2017-08-11,4:51 PM,75.9,-,60.1,58,30.08,10,Variable,4.6,0,0,None,Partly Cloudy
2017-04-23,6:51 PM,55,-,39.9,57,30.08,10,Variable,4.6,0,0,None,Clear
2017-09-24,9:51 AM,79,-,62.1,56,30.08,10,Variable,4.6,0,0,None,Clear
2017-07-18,5:51 AM,73.9,-,69.1,85,30.08,10,WSW,4.6,0,0,None,Clear
2017-07-04,7:51 AM,72,-,55.9,57,30.08,10,NE,5.8,0,0,None,Overcast
2017-09-25,9:51 AM,79,-,64.9,62,30.08,9,NE,5.8,0,0,None,Clear
2017-03-07,8:51 PM,53.1,-,46,77,30.08,10,Variable,5.8,0,0,None,Overcast
2017-08-04,10:40 AM,75.9,-,73,91,30.08,9,Variable,6.9,0,0,None,Partly Cloudy
2017-07-10,10:51 AM,77,-,57,50,30.08,10,Variable,6.9,0,0,None,Mostly Cloudy
2017-08-04,10:31 AM,75.9,-,73,91,30.08,9,Variable,6.9,0,0,None,Mostly Cloudy
2017-11-27,3:51 PM,50,-,24.1,36,30.08,10,Variable,6.9,0,0,None,Clear
2017-04-23,5:51 PM,57.9,-,39.9,51,30.08,10,South,8.1,0,0,None,Clear
2017-11-29,2:51 PM,62.1,-,21.9,21,30.08,10,WNW,9.2,0,0,None,Clear
2017-12-30,10:51 AM,19.9,-,14,78,30.07,0.8,North,0,0,0,Snow,Light Snow
2017-02-02,9:51 AM,39,-,25,57,30.07,10,North,0,0,0,None,Partly Cloudy
2017-11-29,7:51 AM,48.9,-,41,74,30.07,10,North,0,0,0,None,Partly Cloudy
2017-02-02,8:51 AM,37.9,-,25,60,30.07,10,North,0,0,0,None,Overcast
2017-03-29,9:51 AM,45,-,37.9,76,30.07,10,North,0,0,0,None,Overcast
2017-08-04,8:51 AM,71.1,-,70,96,30.07,3,North,0,0,0,None,Mostly Cloudy
2017-02-06,2:51 PM,48,-,19,32,30.07,10,North,0,0,0,None,Clear
2017-07-18,2:51 AM,75,-,69.1,82,30.07,10,North,0,0,0,None,Clear
2017-10-06,12:51 PM,79,-,57.9,48,30.07,10,North,0,0,0,None,Clear
2017-11-17,4:51 PM,45,-,14,29,30.07,10,North,0,0,0,None,Clear
2017-01-19,9:00 AM,41,-,36,82,30.07,10,Calm,0,0,0,None,Scattered Clouds
2017-07-17,7:51 PM,78.1,-,70,76,30.07,10,Calm,0,0,0,None,Scattered Clouds
2017-12-18,11:46 AM,42.8,-,33.8,70,30.07,9,Calm,0,0,0,None,Scattered Clouds
2017-09-15,7:51 PM,75.9,-,64.9,69,30.07,10,Calm,0,0,0,None,Overcast
2017-07-18,12:51 AM,77,-,71.1,82,30.07,10,Calm,0,0,0,None,Mostly Cloudy
2017-11-30,8:13 PM,51.1,-,45,80,30.07,10,Calm,0,0,0,None,Mostly Cloudy
2017-04-23,2:51 PM,64,-,34,33,30.07,10,Calm,0,0,0,None,Clear
2017-06-11,8:51 AM,78.1,-,62.1,58,30.07,9,Calm,0,0,0,None,Clear
2017-07-18,3:51 AM,75,-,66.9,76,30.07,10,Calm,0,0,0,None,Clear
2017-07-18,4:51 AM,75,-,68,79,30.07,10,Calm,0,0,0,None,Clear
2017-07-31,6:51 AM,66.9,-,55.9,68,30.07,10,Calm,0,0,0,None,Clear
2017-07-31,7:51 AM,70,-,55.9,61,30.07,10,Calm,0,0,0,None,Clear
2017-07-31,9:51 AM,75,-,57.9,55,30.07,10,Calm,0,0,0,None,Clear
2017-08-04,12:51 AM,75,-,64.9,71,30.07,10,Calm,0,0,0,None,Clear
2017-08-04,1:51 AM,73.9,-,66,76,30.07,10,Calm,0,0,0,None,Clear
2017-09-25,7:51 AM,73,-,66,79,30.07,10,Calm,0,0,0,None,Clear
2017-09-25,8:51 AM,77,-,66,69,30.07,9,Calm,0,0,0,None,Clear
2017-10-10,10:51 AM,72,-,60.1,66,30.07,10,Calm,0,0,0,None,Clear
2017-10-10,6:51 PM,75.9,-,60.1,58,30.07,10,Calm,0,0,0,None,Clear
2017-11-17,10:51 PM,39,-,16,39,30.07,10,Calm,0,0,0,None,Clear
2017-08-11,5:51 PM,75.9,-,59,56,30.07,10,SSE,9.2,16.1,0,None,Clear
2017-03-25,2:51 AM,53.1,-,34,48,30.07,10,West,9.2,17.3,0,None,Clear
2017-03-25,5:51 AM,54,-,37,53,30.07,10,West,8.1,18.4,0,None,Clear
2017-11-17,3:51 PM,46.9,-,15.1,28,30.07,10,NW,8.1,19.6,0,None,Clear
2017-08-04,2:51 AM,73.9,-,66,76,30.07,10,Variable,3.5,0,0,None,Scattered Clouds
2017-07-10,9:51 AM,75.9,-,55,48,30.07,10,Variable,3.5,0,0,None,Partly Cloudy
2017-11-30,8:34 PM,52,-,46,80,30.07,10,Variable,3.5,0,0,None,Mostly Cloudy
2017-07-18,11:51 PM,79,-,71.1,77,30.07,10,Variable,3.5,0,0,None,Clear
2017-09-24,6:51 AM,69.1,-,62.1,78,30.07,10,Variable,3.5,0,0,None,Clear
2017-10-10,8:51 AM,68,-,60.1,76,30.07,10,Variable,3.5,0,0,None,Clear
2017-11-29,5:51 AM,50,-,42.1,74,30.07,10,Variable,3.5,0,0,None,Clear
2017-10-06,3:51 AM,69.1,-,64.9,87,30.07,9,West,3.5,0,0,None,Partly Cloudy
2017-09-26,7:44 AM,69.1,-,66,90,30.07,8,ENE,4.6,0,0,None,Partly Cloudy
2017-08-22,3:30 AM,75,-,71.1,87,30.07,9,SW,4.6,0,0,None,Scattered Clouds
2017-06-11,7:51 AM,75,-,62.1,64,30.07,10,Variable,4.6,0,0,None,Clear
2017-08-22,1:51 AM,75.9,-,70,82,30.07,10,Variable,4.6,0,0,None,Clear
2017-10-10,11:51 AM,77,-,60.1,56,30.07,10,Variable,4.6,0,0,None,Clear
2017-11-29,10:51 AM,57,-,34,42,30.07,10,Variable,4.6,0,0,None,Clear
2017-07-31,8:51 AM,71.1,-,57,61,30.07,10,WNW,4.6,0,0,None,Clear
2017-07-18,1:51 AM,75.9,-,69.1,79,30.07,10,Variable,5.8,0,0,None,Clear
2017-11-30,9:44 PM,53.1,-,46,77,30.07,10,Variable,6.9,0,0,None,Overcast
2017-03-20,1:51 PM,48,-,12.9,24,30.07,10,Variable,6.9,0,0,None,Clear
2017-04-02,1:51 PM,60.1,-,25,26,30.07,10,NW,8.1,0,0,None,Clear
2017-10-07,2:51 PM,78.1,-,64.9,64,30.07,10,SSE,8.1,0,0,None,Clear
2017-03-29,11:51 AM,52,-,36,54,30.07,10,NNE,12.7,0,0,None,Scattered Clouds
2017-10-05,11:51 PM,72,-,66,81,30.06,10,North,0,0,0,Rain,Light Rain
2017-10-05,10:51 PM,71.1,-,64.9,81,30.06,9,Variable,4.6,0,0,Rain,Light Rain
2017-12-16,9:51 AM,30.9,-,18,59,30.06,10,North,0,0,0,None,Scattered Clouds
2017-03-11,1:51 AM,19.9,-,3,48,30.06,10,North,0,0,0,None,Clear
2017-03-29,1:51 PM,57.9,-,30.9,36,30.06,10,North,0,0,0,None,Clear
2017-07-10,2:51 AM,72,-,53.1,51,30.06,10,North,0,0,0,None,Clear
2017-12-14,8:51 PM,25,-,6.1,45,30.06,10,North,0,0,0,None,Clear
2017-12-21,1:51 AM,34,-,17.1,50,30.06,10,North,0,0,0,None,Clear
2017-07-17,8:51 PM,78.1,-,71.1,79,30.06,10,Calm,0,0,0,None,Scattered Clouds
2017-08-04,5:51 AM,73.9,-,68,82,30.06,10,Calm,0,0,0,None,Partly Cloudy
2017-08-04,9:51 AM,73,-,70,90,30.06,7,Calm,0,0,0,None,Partly Cloudy
2017-03-07,9:51 PM,53.1,-,46.9,80,30.06,10,Calm,0,0,0,None,Overcast
2017-09-26,9:51 AM,72,-,66.9,84,30.06,9,Calm,0,0,0,None,Overcast
2017-07-04,7:51 PM,79,-,57.9,48,30.06,10,Calm,0,0,0,None,Mostly Cloudy
2017-09-15,6:51 PM,75.9,-,64.9,69,30.06,10,Calm,0,0,0,None,Mostly Cloudy
2017-09-26,10:51 AM,73.9,-,66.9,79,30.06,10,Calm,0,0,0,None,Mostly Cloudy
2017-10-06,12:51 AM,71.1,-,66,84,30.06,10,Calm,0,0,0,None,Mostly Cloudy
2017-06-11,6:51 AM,73,-,61,66,30.06,10,Calm,0,0,0,None,Clear
2017-07-10,3:51 AM,72,-,53.1,51,30.06,10,Calm,0,0,0,None,Clear
2017-07-31,12:51 AM,70,-,54,57,30.06,10,Calm,0,0,0,None,Clear
2017-08-02,8:51 AM,79,-,68,69,30.06,7,Calm,0,0,0,None,Clear
2017-08-02,7:51 PM,69.1,-,66.9,93,30.06,9,Calm,0,0,0,None,Clear
2017-08-04,4:51 AM,73.9,-,68,82,30.06,10,Calm,0,0,0,None,Clear
2017-08-17,10:51 AM,75.9,-,60.1,58,30.06,10,Calm,0,0,0,None,Clear
2017-10-06,2:51 AM,70,-,64.9,84,30.06,9,Calm,0,0,0,None,Clear
2017-10-06,7:51 PM,72,-,64.9,78,30.06,9,Calm,0,0,0,None,Clear
2017-10-06,8:51 PM,72,-,64.9,78,30.06,9,Calm,0,0,0,None,Clear
2017-11-24,7:51 AM,37,-,21.9,54,30.06,10,Calm,0,0,0,None,Clear
2017-03-25,3:51 AM,52,-,35.1,53,30.06,10,WSW,11.5,17.3,0,None,Clear
2017-03-25,4:51 AM,53.1,-,36,52,30.06,10,WSW,9.2,19.6,0,None,Clear
2017-11-29,12:51 PM,63,-,32,31,30.06,10,WNW,5.8,21.9,0,None,Clear
2017-08-03,6:51 PM,79,-,66,64,30.06,10,South,3.5,0,0,None,Clear
2017-11-30,6:51 PM,48.9,-,42.1,77,30.06,10,South,3.5,0,0,None,Clear
2017-08-04,3:51 AM,73.9,-,66.9,79,30.06,10,SSE,3.5,0,0,None,Scattered Clouds
2017-07-17,9:51 PM,77,-,72,84,30.06,10,Variable,3.5,0,0,None,Partly Cloudy
2017-07-17,10:51 PM,77,-,72,84,30.06,10,Variable,3.5,0,0,None,Partly Cloudy
2017-08-22,2:51 AM,75.9,-,71.1,85,30.06,10,Variable,3.5,0,0,None,Partly Cloudy
2017-08-04,6:51 AM,75.9,-,69.1,79,30.06,10,Variable,3.5,0,0,None,Mostly Cloudy
2017-10-05,9:51 PM,75.9,-,63,64,30.06,10,Variable,3.5,0,0,None,Mostly Cloudy
2017-03-20,2:51 PM,48.9,-,12,23,30.06,10,Variable,3.5,0,0,None,Clear
2017-04-02,8:51 PM,57,-,27,32,30.06,10,Variable,3.5,0,0,None,Clear
2017-07-09,11:51 PM,73.9,-,53.1,48,30.06,10,Variable,3.5,0,0,None,Clear
2017-09-23,9:51 AM,75,-,55.9,51,30.06,10,Variable,3.5,0,0,None,Clear
2017-09-23,10:51 AM,77,-,55.9,48,30.06,10,Variable,3.5,0,0,None,Clear
2017-07-10,7:51 AM,73,-,55,53,30.06,10,West,3.5,0,0,None,Clear
2017-09-15,10:51 AM,77,-,63,62,30.06,10,West,3.5,0,0,None,Clear
2017-09-24,5:51 AM,70,-,59,68,30.06,10,West,3.5,0,0,None,Clear
2017-08-01,8:51 AM,77,-,63,62,30.06,10,ENE,4.6,0,0,None,Clear
2017-10-07,9:51 PM,72,-,66.9,84,30.06,10,Variable,4.6,0,0,None,Scattered Clouds
2017-08-17,6:51 AM,71.1,-,55,57,30.06,10,Variable,4.6,0,0,None,Overcast
2017-11-15,10:51 PM,48.9,-,39,69,30.06,10,Variable,4.6,0,0,None,Overcast
2017-07-19,12:51 AM,79,-,71.1,77,30.06,10,Variable,4.6,0,0,None,Clear
2017-07-19,1:51 AM,78.1,-,71.1,79,30.06,10,Variable,4.6,0,0,None,Clear
2017-07-31,5:51 AM,66.9,-,55,66,30.06,10,Variable,4.6,0,0,None,Clear
2017-08-20,12:51 PM,79,-,57.9,48,30.06,10,Variable,4.6,0,0,None,Clear
2017-10-07,3:51 PM,75.9,-,66,71,30.06,10,Variable,4.6,0,0,None,Clear
2017-07-31,1:51 AM,70,-,54,57,30.06,10,West,4.6,0,0,None,Clear
2017-04-29,12:51 AM,73,-,53.1,49,30.06,10,WSW,4.6,0,0,None,Clear
2017-09-26,8:51 AM,71.1,-,66,84,30.06,6,ESE,5.8,0,0,None,Haze
2017-08-04,7:51 AM,70,-,69.1,97,30.06,3,Variable,5.8,0,0.15,None,Overcast
2017-11-09,4:51 PM,52,-,39,61,30.06,10,Variable,5.8,0,0,None,Overcast
2017-11-30,7:51 PM,52,-,44.1,74,30.06,10,Variable,5.8,0,0,None,Overcast
2017-04-23,3:51 PM,63,-,36,37,30.06,10,Variable,5.8,0,0,None,Clear
2017-08-20,11:51 AM,78.1,-,59,52,30.06,10,Variable,5.8,0,0,None,Clear
2017-11-17,2:51 PM,46.9,-,17.1,30,30.06,10,Variable,5.8,0,0,None,Clear
2017-02-06,3:51 PM,48,-,21,34,30.06,10,West,5.8,0,0,None,Clear
2017-07-31,2:51 AM,69.1,-,53.1,57,30.06,10,West,5.8,0,0,None,Clear
2017-07-04,6:51 AM,70,-,59,68,30.06,10,ENE,6.9,0,0,None,Partly Cloudy
2017-03-29,12:51 PM,57,-,35.1,44,30.06,10,Variable,6.9,0,0,None,Clear
2017-07-10,12:51 AM,73.9,-,53.1,48,30.06,10,West,6.9,0,0,None,Clear
2017-04-16,12:51 AM,61,-,55.9,83,30.06,10,WSW,6.9,0,0,None,Clear
2017-07-10,1:51 AM,73,-,52,48,30.06,10,WSW,6.9,0,0,None,Clear
2017-04-23,4:51 AM,46.9,-,36,66,30.06,10,NNE,8.1,0,0,None,Clear
2017-08-20,10:51 AM,75.9,-,57.9,54,30.06,10,West,8.1,0,0,None,Clear
2017-10-05,8:51 PM,77,-,62.1,60,30.06,10,WSW,8.1,0,0,None,Clear
2017-04-23,4:51 PM,62.1,-,36,38,30.06,10,South,9.2,0,0,None,Clear
2017-08-02,12:51 PM,79,-,69.1,72,30.05,6,Variable,4.6,0,0,Rain,Light Rain
2017-11-17,7:51 AM,39.9,-,25,55,30.05,10,North,0,0,0,None,Scattered Clouds
2017-08-11,7:51 PM,73.9,-,61,64,30.05,10,North,0,0,0,None,Overcast
2017-02-02,5:51 AM,37,-,25,62,30.05,10,North,0,0,0,None,Clear
2017-10-06,6:51 PM,72,-,64,76,30.05,10,North,0,0,0,None,Clear
2017-10-07,8:51 PM,72,-,66.9,84,30.05,10,North,0,0,0,None,Clear
2017-10-10,2:51 PM,79,-,60.1,52,30.05,10,North,0,0,0,None,Clear
2017-11-17,11:51 AM,45,-,23,42,30.05,10,North,0,0,0,None,Clear
2017-11-29,11:51 AM,61,-,32,34,30.05,10,North,0,0,0,None,Clear
2017-02-02,3:51 AM,36,-,21,55,30.05,10,Calm,0,0,0,None,Scattered Clouds
2017-09-15,12:51 PM,75.9,-,63,64,30.05,10,Calm,0,0,0,None,Scattered Clouds
2017-08-02,6:51 PM,70,-,68,93,30.05,6,Calm,0,0,0,None,Partly Cloudy
2017-08-04,10:51 AM,77,-,73,88,30.05,10,Calm,0,0,0,None,Partly Cloudy
2017-02-22,7:51 AM,45,-,35.1,68,30.05,10,Calm,0,0,0,None,Overcast
2017-01-19,8:51 AM,41,-,36,82,30.05,10,Calm,0,0,0,None,Mostly Cloudy
2017-02-06,4:51 PM,48,-,21,34,30.05,10,Calm,0,0,0,None,Clear
2017-07-10,4:51 AM,70,-,53.1,55,30.05,10,Calm,0,0,0,None,Clear
2017-07-31,4:51 AM,66.9,-,54,63,30.05,10,Calm,0,0,0,None,Clear
2017-08-01,7:51 AM,75,-,63,66,30.05,10,Calm,0,0,0,None,Clear
2017-08-02,6:51 AM,75.9,-,68,76,30.05,7,Calm,0,0,0,None,Clear
2017-08-02,7:51 AM,77,-,70,79,30.05,7,Calm,0,0,0,None,Clear
2017-09-15,9:51 AM,73.9,-,63,68,30.05,10,Calm,0,0,0,None,Clear
2017-09-23,11:51 PM,75,-,55,50,30.05,10,Calm,0,0,0,None,Clear
2017-09-24,4:51 AM,70,-,60.1,71,30.05,10,Calm,0,0,0,None,Clear
2017-09-24,9:51 PM,78.1,-,62.1,58,30.05,10,Calm,0,0,0,None,Clear
2017-09-24,10:51 PM,77,-,62.1,60,30.05,10,Calm,0,0,0,None,Clear
2017-10-10,7:51 AM,68,-,60.1,76,30.05,10,Calm,0,0,0,None,Clear
2017-10-10,5:51 PM,77,-,60.1,56,30.05,10,Calm,0,0,0,None,Clear
2017-11-24,6:51 AM,36,-,21,55,30.05,10,Calm,0,0,0,None,Clear
2017-11-24,9:51 AM,41,-,21,45,30.05,10,Calm,0,0,0,None,Clear
2017-11-21,7:51 PM,54,-,37,53,30.05,10,WSW,10.4,20.7,0,None,Clear
2017-05-19,11:51 PM,68,-,50,52,30.05,10,NE,12.7,20.7,0,None,Clear
2017-11-17,1:51 PM,46.9,-,18,32,30.05,10,WNW,10.4,23,0,None,Clear
2017-09-25,6:51 AM,72,-,66,81,30.05,10,ENE,3.5,0,0,None,Clear
2017-03-27,12:51 PM,48,-,43,83,30.05,6,NE,3.5,0,0,None,Haze
2017-09-24,8:51 PM,78.1,-,63,60,30.05,10,South,3.5,0,0,None,Clear
2017-11-30,9:51 PM,53.1,-,45,74,30.05,10,Variable,3.5,0,0,None,Overcast
2017-06-12,7:51 AM,78.1,-,61,56,30.05,10,Variable,3.5,0,0,None,Clear
2017-07-10,6:51 AM,71.1,-,54,55,30.05,10,Variable,3.5,0,0,None,Clear
2017-07-17,10:51 AM,79,-,66.9,66,30.05,10,Variable,3.5,0,0,None,Clear
2017-07-31,3:51 AM,68,-,53.1,59,30.05,10,Variable,3.5,0,0,None,Clear
2017-06-11,5:51 AM,72,-,60.1,66,30.05,10,West,3.5,0,0,None,Clear
2017-06-12,6:51 AM,77,-,61,58,30.05,10,West,3.5,0,0,None,Clear
2017-07-19,7:51 AM,79,-,72,79,30.05,9,WSW,3.5,0,0,None,Clear
2017-11-30,8:51 PM,52,-,46,80,30.05,10,Variable,4.6,0,0,None,Overcast
2017-04-29,8:51 PM,77,-,57,50,30.05,10,Variable,4.6,0,0,None,Clear
2017-07-17,6:51 PM,79,-,70,74,30.05,10,Variable,4.6,0,0,None,Clear
2017-09-15,11:51 AM,75.9,-,63,64,30.05,10,WSW,4.6,0,0,None,Partly Cloudy
2017-09-25,8:51 PM,73,-,63,71,30.05,10,SSE,5.8,0,0,None,Clear
2017-09-15,5:51 PM,77,-,64.9,66,30.05,10,Variable,5.8,0,0,None,Partly Cloudy
2017-10-05,7:51 PM,77,-,62.1,60,30.05,10,Variable,5.8,0,0,None,Overcast
2017-08-22,8:29 AM,77,-,72,84,30.05,5,Variable,5.8,0,0,None,Haze
2017-02-20,3:51 AM,46.9,-,30.9,54,30.05,10,Variable,5.8,0,0,None,Clear
2017-07-19,2:51 AM,78.1,-,71.1,79,30.05,10,Variable,5.8,0,0,None,Clear
2017-11-21,12:51 PM,55.9,-,32,40,30.05,10,Variable,5.8,0,0,None,Clear
2017-07-13,10:49 PM,75.2,-,69.8,83,30.05,10,ENE,6.9,0,0,None,Overcast
2017-08-11,6:51 PM,75,-,57.9,55,30.05,10,Variable,6.9,0,0,None,Overcast
2017-10-07,7:51 PM,73,-,66.9,81,30.05,10,Variable,6.9,0,0,None,Clear
2017-11-29,1:51 PM,63,-,30.9,30,30.05,10,Variable,6.9,0,0,None,Clear
2017-04-09,1:51 AM,46.9,-,19.9,34,30.05,10,WNW,6.9,0,0,None,Clear
2017-04-02,2:51 PM,61,-,24.1,24,30.05,10,WNW,9.2,0,0,None,Partly Cloudy
2017-08-02,1:51 PM,78.1,-,72,81,30.04,7,Calm,0,0,0,Rain,Light Rain
2017-11-30,10:51 PM,51.1,-,44.1,77,30.04,10,Variable,3.5,0,0,Rain,Light Rain
2017-01-06,8:51 AM,28.9,-,19,67,30.04,10,North,0,0,0,None,Overcast
2017-08-22,9:09 AM,78.1,-,72,81,30.04,5,North,0,0,0,None,Haze
2017-10-06,3:51 PM,79,-,55.9,45,30.04,10,North,0,0,0,None,Clear
2017-08-02,2:51 PM,78.1,-,70,76,30.04,8,Calm,0,0,0,None,Scattered Clouds
2017-02-02,4:51 AM,36,-,21.9,57,30.04,10,Calm,0,0,0,None,Overcast
2017-04-01,11:51 PM,44.1,-,34,68,30.04,10,Calm,0,0,0,None,Overcast
2017-08-11,8:51 PM,73.9,-,62.1,66,30.04,9,Calm,0,0,0,None,Overcast
2017-08-11,9:51 PM,73,-,63,71,30.04,10,Calm,0,0,0,None,Overcast
2017-09-26,2:51 AM,70,-,64.9,84,30.04,10,Calm,0,0,0,None,Overcast
2017-11-09,5:51 PM,52,-,42.1,69,30.04,10,Calm,0,0,0,None,Overcast
2017-01-18,11:12 PM,39,-,36,89,30.04,10,Calm,0,0,0,None,Mostly Cloudy
2017-08-14,7:51 AM,72,-,61,68,30.04,10,Calm,0,0,0,None,Mostly Cloudy
2017-02-02,1:51 AM,37,-,25,62,30.04,10,Calm,0,0,0,None,Clear
2017-02-06,9:51 PM,43,-,34,71,30.04,8,Calm,0,0,0,None,Clear
2017-04-02,7:51 PM,59,-,27,29,30.04,10,Calm,0,0,0,None,Clear
2017-04-28,11:51 PM,75,-,45,34,30.04,10,Calm,0,0,0,None,Clear
2017-06-11,4:51 AM,73,-,60.1,64,30.04,10,Calm,0,0,0,None,Clear
2017-06-14,10:51 PM,70,-,48,46,30.04,10,Calm,0,0,0,None,Clear
2017-07-04,5:51 AM,71.1,-,55.9,59,30.04,10,Calm,0,0,0,None,Clear
2017-07-09,9:51 PM,75,-,54,48,30.04,10,Calm,0,0,0,None,Clear
2017-07-09,10:51 PM,75,-,53.1,46,30.04,10,Calm,0,0,0,None,Clear
2017-07-10,5:51 AM,69.1,-,54,58,30.04,10,Calm,0,0,0,None,Clear
2017-07-17,7:51 AM,77,-,66,69,30.04,10,Calm,0,0,0,None,Clear
2017-07-31,9:51 PM,78.1,-,61,56,30.04,10,Calm,0,0,0,None,Clear
2017-08-01,6:51 AM,72,-,61,68,30.04,10,Calm,0,0,0,None,Clear
2017-08-02,12:51 AM,78.1,-,66,66,30.04,10,Calm,0,0,0,None,Clear
2017-08-02,5:51 AM,75.9,-,66.9,74,30.04,10,Calm,0,0,0,None,Clear
2017-08-22,3:51 AM,75,-,71.1,87,30.04,8,Calm,0,0,0,None,Clear
2017-09-15,8:51 AM,71.1,-,63,75,30.04,10,Calm,0,0,0,None,Clear
2017-09-23,8:51 PM,78.1,-,51.1,39,30.04,10,Calm,0,0,0,None,Clear
2017-09-23,9:51 PM,77,-,53.1,43,30.04,10,Calm,0,0,0,None,Clear
2017-09-23,10:51 PM,75.9,-,54,46,30.04,10,Calm,0,0,0,None,Clear
2017-09-24,12:51 AM,73,-,55.9,55,30.04,10,Calm,0,0,0,None,Clear
2017-09-24,1:51 AM,71.1,-,57,61,30.04,10,Calm,0,0,0,None,Clear
2017-09-24,2:51 AM,72,-,60.1,66,30.04,10,Calm,0,0,0,None,Clear
2017-09-24,3:51 AM,71.1,-,60.1,68,30.04,10,Calm,0,0,0,None,Clear
2017-09-24,7:51 PM,79,-,64,60,30.04,10,Calm,0,0,0,None,Clear
2017-09-24,11:51 PM,77,-,63,62,30.04,10,Calm,0,0,0,None,Clear
2017-09-25,12:51 AM,78.1,-,64.9,64,30.04,10,Calm,0,0,0,None,Clear
2017-09-25,10:51 PM,71.1,-,63,75,30.04,10,Calm,0,0,0,None,Clear
2017-09-26,1:51 AM,70,-,64.9,84,30.04,10,Calm,0,0,0,None,Clear
2017-09-26,11:51 AM,77,-,66.9,71,30.04,10,Calm,0,0,0,None,Clear
2017-10-10,3:51 PM,79,-,60.1,52,30.04,10,Calm,0,0,0,None,Clear
2017-11-23,10:51 PM,37,-,21,52,30.04,10,Calm,0,0,0,None,Clear
2017-11-24,5:51 AM,36,-,21,55,30.04,10,Calm,0,0,0,None,Clear
2017-11-27,7:51 AM,41,-,25,53,30.04,10,Calm,0,0,0,None,Clear
2017-12-08,12:51 PM,37,-,15.1,41,30.04,10,Calm,0,0,0,None,Clear
2017-04-02,3:51 PM,62.1,-,25,24,30.04,10,WNW,8.1,17.3,0,None,Partly Cloudy
2017-11-21,10:51 PM,54,-,39.9,59,30.04,10,WSW,6.9,18.4,0,None,Clear
2017-03-29,2:51 PM,57,-,28.9,34,30.04,10,WNW,8.1,19.6,0,None,Clear
2017-11-27,10:51 AM,46.9,-,26.1,44,30.04,10,WNW,9.2,19.6,0,None,Clear
2017-03-29,4:51 PM,57,-,27,32,30.04,10,Variable,6.9,20.7,0,None,Clear
2017-03-29,3:51 PM,57.9,-,28.9,33,30.04,10,WNW,10.4,20.7,0,None,Clear
2017-11-27,11:51 AM,48,-,25,41,30.04,10,NW,11.5,20.7,0,None,Clear
2017-09-26,3:51 AM,70,-,64.9,84,30.04,10,NE,3.5,0,0,None,Overcast
2017-08-17,5:51 AM,70,-,55,59,30.04,10,NNE,3.5,0,0,None,Mostly Cloudy
2017-10-06,5:51 PM,75,-,62.1,64,30.04,10,South,3.5,0,0,None,Clear
2017-07-04,6:51 PM,79,-,59,50,30.04,10,SSW,3.5,0,0,None,Clear
2017-09-26,7:51 AM,70,-,66,87,30.04,8,Variable,3.5,0,0,None,Partly Cloudy
2017-10-07,10:51 PM,72,-,66.9,84,30.04,10,Variable,3.5,0,0,None,Mostly Cloudy
2017-03-20,3:51 PM,50,-,10,20,30.04,10,Variable,3.5,0,0,None,Clear
2017-07-19,3:51 AM,77,-,71.1,82,30.04,10,Variable,3.5,0,0,None,Clear
2017-07-19,6:51 AM,77,-,72,84,30.04,10,Variable,3.5,0,0,None,Clear
2017-08-14,9:51 AM,78.1,-,63,60,30.04,10,Variable,3.5,0,0,None,Clear
2017-09-26,6:51 AM,69.1,-,66,90,30.04,10,Variable,3.5,0,0,None,Clear
2017-10-07,4:51 PM,75.9,-,64.9,69,30.04,10,Variable,3.5,0,0,None,Clear
2017-11-21,6:51 PM,53.1,-,35.1,50,30.04,10,Variable,3.5,0,0,None,Clear
2017-11-21,9:51 PM,52,-,39.9,63,30.04,10,Variable,3.5,0,0,None,Clear
2017-07-19,4:51 AM,77,-,71.1,82,30.04,10,West,3.5,0,0,None,Clear
2017-08-01,11:51 PM,79,-,64.9,62,30.04,10,WSW,3.5,0,0,None,Clear
2017-08-14,6:51 AM,70,-,60.1,71,30.04,10,East,4.6,0,0,None,Partly Cloudy
2017-04-23,2:51 AM,48,-,37,66,30.04,10,NNW,4.6,0,0,None,Clear
2017-04-09,12:51 AM,46.9,-,19.9,34,30.04,10,NW,4.6,0,0,None,Clear
2017-04-02,6:51 PM,60.1,-,27,28,30.04,10,Variable,4.6,0,0,None,Clear
2017-04-16,1:51 AM,61,-,55.9,83,30.04,10,Variable,4.6,0,0,None,Clear
2017-04-23,3:51 AM,46.9,-,37,68,30.04,10,Variable,4.6,0,0,None,Clear
2017-04-28,9:51 PM,75.9,-,41,29,30.04,10,Variable,4.6,0,0,None,Clear
2017-06-11,1:51 AM,75,-,59,57,30.04,10,Variable,4.6,0,0,None,Clear
2017-06-29,9:51 PM,75.9,-,63,64,30.04,10,Variable,4.6,0,0,None,Clear
2017-10-07,5:51 PM,75,-,64.9,71,30.04,9,Variable,4.6,0,0,None,Clear
2017-09-15,1:51 PM,79,-,63,58,30.04,10,West,4.6,0,0,None,Mostly Cloudy
2017-09-15,2:48 PM,79,-,63,58,30.04,10,West,4.6,0,0,None,Mostly Cloudy
2017-04-28,10:51 PM,75,-,41,29,30.04,10,WSW,4.6,0,0,None,Clear
2017-08-14,8:51 AM,75.9,-,61,60,30.04,10,ENE,5.8,0,0,None,Clear
2017-08-14,10:51 AM,79,-,63,58,30.04,10,ENE,5.8,0,0,None,Clear
2017-11-15,11:51 PM,51.1,-,41,68,30.04,10,SSE,5.8,0,0,None,Overcast
2017-12-01,1:48 AM,50,-,44.6,82,30.04,10,Variable,5.8,0,0,None,Overcast
2017-09-23,8:51 AM,72,-,54,53,30.04,10,Variable,5.8,0,0,None,Clear
2017-10-07,6:51 PM,73,-,66,79,30.04,10,Variable,5.8,0,0,None,Clear
2017-11-21,1:51 PM,57.9,-,28.9,33,30.04,10,Variable,5.8,0,0,None,Clear
2017-07-19,5:51 AM,77,-,72,84,30.04,10,West,5.8,0,0,None,Clear
2017-10-06,4:51 PM,78.1,-,57.9,50,30.04,10,West,5.8,0,0,None,Clear
2017-12-01,2:29 AM,48.9,-,44.1,83,30.04,10,Variable,6.9,0,0,None,Overcast
2017-08-22,8:38 AM,77,-,72,84,30.04,5,Variable,6.9,0,0,None,Haze
2017-11-21,8:51 PM,53.1,-,39,59,30.04,10,Variable,6.9,0,0,None,Clear
2017-07-13,10:04 PM,78.1,-,69.1,74,30.04,10,ENE,8.1,0,0,None,Overcast
2017-07-13,10:23 PM,77,-,69.1,76,30.04,10,ENE,8.1,0,0,None,Overcast
2017-07-13,11:51 PM,73.9,-,70,87,30.04,10,ENE,8.1,0,0,None,Overcast
2017-04-02,5:51 PM,61,-,25,25,30.04,10,North,8.1,0,0,None,Partly Cloudy
2017-08-20,9:51 AM,73.9,-,59,59,30.04,10,WNW,8.1,0,0,None,Partly Cloudy
2017-08-20,8:51 AM,71.1,-,60.1,68,30.04,10,WNW,8.1,0,0,None,Clear
2017-11-27,2:51 PM,50,-,24.1,36,30.04,10,WNW,9.2,0,0,None,Clear
2017-04-02,4:51 PM,62.1,-,26.1,25,30.04,10,NW,10.4,0,0,None,Partly Cloudy
2017-12-07,11:51 PM,39,-,25,57,30.03,10,North,0,0,0,None,Scattered Clouds
2017-12-01,1:03 AM,50,-,45,83,30.03,10,North,0,0,0,None,Overcast
2017-04-08,11:51 PM,48.9,-,19,31,30.03,10,North,0,0,0,None,Clear
2017-09-26,5:51 AM,69.1,-,66,90,30.03,9,Calm,0,0,0,None,Partly Cloudy
2017-01-18,8:51 PM,39.9,-,36,86,30.03,10,Calm,0,0,0,None,Overcast
2017-01-18,10:51 PM,39.9,-,36,86,30.03,10,Calm,0,0,0,None,Overcast
2017-01-19,1:51 AM,39.9,-,35.1,83,30.03,10,Calm,0,0,0,None,Overcast
2017-01-19,3:51 AM,39.9,-,36,86,30.03,10,Calm,0,0,0,None,Overcast
2017-01-19,5:40 PM,44.1,-,33.1,65,30.03,10,Calm,0,0,0,None,Overcast
2017-01-20,10:51 AM,42.1,-,32,67,30.03,10,Calm,0,0,0,None,Overcast
2017-03-27,1:51 PM,51.1,-,45,80,30.03,7,Calm,0,0,0,None,Overcast
2017-12-01,12:47 AM,50,-,44.6,82,30.03,10,Calm,0,0,0,None,Overcast
2017-01-19,8:51 PM,42.1,-,32,67,30.03,10,Calm,0,0,0,None,Mostly Cloudy
2017-08-14,5:51 AM,70,-,62.1,76,30.03,10,Calm,0,0,0,None,Mostly Cloudy
2017-08-14,11:51 AM,77,-,64,64,30.03,10,Calm,0,0,0,None,Mostly Cloudy
2017-12-07,10:51 PM,39.9,-,25,55,30.03,10,Calm,0,0,0,None,Mostly Cloudy
2017-06-14,11:51 PM,69.1,-,50,51,30.03,10,Calm,0,0,0,None,Clear
2017-06-22,8:51 AM,75,-,55.9,51,30.03,10,Calm,0,0,0,None,Clear
2017-07-17,6:51 AM,73.9,-,66.9,79,30.03,10,Calm,0,0,0,None,Clear
2017-07-31,8:51 PM,79,-,60.1,52,30.03,10,Calm,0,0,0,None,Clear
2017-07-31,10:51 PM,77,-,61,58,30.03,10,Calm,0,0,0,None,Clear
2017-08-01,5:51 AM,71.1,-,60.1,68,30.03,10,Calm,0,0,0,None,Clear
2017-08-02,2:51 AM,78.1,-,66.9,68,30.03,10,Calm,0,0,0,None,Clear
2017-08-02,4:51 AM,77,-,66.9,71,30.03,10,Calm,0,0,0,None,Clear
2017-08-20,7:51 AM,70,-,61,73,30.03,10,Calm,0,0,0,None,Clear
2017-08-22,5:51 AM,75,-,70,84,30.03,9,Calm,0,0,0,None,Clear
2017-08-22,6:51 AM,75,-,71.1,87,30.03,8,Calm,0,0,0,None,Clear
2017-09-15,7:51 AM,68,-,63,84,30.03,10,Calm,0,0,0,None,Clear
2017-09-25,5:51 AM,72,-,66,81,30.03,10,Calm,0,0,0,None,Clear
2017-09-26,12:51 AM,71.1,-,64.9,81,30.03,10,Calm,0,0,0,None,Clear
2017-11-21,5:51 PM,54,-,30,40,30.03,10,Calm,0,0,0,None,Clear
2017-12-08,3:51 PM,37,-,15.1,41,30.03,10,Calm,0,0,0,None,Clear
2017-10-05,6:51 PM,79,-,61,54,30.03,10,Variable,4.6,17.3,0,None,Partly Cloudy
2017-11-27,12:51 PM,48.9,-,26.1,41,30.03,10,NW,15,20.7,0,None,Clear
2017-08-17,4:51 AM,71.1,-,54,55,30.03,10,ENE,3.5,0,0,None,Partly Cloudy
2017-09-26,4:51 AM,69.1,-,64.9,87,30.03,10,NE,3.5,0,0,None,Clear
2017-09-25,11:51 PM,71.1,-,64.9,81,30.03,10,NNE,3.5,0,0,None,Clear
2017-09-23,7:51 PM,81,-,48.9,33,30.03,10,North,3.5,0,0,None,Clear
2017-04-23,1:51 AM,48,-,37.9,68,30.03,10,Variable,3.5,0,0,None,Clear
2017-06-22,7:51 AM,72,-,57,59,30.03,10,Variable,3.5,0,0,None,Clear
2017-07-04,4:51 AM,73,-,57,57,30.03,10,Variable,3.5,0,0,None,Clear
2017-10-10,6:51 AM,66,-,61,84,30.03,10,Variable,3.5,0,0,None,Clear
2017-06-12,5:51 AM,75.9,-,60.1,58,30.03,10,West,3.5,0,0,None,Clear
2017-08-02,3:51 AM,77,-,66,69,30.03,10,West,3.5,0,0,None,Clear
2017-08-22,4:51 AM,75,-,71.1,87,30.03,8,WSW,3.5,0,0,None,Partly Cloudy
2017-08-02,1:51 AM,78.1,-,66.9,68,30.03,10,WSW,3.5,0,0,None,Clear
2017-11-09,6:51 PM,52,-,44.1,74,30.03,10,SSE,4.6,0,0,None,Mostly Cloudy
2017-06-29,6:51 PM,78.1,-,66,66,30.03,10,Variable,4.6,0,0,None,Partly Cloudy
2017-04-23,12:51 AM,50,-,39,66,30.03,10,Variable,4.6,0,0,None,Clear
2017-06-29,7:51 PM,78.1,-,64.9,64,30.03,10,Variable,4.6,0,0,None,Clear
2017-06-30,12:51 AM,73.9,-,61,64,30.03,10,Variable,4.6,0,0,None,Clear
2017-06-11,2:51 AM,73.9,-,59,59,30.03,10,West,4.6,0,0,None,Clear
2017-08-22,7:51 AM,75.9,-,72,87,30.03,6,WSW,4.6,0,0,None,Mostly Cloudy
2017-08-17,2:51 AM,73,-,57.9,59,30.03,10,NNE,5.8,0,0,None,Mostly Cloudy
2017-08-17,1:51 AM,73.9,-,60.1,62,30.03,10,NNE,5.8,0,0,None,Clear
2017-03-07,10:51 PM,54,-,46,75,30.03,10,South,5.8,0,0,None,Partly Cloudy
2017-07-09,11:51 AM,78.1,-,52,40,30.03,10,Variable,5.8,0,0,None,Partly Cloudy
2017-09-15,2:51 PM,78.1,-,64,62,30.03,10,Variable,5.8,0,0,None,Overcast
2017-10-07,11:51 PM,72,-,66.9,84,30.03,10,Variable,5.8,0,0,None,Overcast
2017-10-10,4:51 PM,79,-,59,50,30.03,10,Variable,5.8,0,0,None,Clear
2017-11-27,1:51 PM,50,-,25,38,30.03,10,Variable,5.8,0,0,None,Clear
2017-04-29,1:51 AM,72,-,55.9,57,30.03,10,WSW,5.8,0,0,None,Clear
2017-06-11,3:51 AM,73.9,-,59,59,30.03,10,Variable,6.9,0,0,None,Clear
2017-06-29,10:51 PM,77,-,62.1,60,30.03,10,Variable,6.9,0,0,None,Clear
2017-06-29,11:51 PM,75,-,63,66,30.03,10,Variable,6.9,0,0,None,Clear
2017-07-13,9:42 PM,78.1,-,69.1,74,30.03,10,ENE,8.1,0,0,None,Overcast
2017-01-06,7:04 AM,28,-,21.9,78,30.02,1.8,Calm,0,0,0,Snow,Light Snow
2017-11-30,11:51 PM,50,-,45,83,30.02,10,Variable,3.5,0,0.03,Rain,Light Rain
2017-07-03,4:49 PM,71.6,-,69.8,94,30.02,0.2,NNW,3.5,0,0.41,"Fog	",Rain
2017-02-06,4:51 AM,39,-,21,49,30.02,10,North,0,0,0,None,Overcast
2017-05-17,8:51 AM,70,-,53.1,55,30.02,10,North,0,0,0,None,Clear
2017-08-16,11:51 PM,75.9,-,62.1,62,30.02,10,North,0,0,0,None,Clear
2017-12-08,12:51 AM,39,-,24.1,55,30.02,10,North,0,0,0,None,Clear
2017-08-14,1:51 AM,72,-,62.1,71,30.02,10,Calm,0,0,0,None,Partly Cloudy
2017-01-19,2:51 AM,39,-,35.1,86,30.02,10,Calm,0,0,0,None,Overcast
2017-04-01,9:51 PM,45,-,34,65,30.02,10,Calm,0,0,0,None,Overcast
2017-06-14,8:29 AM,69.1,-,66.9,93,30.02,7,Calm,0,0,0.02,None,Overcast
2017-06-14,8:38 AM,70,-,69.1,97,30.02,6,Calm,0,0,0.02,None,Overcast
2017-12-01,2:51 AM,48.9,-,43,80,30.02,10,Calm,0,0,0,None,Overcast
2017-01-19,12:51 AM,39,-,35.1,86,30.02,10,Calm,0,0,0,None,Mostly Cloudy
2017-08-11,10:51 PM,73,-,64,73,30.02,10,Calm,0,0,0,None,Mostly Cloudy
2017-12-08,6:51 PM,36,-,17.1,46,30.02,10,Calm,0,0,0,None,Mostly Cloudy
2017-02-06,10:51 PM,44.1,-,32,63,30.02,10,Calm,0,0,0,None,Clear
2017-06-12,4:51 AM,75.9,-,62.1,62,30.02,10,Calm,0,0,0,None,Clear
2017-07-31,11:51 PM,77,-,62.1,60,30.02,10,Calm,0,0,0,None,Clear
2017-08-14,12:51 AM,72,-,61,68,30.02,10,Calm,0,0,0,None,Clear
2017-08-14,2:51 AM,72,-,62.1,71,30.02,10,Calm,0,0,0,None,Clear
2017-08-14,12:51 PM,78.1,-,64,62,30.02,10,Calm,0,0,0,None,Clear
2017-08-17,12:51 AM,73.9,-,63,68,30.02,10,Calm,0,0,0,None,Clear
2017-09-22,7:51 AM,66,-,50,56,30.02,10,Calm,0,0,0,None,Clear
2017-09-25,1:51 AM,75.9,-,64.9,69,30.02,10,Calm,0,0,0,None,Clear
2017-09-25,2:51 AM,75,-,64.9,71,30.02,10,Calm,0,0,0,None,Clear
2017-09-25,4:51 AM,73,-,64.9,76,30.02,10,Calm,0,0,0,None,Clear
2017-11-23,1:51 PM,42.1,-,18,38,30.02,10,Calm,0,0,0,None,Clear
2017-11-24,11:51 AM,46.9,-,21.9,37,30.02,10,Calm,0,0,0,None,Clear
2017-12-07,8:51 AM,39,-,23,53,30.02,10,Calm,0,0,0,None,Clear
2017-09-22,9:51 AM,72,-,48.9,44,30.02,10,Variable,6.9,17.3,0,None,Clear
2017-09-22,1:51 AM,72,-,51.1,48,30.02,10,ENE,9.2,17.3,0,None,Clear
2017-03-27,2:51 PM,51.1,-,45,80,30.02,5,NW,3.5,0,0,None,Haze
2017-08-14,3:51 AM,72,-,62.1,71,30.02,10,SE,3.5,0,0,None,Clear
2017-07-09,8:51 PM,73.9,-,57.9,57,30.02,10,South,3.5,0,0,None,Clear
2017-08-02,3:51 PM,78.1,-,72,81,30.02,7,Variable,3.5,0,0,None,Scattered Clouds
2017-07-09,12:51 PM,79,-,53.1,40,30.02,10,Variable,3.5,0,0,None,Partly Cloudy
2017-06-14,8:18 AM,69.1,-,66.9,93,30.02,8,Variable,3.5,0,0.02,None,Overcast
2017-04-16,2:51 AM,61,-,55.9,83,30.02,10,Variable,3.5,0,0,None,Clear
2017-04-28,8:51 PM,77,-,41,28,30.02,10,Variable,3.5,0,0,None,Clear
2017-04-29,9:51 AM,72,-,64.9,78,30.02,8,Variable,3.5,0,0,None,Clear
2017-06-10,10:51 PM,79,-,57,47,30.02,10,Variable,3.5,0,0,None,Clear
2017-06-11,12:51 AM,77,-,57.9,52,30.02,10,Variable,3.5,0,0,None,Clear
2017-07-09,10:51 AM,75,-,53.1,46,30.02,10,Variable,3.5,0,0,None,Clear
2017-07-17,5:51 AM,73.9,-,66,76,30.02,10,Variable,3.5,0,0,None,Clear
2017-11-21,4:51 PM,54,-,28.9,38,30.02,10,Variable,3.5,0,0,None,Clear
2017-04-29,2:51 AM,70,-,57.9,65,30.02,10,West,3.5,0,0,None,Partly Cloudy
2017-12-01,1:51 AM,48.9,-,44.1,83,30.02,10,West,3.5,0,0,None,Overcast
2017-08-13,11:51 PM,73.9,-,59,59,30.02,10,West,3.5,0,0,None,Clear
2017-08-01,4:51 AM,73.9,-,62.1,66,30.02,10,WNW,3.5,0,0,None,Clear
2017-12-01,3:51 AM,48,-,43,83,30.02,10,NW,4.6,0,0,None,Overcast
2017-11-21,3:51 PM,55.9,-,32,40,30.02,10,South,4.6,0,0,None,Clear
2017-06-29,5:51 PM,79,-,66,64,30.02,10,Variable,4.6,0,0,None,Partly Cloudy
2017-07-31,7:51 PM,79,-,62.1,56,30.02,10,Variable,4.6,0,0,None,Mostly Cloudy
2017-05-17,7:51 AM,68,-,52,56,30.02,10,Variable,4.6,0,0,None,Clear
2017-06-10,11:51 PM,77,-,57,50,30.02,10,Variable,4.6,0,0,None,Clear
2017-06-29,8:51 PM,77,-,63,62,30.02,10,Variable,4.6,0,0,None,Clear
2017-09-21,10:51 PM,73.9,-,63,68,30.02,10,Variable,4.6,0,0,None,Clear
2017-09-23,1:51 PM,86,-,50,29,30.02,10,Variable,4.6,0,0,None,Clear
2017-08-14,4:51 AM,72,-,64,76,30.02,10,NE,5.8,0,0,None,Clear
2017-11-16,1:15 AM,52,-,43,71,30.02,10,Variable,5.8,0,0,None,Overcast
2017-06-30,1:51 AM,73.9,-,60.1,62,30.02,10,Variable,5.8,0,0,None,Clear
2017-09-21,9:51 AM,73.9,-,64,71,30.02,10,Variable,5.8,0,0,None,Clear
2017-11-21,11:51 PM,54,-,39.9,59,30.02,10,Variable,5.8,0,0,None,Clear
2017-07-13,10:51 PM,75.9,-,70,82,30.02,10,ENE,6.9,0,0,None,Overcast
2017-03-27,4:34 PM,52,-,45,77,30.02,8,NE,6.9,0,0,None,Overcast
2017-09-21,9:51 PM,75,-,62.1,64,30.02,10,Variable,6.9,0,0,None,Scattered Clouds
2017-09-23,2:04 AM,72,-,55.9,57,30.02,10,Variable,6.9,0,0,None,Mostly Cloudy
2017-08-22,10:02 AM,79,-,73,82,30.02,6,Variable,6.9,0,0,None,Haze
2017-02-20,2:51 AM,48.9,-,32,52,30.02,10,Variable,6.9,0,0,None,Clear
2017-09-21,10:51 AM,77,-,64,64,30.02,10,Variable,6.9,0,0,None,Clear
2017-09-21,8:51 PM,75.9,-,63,64,30.02,10,Variable,6.9,0,0,None,Clear
2017-09-22,8:51 AM,69.1,-,48,47,30.02,10,NNE,8.1,0,0,None,Clear
2017-08-17,3:51 AM,73,-,55,53,30.02,10,ENE,9.2,0,0,None,Overcast
2017-04-29,5:33 AM,64,-,63,96,30.01,2,Calm,0,0,0.05,Rain,Light Rain
2017-06-14,7:59 AM,69.1,-,68,96,30.01,2.5,Calm,0,0,0.02,Rain,Light Rain
2017-06-14,8:09 AM,69.1,-,68,96,30.01,3,Calm,0,0,0.02,Rain,Light Rain
2017-06-14,7:36 AM,70,-,68,93,30.01,1.8,Variable,6.9,0,0.02,Rain,Heavy Rain
2017-07-03,4:42 PM,72,-,69.1,91,30.01,0.2,Variable,4.6,27.6,0.13,"Fog	",Rain
2017-07-09,4:51 PM,81,-,52,36,30.01,10,North,0,0,0,None,Partly Cloudy
2017-11-09,7:51 PM,53.1,-,45,74,30.01,10,North,0,0,0,None,Overcast
2017-12-07,8:51 PM,41,-,19.9,43,30.01,10,North,0,0,0,None,Overcast
2017-12-11,6:51 AM,34,-,25,70,30.01,10,North,0,0,0,None,Overcast
2017-03-20,4:51 PM,50,-,8.1,18,30.01,10,North,0,0,0,None,Mostly Cloudy
2017-01-01,6:51 AM,44.1,-,25,47,30.01,10,North,0,0,0,None,Clear
2017-04-16,3:51 AM,60.1,-,57,90,30.01,10,North,0,0,0,None,Clear
2017-06-30,7:51 AM,73.9,-,63,68,30.01,10,North,0,0,0,None,Clear
2017-07-09,6:51 PM,79,-,54,42,30.01,10,North,0,0,0,None,Clear
2017-09-21,11:51 AM,79,-,64,60,30.01,10,North,0,0,0,None,Clear
2017-12-06,10:51 AM,41,-,19.9,43,30.01,10,North,0,0,0,None,Clear
2017-03-27,9:51 PM,48,-,45,89,30.01,6,Calm,0,0,0,None,Scattered Clouds
2017-07-04,12:51 AM,73,-,64.9,76,30.01,10,Calm,0,0,0,None,Scattered Clouds
2017-07-03,11:51 PM,73,-,64.9,76,30.01,10,Calm,0,0,0,None,Partly Cloudy
2017-01-18,11:51 PM,39.9,-,36,86,30.01,10,Calm,0,0,0,None,Overcast
2017-01-19,4:51 AM,41,-,36,82,30.01,10,Calm,0,0,0,None,Overcast
2017-01-19,11:51 PM,43,-,33.1,68,30.01,10,Calm,0,0,0,None,Overcast
2017-07-13,9:51 PM,78.1,-,69.1,74,30.01,10,Calm,0,0,0,None,Overcast
2017-11-16,12:51 AM,52,-,42.1,69,30.01,10,Calm,0,0,0,None,Overcast
2017-08-11,11:51 PM,73,-,64.9,76,30.01,10,Calm,0,0,0,None,Mostly Cloudy
2017-06-22,6:51 AM,70,-,57.9,65,30.01,10,Calm,0,0,0,None,Clear
2017-06-22,9:51 AM,77,-,55,47,30.01,10,Calm,0,0,0,None,Clear
2017-07-09,7:51 PM,78.1,-,54,43,30.01,10,Calm,0,0,0,None,Clear
2017-07-17,4:51 AM,73,-,66,79,30.01,10,Calm,0,0,0,None,Clear
2017-08-01,12:51 AM,75.9,-,64,67,30.01,10,Calm,0,0,0,None,Clear
2017-08-01,2:51 AM,75,-,64,69,30.01,10,Calm,0,0,0,None,Clear
2017-08-01,3:51 AM,73.9,-,63,68,30.01,10,Calm,0,0,0,None,Clear
2017-08-16,10:51 PM,78.1,-,61,56,30.01,10,Calm,0,0,0,None,Clear
2017-09-15,6:51 AM,66.9,-,63,87,30.01,10,Calm,0,0,0,None,Clear
2017-10-10,5:51 AM,68,-,61,78,30.01,10,Calm,0,0,0,None,Clear
2017-11-18,2:51 AM,35.1,-,19.9,54,30.01,10,Calm,0,0,0,None,Clear
2017-11-21,2:51 PM,57.9,-,28.9,33,30.01,10,Calm,0,0,0,None,Clear
2017-11-23,2:51 PM,42.1,-,17.1,37,30.01,10,Calm,0,0,0,None,Clear
2017-11-23,4:51 PM,39.9,-,19,43,30.01,10,Calm,0,0,0,None,Clear
2017-12-20,7:51 PM,37,-,16,42,30.01,10,Calm,0,0,0,None,Clear
2017-06-30,2:51 AM,73.9,-,61,64,30.01,10,Variable,6.9,18.4,0,None,Clear
2017-06-30,9:51 AM,79,-,64,60,30.01,10,West,3.5,19.6,0,None,Clear
2017-04-29,7:51 PM,79,-,57,47,30.01,10,WNW,9.2,21.9,0,None,Clear
2017-05-19,10:51 PM,73,-,52,48,30.01,10,NNE,11.5,23,0,None,Clear
2017-03-27,4:25 PM,53.1,-,46,77,30.01,7,East,3.5,0,0,None,Mostly Cloudy
2017-09-25,3:51 AM,73.9,-,64.9,73,30.01,10,NE,3.5,0,0,None,Clear
2017-04-29,3:51 AM,70,-,57.9,65,30.01,10,Variable,3.5,0,0,None,Scattered Clouds
2017-03-07,11:51 PM,55.9,-,46.9,72,30.01,10,Variable,3.5,0,0,None,Overcast
2017-04-29,8:51 AM,69.1,-,64.9,87,30.01,8,Variable,3.5,0,0,None,Clear
2017-05-17,9:51 AM,73,-,54,51,30.01,10,Variable,3.5,0,0,None,Clear
2017-06-14,9:51 PM,70,-,48.9,47,30.01,10,Variable,3.5,0,0,None,Clear
2017-07-09,8:51 AM,71.1,-,53.1,53,30.01,10,Variable,3.5,0,0,None,Clear
2017-09-21,11:51 PM,73,-,62.1,68,30.01,10,Variable,3.5,0,0,None,Clear
2017-02-22,10:51 AM,48,-,36,63,30.01,10,West,3.5,0,0,None,Clear
2017-08-01,1:51 AM,75.9,-,64,67,30.01,10,West,3.5,0,0,None,Clear
2017-08-13,10:51 PM,75.9,-,59,56,30.01,10,WNW,3.5,0,0,None,Clear
2017-03-27,6:20 PM,50,-,44.1,80,30.01,7,NNE,4.6,0,0,None,Scattered Clouds
2017-09-23,6:51 PM,82,-,48.9,31,30.01,10,North,4.6,0,0,None,Clear
2017-05-17,5:51 AM,64.9,-,50,58,30.01,10,Variable,4.6,0,0,None,Clear
2017-06-30,8:51 AM,75.9,-,64.9,69,30.01,10,Variable,4.6,0,0,None,Clear
2017-07-09,9:51 AM,73.9,-,50,43,30.01,10,Variable,4.6,0,0,None,Clear
2017-08-20,6:51 AM,70,-,61,73,30.01,10,Variable,4.6,0,0,None,Clear
2017-09-21,7:51 PM,77,-,63,62,30.01,10,Variable,4.6,0,0,None,Clear
2017-09-23,7:51 AM,69.1,-,54,58,30.01,10,Variable,4.6,0,0,None,Clear
2017-12-01,12:51 AM,50,-,45,83,30.01,10,West,4.6,0,0,None,Overcast
2017-11-24,12:51 PM,48,-,19.9,33,30.01,10,WSW,4.6,0,0,None,Clear
2017-03-27,11:51 PM,46.9,-,44.1,90,30.01,6,ESE,5.8,0,0,None,Overcast
2017-09-23,3:10 AM,72,-,55,55,30.01,10,Variable,5.8,0,0,None,Scattered Clouds
2017-07-09,5:51 PM,78.1,-,55,45,30.01,10,Variable,5.8,0,0,None,Clear
2017-09-21,8:51 AM,72,-,64,76,30.01,10,Variable,5.8,0,0,None,Clear
2017-09-22,10:51 AM,73,-,48.9,42,30.01,10,Variable,5.8,0,0,None,Clear
2017-09-23,6:51 AM,68,-,53.1,59,30.01,10,Variable,5.8,0,0,None,Clear
2017-01-19,11:51 AM,46.9,-,34,61,30.01,10,West,5.8,0,0,None,Scattered Clouds
2017-05-17,6:51 AM,66,-,52,60,30.01,10,West,5.8,0,0,None,Clear
2017-09-23,5:51 PM,84,-,48,28,30.01,10,NE,6.9,0,0,None,Clear
2017-09-22,6:51 AM,66.9,-,48.9,52,30.01,10,NNE,6.9,0,0,None,Clear
2017-07-04,3:51 AM,73,-,62.1,68,30.01,10,Variable,6.9,0,0,None,Scattered Clouds
2017-08-22,8:51 AM,77,-,72,84,30.01,5,Variable,6.9,0,0,None,Haze
2017-05-17,4:51 AM,64.9,-,50,58,30.01,10,Variable,6.9,0,0,None,Clear
2017-09-22,12:51 AM,73,-,59,61,30.01,10,Variable,6.9,0,0,None,Clear
2017-09-23,2:51 PM,86,-,48,27,30.01,10,NE,8.1,0,0,None,Clear
2017-09-22,2:51 AM,70,-,48.9,47,30.01,10,NNE,8.1,0,0,None,Clear
2017-09-22,5:51 AM,68,-,48,49,30.01,10,NNE,8.1,0,0,None,Clear
2017-09-21,12:51 PM,79,-,62.1,56,30.01,10,North,8.1,0,0,None,Clear
2017-02-20,1:51 AM,50,-,33.1,52,30.01,10,WNW,8.1,0,0,None,Clear
2017-01-19,1:04 PM,46.9,-,34,61,30.01,10,WNW,9.2,0,0,None,Mostly Cloudy
2017-07-09,3:51 PM,80.1,-,52,38,30.01,10,WNW,9.2,0,0,None,Clear
2017-03-27,3:51 PM,52,-,46,80,30,6,Calm,0,0,0,Rain,Light Rain
2017-03-28,2:22 AM,45,-,43,93,30,2,Calm,0,0,0.01,Rain,Light Rain
2017-09-26,1:51 PM,78.1,-,66,66,30,10,North,0,0,0,None,Clear
2017-07-17,2:51 AM,73.9,-,66,76,30,10,Calm,0,0,0,None,Partly Cloudy
2017-07-17,3:51 AM,73.9,-,66,76,30,10,Calm,0,0,0,None,Partly Cloudy
2017-02-01,7:51 PM,42.1,-,28.9,60,30,10,Calm,0,0,0,None,Overcast
2017-03-20,10:51 PM,46,-,21,37,30,10,Calm,0,0,0,None,Overcast
2017-03-27,4:51 PM,51.1,-,45,80,30,8,Calm,0,0,0,None,Overcast
2017-01-06,6:51 AM,28,-,21.9,78,30,6,Calm,0,0,0,None,Haze
2017-06-10,10:51 AM,77,-,55.9,48,30,10,Calm,0,0,0,None,Clear
2017-07-03,9:51 PM,79,-,62.1,56,30,10,Calm,0,0,0,None,Clear
2017-07-16,11:51 PM,75.9,-,64.9,69,30,10,Calm,0,0,0,None,Clear
2017-07-17,12:51 AM,75,-,64.9,71,30,10,Calm,0,0,0,None,Clear
2017-07-17,1:51 AM,75,-,64.9,71,30,10,Calm,0,0,0,None,Clear
2017-08-13,9:51 PM,77,-,57.9,52,30,10,Calm,0,0,0,None,Clear
2017-09-23,5:51 AM,69.1,-,53.1,57,30,10,Calm,0,0,0,None,Clear
2017-11-18,4:51 AM,36,-,19.9,52,30,10,Calm,0,0,0,None,Clear
2017-11-16,2:23 AM,53.1,-,44.1,71,30,10,Variable,3.5,0,0,None,Overcast
2017-06-10,9:51 AM,75,-,54,48,30,10,Variable,3.5,0,0,None,Mostly Cloudy
2017-06-14,11:51 AM,78.1,-,61,56,30,10,Variable,3.5,0,0,None,Mostly Cloudy
2017-07-01,8:18 AM,78.1,-,71.1,79,30,10,Variable,3.5,0,0,None,Mostly Cloudy
2017-04-08,10:51 PM,50,-,19,29,30,10,Variable,3.5,0,0,None,Clear
2017-07-16,10:51 PM,75.9,-,64,67,30,10,Variable,3.5,0,0,None,Clear
2017-08-13,8:51 PM,77,-,57.9,52,30,10,Variable,3.5,0,0,None,Clear
2017-09-21,7:51 AM,72,-,64,76,30,10,Variable,3.5,0,0,None,Clear
2017-04-28,9:34 AM,66,-,60.1,81,30,3,West,3.5,0,0,None,Haze
2017-08-16,9:51 PM,78.1,-,61,56,30,10,WNW,3.5,0,0,None,Clear
2017-03-27,10:51 PM,48,-,45,89,30,6,ENE,4.6,0,0,None,Overcast
2017-06-22,5:51 AM,68,-,57,68,30,10,NE,4.6,0,0,None,Clear
2017-07-04,1:51 AM,73,-,66,79,30,10,NE,4.6,0,0,None,Clear
2017-08-22,9:51 AM,79,-,73,82,30,6,SW,4.6,0,0,None,Haze
2017-11-09,8:51 PM,54,-,45,72,30,10,Variable,4.6,0,0,None,Overcast
2017-04-28,7:51 PM,77,-,46,33,30,10,Variable,4.6,0,0,None,Clear
2017-06-12,3:51 AM,77,-,63,62,30,10,Variable,4.6,0,0,None,Clear
2017-07-04,2:51 AM,72,-,66.9,84,30,10,NNE,5.8,0,0,None,Partly Cloudy
2017-08-31,11:51 PM,66,-,48,52,30,10,Variable,5.8,0,0,None,Partly Cloudy
2017-05-13,12:51 AM,53.1,-,45,74,30,10,Variable,5.8,0,0,None,Overcast
2017-04-28,12:51 PM,79,-,57,47,30,7,Variable,5.8,0,0,None,Clear
2017-09-22,4:51 AM,68,-,48,49,30,10,Variable,5.8,0,0,None,Clear
2017-09-22,11:51 AM,78.1,-,53.1,42,30,10,Variable,5.8,0,0,None,Clear
2017-04-16,6:51 AM,62.1,-,57,84,30,9,West,5.8,0,0,None,Clear
2017-06-10,8:51 AM,72,-,54,53,30,10,WNW,5.8,0,0,None,Partly Cloudy
2017-02-20,12:51 AM,52,-,33.1,49,30,10,WNW,5.8,0,0,None,Clear
2017-10-10,4:51 AM,68,-,62.1,81,30,10,WNW,5.8,0,0,None,Clear
2017-06-14,8:51 AM,70,-,69.1,97,30,6,ENE,6.9,0,0.02,None,Overcast
2017-06-14,9:51 AM,72,-,64.9,78,30,9,ESE,6.9,0,0,None,Scattered Clouds
2017-06-30,3:51 AM,73,-,61,66,30,10,SW,6.9,0,0,None,Partly Cloudy
2017-06-14,10:51 AM,75,-,63,66,30,10,Variable,6.9,0,0,None,Mostly Cloudy
2017-06-12,1:51 AM,79,-,63,58,30,10,Variable,6.9,0,0,None,Clear
2017-08-17,3:51 PM,78.1,-,61,56,30,10,Variable,6.9,0,0,None,Clear
2017-09-21,6:51 PM,77,-,61,58,30,10,Variable,6.9,0,0,None,Clear
2017-04-16,4:51 AM,61,-,57,87,30,9,West,6.9,0,0,None,Clear
2017-09-23,3:51 PM,86,-,48.9,28,30,10,NNE,8.1,0,0,None,Clear
2017-09-23,4:51 PM,86,-,45,24,30,10,NE,9.2,0,0,None,Clear
2017-07-03,4:58 PM,72,-,70,93,29.99,2,Calm,0,0,0.02,Rain,Light Rain
2017-07-13,6:51 PM,77,-,70,79,29.99,10,West,3.5,0,0,Rain,Light Rain
2017-06-14,7:51 AM,69.1,-,68,96,29.99,0.5,Variable,5.8,0,0.21,"Fog	",Rain
2017-05-17,10:51 AM,78.1,-,57,48,29.99,10,North,0,0,0,None,Partly Cloudy
2017-11-10,4:51 AM,45,-,32,60,29.99,10,North,0,0,0,None,Overcast
2017-12-06,11:51 PM,39.9,-,19.9,45,29.99,10,North,0,0,0,None,Mostly Cloudy
2017-12-06,11:51 AM,41,-,17.1,38,29.99,10,North,0,0,0,None,Clear
2017-12-07,2:51 AM,39,-,19.9,46,29.99,10,North,0,0,0,None,Clear
2017-12-30,7:51 PM,21.9,-,14,72,29.99,7,North,0,0,0,None,Clear
2017-06-25,7:51 AM,73,-,59,61,29.99,10,Calm,0,0,0,None,Scattered Clouds
2017-08-14,2:51 PM,79,-,62.1,56,29.99,10,Calm,0,0,0,None,Scattered Clouds
2017-03-27,6:51 PM,48.9,-,44.1,83,29.99,7,Calm,0,0,0,None,Partly Cloudy
2017-06-25,9:51 AM,77,-,54,45,29.99,10,Calm,0,0,0,None,Partly Cloudy
2017-03-28,10:51 AM,44.1,-,42.1,93,29.99,2.5,Calm,0,0,0,None,Overcast
2017-04-28,8:29 AM,63,-,60.1,90,29.99,3,Calm,0,0,0,None,Overcast
2017-07-13,7:51 PM,79,-,70,74,29.99,10,Calm,0,0,0,None,Overcast
2017-12-11,8:51 PM,37.9,-,21.9,53,29.99,10,Calm,0,0,0,None,Overcast
2017-07-03,5:05 PM,72,-,71.1,97,29.99,5,Calm,0,0,0.02,None,Mostly Cloudy
2017-04-28,10:51 AM,70,-,61,73,29.99,5,Calm,0,0,0,None,Haze
2017-04-28,11:51 AM,75,-,60.1,60,29.99,5,Calm,0,0,0,None,Haze
2017-06-22,10:51 AM,78.1,-,55.9,46,29.99,10,Calm,0,0,0,None,Clear
2017-06-25,10:51 AM,78.1,-,55,45,29.99,10,Calm,0,0,0,None,Clear
2017-07-03,7:51 AM,77,-,62.1,60,29.99,10,Calm,0,0,0,None,Clear
2017-07-09,7:51 AM,69.1,-,53.1,57,29.99,10,Calm,0,0,0,None,Clear
2017-07-16,9:51 PM,77,-,64,64,29.99,10,Calm,0,0,0,None,Clear
2017-08-16,8:51 PM,79,-,60.1,52,29.99,10,Calm,0,0,0,None,Clear
2017-08-17,4:51 PM,78.1,-,61,56,29.99,10,Calm,0,0,0,None,Clear
2017-08-17,10:51 PM,75,-,70,84,29.99,8,Calm,0,0,0,None,Clear
2017-09-26,8:51 PM,73,-,66,79,29.99,10,Calm,0,0,0,None,Clear
2017-09-26,9:51 PM,72,-,66.9,84,29.99,10,Calm,0,0,0,None,Clear
2017-11-18,3:51 AM,36,-,17.1,46,29.99,10,Calm,0,0,0,None,Clear
2017-11-18,5:51 AM,37,-,19,48,29.99,10,Calm,0,0,0,None,Clear
2017-11-22,12:51 AM,54,-,42.1,64,29.99,10,Calm,0,0,0,None,Clear
2017-12-11,4:51 PM,39,-,21,49,29.99,10,Calm,0,0,0,None,Clear
2017-06-30,6:51 AM,73.9,-,62.1,66,29.99,10,Variable,5.8,17.3,0,None,Partly Cloudy
2017-09-23,1:51 AM,72,-,57,59,29.99,10,ENE,8.1,17.3,0,None,Scattered Clouds
2017-09-22,3:51 AM,69.1,-,48.9,49,29.99,10,Variable,5.8,23,0,None,Clear
2017-07-15,1:42 AM,69.1,-,68,96,29.99,1.8,ENE,3.5,0,0,None,Overcast
2017-06-25,8:51 AM,75,-,57,53,29.99,10,NNE,3.5,0,0,None,Partly Cloudy
2017-07-01,9:07 AM,79,-,70,74,29.99,10,Variable,3.5,0,0,None,Scattered Clouds
2017-07-10,8:21 PM,79,-,66,64,29.99,10,Variable,3.5,0,0,None,Scattered Clouds
2017-07-15,1:47 AM,69.8,-,68,94,29.99,3,Variable,3.5,0,0,None,Overcast
2017-11-09,9:51 PM,54,-,45,72,29.99,10,Variable,3.5,0,0,None,Overcast
2017-11-16,1:51 AM,52,-,43,71,29.99,10,Variable,3.5,0,0,None,Overcast
2017-07-10,8:12 PM,79,-,66,64,29.99,2,Variable,3.5,0,0,None,Haze
2017-02-22,11:51 AM,48.9,-,37,64,29.99,9,Variable,3.5,0,0,None,Clear
2017-07-02,9:51 AM,78.1,-,64.9,64,29.99,10,Variable,3.5,0,0,None,Clear
2017-07-12,9:51 AM,79,-,70,74,29.99,10,Variable,3.5,0,0,None,Clear
2017-09-21,1:51 PM,78.1,-,64,62,29.99,10,Variable,3.5,0,0,None,Clear
2017-09-21,2:51 PM,79,-,64,60,29.99,10,Variable,3.5,0,0,None,Clear
2017-09-23,4:51 AM,70,-,53.1,55,29.99,10,Variable,3.5,0,0,None,Clear
2017-07-15,1:00 AM,69.1,-,68,96,29.99,2.5,East,4.6,0,0,None,Overcast
2017-07-15,1:22 AM,69.1,-,68,96,29.99,2.5,ENE,4.6,0,0,None,Overcast
2017-03-27,7:51 PM,46.9,-,43,86,29.99,7,ENE,4.6,0,0,None,Clear
2017-07-15,1:04 AM,69.1,-,68,96,29.99,3,Variable,4.6,0,0,None,Overcast
2017-07-01,9:15 AM,79,-,70,74,29.99,10,Variable,4.6,0,0,None,Mostly Cloudy
2017-04-29,10:51 AM,77,-,64.9,66,29.99,9,Variable,4.6,0,0,None,Clear
2017-06-12,2:51 AM,77,-,63,62,29.99,10,Variable,4.6,0,0,None,Clear
2017-06-14,8:51 PM,71.1,-,46.9,42,29.99,10,Variable,4.6,0,0,None,Clear
2017-07-02,8:51 AM,75.9,-,66,71,29.99,10,Variable,4.6,0,0,None,Clear
2017-07-12,8:51 AM,79,-,69.1,72,29.99,10,Variable,4.6,0,0,None,Clear
2017-08-20,5:51 AM,70,-,61,73,29.99,10,Variable,4.6,0,0,None,Clear
2017-09-21,6:51 AM,71.1,-,64,78,29.99,10,Variable,4.6,0,0,None,Clear
2017-09-21,5:51 PM,79,-,60.1,52,29.99,10,Variable,4.6,0,0,None,Clear
2017-03-20,8:51 PM,48,-,18,30,29.99,10,West,4.6,0,0,None,Partly Cloudy
2017-04-16,7:51 AM,64,-,57,78,29.99,10,West,4.6,0,0,None,Clear
2017-05-17,3:51 AM,66,-,48,52,29.99,10,West,4.6,0,0,None,Clear
2017-06-10,7:51 AM,69.1,-,53.1,57,29.99,10,WNW,4.6,0,0,None,Clear
2017-09-15,5:51 AM,69.1,-,63,81,29.99,10,WNW,4.6,0,0,None,Clear
2017-05-17,12:51 AM,69.1,-,46,44,29.99,10,WSW,4.6,0,0,None,Clear
2017-03-27,5:51 PM,51.1,-,44.1,77,29.99,8,NE,5.8,0,0,None,Overcast
2017-06-30,5:51 AM,73.9,-,62.1,66,29.99,10,Variable,5.8,0,0,None,Overcast
2017-09-23,12:51 AM,73,-,55.9,55,29.99,10,Variable,5.8,0,0,None,Clear
2017-05-17,2:51 AM,66.9,-,46.9,49,29.99,10,West,5.8,0,0,None,Clear
2017-07-03,8:51 AM,79,-,62.1,56,29.99,10,WNW,5.8,0,0,None,Clear
2017-01-19,12:51 PM,48,-,34,58,29.99,10,Variable,6.9,0,0,None,Partly Cloudy
2017-09-22,11:51 PM,73,-,55,53,29.99,10,Variable,6.9,0,0,None,Clear
2017-03-20,5:51 PM,51.1,-,10,19,29.99,10,WNW,6.9,0,0,None,Mostly Cloudy
2017-04-16,5:51 AM,62.1,-,57,84,29.99,10,WSW,6.9,0,0,None,Partly Cloudy
2017-06-30,4:51 AM,73.9,-,62.1,66,29.99,10,WSW,8.1,0,0,None,Overcast
2017-01-06,1:02 AM,28,-,24.1,85,29.98,1,Calm,0,0,0.01,Snow,Light Snow
2017-04-29,4:51 AM,66.9,-,60.1,79,29.98,7,Calm,0,0,0,Rain,Light Rain
2017-07-03,4:51 PM,71.1,-,69.1,93,29.98,0.2,Variable,3.5,0,0.43,"Fog	",Rain
2017-02-14,6:51 AM,28.9,-,17.1,61,29.98,10,North,0,0,0,None,Clear
2017-07-10,10:51 PM,78.1,-,64.9,64,29.98,10,North,0,0,0,None,Clear
2017-08-31,10:51 PM,68,-,50,52,29.98,10,Calm,0,0,0,None,Partly Cloudy
2017-01-20,11:51 AM,44.1,-,34,68,29.98,10,Calm,0,0,0,None,Overcast
2017-03-20,6:51 PM,50,-,10.9,21,29.98,10,Calm,0,0,0,None,Overcast
2017-07-10,9:51 PM,78.1,-,66,66,29.98,10,Calm,0,0,0,None,Overcast
2017-07-15,6:47 AM,68,-,66.2,94,29.98,4,Calm,0,0,0,None,Overcast
2017-07-15,7:05 AM,68,-,66.9,96,29.98,2.5,Calm,0,0,0,None,Overcast
2017-07-15,8:22 AM,69.1,-,68,96,29.98,5,Calm,0,0,0,None,Overcast
2017-08-18,12:47 AM,75.2,-,71.6,89,29.98,6,Calm,0,0,0,None,Overcast
2017-04-01,7:51 PM,45,-,34,65,29.98,10,Calm,0,0,0,None,Mostly Cloudy
2017-04-29,5:49 AM,64.4,-,64.4,100,29.98,4,Calm,0,0,0.06,None,Mostly Cloudy
2017-07-15,9:16 AM,71.1,-,69.1,93,29.98,8,Calm,0,0,0,None,Mostly Cloudy
2017-06-22,4:51 AM,68,-,57,68,29.98,10,Calm,0,0,0,None,Clear
2017-06-25,6:51 AM,69.1,-,60.1,73,29.98,10,Calm,0,0,0,None,Clear
2017-07-12,7:51 AM,78.1,-,69.1,74,29.98,10,Calm,0,0,0,None,Clear
2017-08-14,3:51 PM,79,-,60.1,52,29.98,10,Calm,0,0,0,None,Clear
2017-08-17,5:51 PM,77,-,60.1,56,29.98,10,Calm,0,0,0,None,Clear
2017-08-17,7:51 PM,73.9,-,66,76,29.98,10,Calm,0,0,0,None,Clear
2017-08-17,9:51 PM,73.9,-,70,87,29.98,9,Calm,0,0,0,None,Clear
2017-09-26,10:51 PM,72,-,66,81,29.98,10,Calm,0,0,0,None,Clear
2017-11-18,6:51 AM,37,-,21.9,54,29.98,10,Calm,0,0,0,None,Clear
2017-04-05,9:51 PM,46.9,-,43,86,29.98,9,Variable,3.5,16.1,0,None,Clear
2017-04-29,11:51 AM,79,-,61,54,29.98,10,West,6.9,16.1,0,None,Clear
2017-09-23,2:51 AM,73,-,57,57,29.98,10,North,9.2,18.4,0,None,Overcast
2017-07-15,7:29 AM,68,-,66.9,96,29.98,3,NNW,3.5,0,0,None,Overcast
2017-07-10,11:51 PM,77,-,66,69,29.98,10,Variable,3.5,0,0,None,Partly Cloudy
2017-07-15,12:06 AM,69.1,-,66.9,93,29.98,2.5,Variable,3.5,0,0,None,Overcast
2017-07-15,12:30 AM,69.1,-,68,96,29.98,2,Variable,3.5,0,0,None,Overcast
2017-08-04,9:21 PM,75.9,-,70,82,29.98,10,Variable,3.5,0,0,None,Mostly Cloudy
2017-04-28,6:51 PM,78.1,-,54,43,29.98,10,Variable,3.5,0,0,None,Clear
2017-07-03,6:51 AM,77,-,63,62,29.98,10,Variable,3.5,0,0,None,Clear
2017-09-23,3:51 AM,70,-,55,59,29.98,10,Variable,3.5,0,0,None,Clear
2017-09-26,7:51 PM,73,-,66,79,29.98,10,Variable,3.5,0,0,None,Clear
2017-10-10,3:51 AM,69.1,-,63,81,29.98,10,Variable,3.5,0,0,None,Clear
2017-11-22,1:51 AM,54,-,43,66,29.98,10,Variable,3.5,0,0,None,Clear
2017-04-29,6:51 AM,64,-,63,96,29.98,8,West,3.5,0,0,None,Clear
2017-07-16,8:51 AM,73,-,63,71,29.98,10,WNW,3.5,0,0,None,Clear
2017-03-20,7:51 PM,50,-,16,26,29.98,10,NW,4.6,0,0,None,Mostly Cloudy
2017-08-17,6:51 PM,75.9,-,61,60,29.98,10,South,4.6,0,0,None,Clear
2017-07-03,8:51 PM,79,-,62.1,56,29.98,10,Variable,4.6,0,0,None,Partly Cloudy
2017-04-28,3:51 PM,82.9,-,44.1,25,29.98,10,Variable,4.6,0,0,None,Clear
2017-06-14,4:51 PM,78.1,-,57,48,29.98,10,Variable,4.6,0,0,None,Clear
2017-08-17,8:51 PM,73.9,-,68,82,29.98,10,Variable,4.6,0,0,None,Clear
2017-11-24,1:51 PM,48.9,-,21,33,29.98,10,Variable,4.6,0,0,None,Clear
2017-08-13,7:51 PM,78.1,-,57.9,50,29.98,10,West,4.6,0,0,None,Clear
2017-04-28,9:51 AM,66,-,61,84,29.98,4,WNW,4.6,0,0,None,Haze
2017-07-01,9:30 AM,79,-,70,74,29.98,10,Variable,5.8,0,0,None,Scattered Clouds
2017-08-04,10:10 PM,75.9,-,70,82,29.98,10,Variable,5.8,0,0,None,Scattered Clouds
2017-06-14,7:51 PM,73,-,48.9,42,29.98,10,Variable,5.8,0,0,None,Clear
2017-05-13,1:51 AM,53.1,-,45,74,29.98,10,East,6.9,0,0,None,Overcast
2017-09-22,9:51 PM,73.9,-,53.1,48,29.98,10,ENE,6.9,0,0,None,Clear
2017-05-17,1:51 AM,68,-,46.9,47,29.98,10,Variable,6.9,0,0,None,Clear
2017-09-22,10:51 PM,73.9,-,54,50,29.98,10,Variable,6.9,0,0,None,Clear
2017-07-02,7:51 AM,75,-,69.1,82,29.98,10,WNW,6.9,0,0,None,Clear
2017-05-13,2:51 AM,52,-,45,77,29.98,10,ESE,8.1,0,0,None,Overcast
2017-09-22,8:51 PM,75.9,-,52,43,29.98,10,NNE,9.2,0,0,None,Clear
2017-04-16,8:51 AM,66,-,57,73,29.98,10,West,9.2,0,0,None,Clear
2017-04-16,9:51 AM,72,-,57,59,29.97,10,North,0,0,0,None,Partly Cloudy
2017-11-16,2:51 AM,53.1,-,43,69,29.97,10,North,0,0,0,None,Overcast
2017-01-31,12:51 AM,30,-,7,38,29.97,10,North,0,0,0,None,Clear
2017-10-10,2:51 AM,71.1,-,63,75,29.97,10,North,0,0,0,None,Clear
2017-07-02,5:43 AM,72,-,70,93,29.97,5,Calm,0,0,0,None,Scattered Clouds
2017-08-14,5:51 PM,75.9,-,63,64,29.97,10,Calm,0,0,0,None,Partly Cloudy
2017-07-15,12:51 AM,69.1,-,68,96,29.97,3,Calm,0,0,0,None,Overcast
2017-12-09,12:51 AM,35.1,-,17.1,48,29.97,10,Calm,0,0,0,None,Overcast
2017-12-18,2:51 PM,44.1,-,34,68,29.97,7,Calm,0,0,0,None,Overcast
2017-07-02,5:29 AM,72,-,70,93,29.97,6,Calm,0,0,0,None,Mostly Cloudy
2017-08-16,6:08 AM,70,-,68,93,29.97,5,Calm,0,0,0,None,Mostly Cloudy
2017-02-14,8:51 AM,30,-,18,61,29.97,10,Calm,0,0,0,None,Clear
2017-04-29,7:51 AM,66.9,-,64.9,93,29.97,7,Calm,0,0,0,None,Clear
2017-07-20,6:51 AM,79,-,70,74,29.97,9,Calm,0,0,0,None,Clear
2017-08-14,8:51 PM,75,-,66.9,76,29.97,10,Calm,0,0,0,None,Clear
2017-08-16,10:51 AM,79,-,64.9,62,29.97,10,Calm,0,0,0,None,Clear
2017-08-17,11:51 PM,75,-,71.1,87,29.97,7,Calm,0,0,0,None,Clear
2017-09-15,4:51 AM,69.1,-,62.1,78,29.97,10,Calm,0,0,0,None,Clear
2017-09-26,11:51 PM,71.1,-,64.9,81,29.97,10,Calm,0,0,0,None,Clear
2017-11-24,6:51 PM,48,-,25,41,29.97,10,South,5.8,17.3,0,None,Clear
2017-08-04,8:09 PM,75.9,-,70,82,29.97,10,South,8.1,19.6,0,None,Partly Cloudy
2017-06-22,3:51 AM,69.1,-,62.1,78,29.97,10,North,3.5,0,0,None,Clear
2017-08-18,12:58 AM,75.9,-,72,87,29.97,6,South,3.5,0,0,None,Scattered Clouds
2017-07-01,7:51 AM,78.1,-,71.1,79,29.97,10,Variable,3.5,0,0,None,Scattered Clouds
2017-07-01,8:51 AM,79,-,71.1,77,29.97,10,Variable,3.5,0,0,None,Mostly Cloudy
2017-07-01,10:11 AM,79,-,71.1,77,29.97,10,Variable,3.5,0,0,None,Mostly Cloudy
2017-06-22,1:51 AM,71.1,-,61,70,29.97,10,Variable,3.5,0,0,None,Clear
2017-07-02,6:51 AM,73,-,70,90,29.97,10,Variable,3.5,0,0,None,Clear
2017-07-09,6:51 AM,69.1,-,53.1,57,29.97,10,Variable,3.5,0,0,None,Clear
2017-07-16,7:51 AM,71.1,-,63,75,29.97,10,Variable,3.5,0,0,None,Clear
2017-08-31,9:51 PM,69.1,-,52,54,29.97,10,Variable,3.5,0,0,None,Clear
2017-09-26,6:51 PM,75.9,-,66,71,29.97,10,Variable,3.5,0,0,None,Clear
2017-08-16,6:18 AM,70,-,68,93,29.97,4,NW,4.6,0,0,None,Scattered Clouds
2017-06-25,12:51 PM,79,-,55.9,45,29.97,10,Variable,4.6,0,0,None,Scattered Clouds
2017-05-13,3:51 AM,51.1,-,44.1,77,29.97,10,Variable,4.6,0,0,None,Overcast
2017-04-28,8:51 AM,64,-,60.1,87,29.97,3,West,4.6,0,0,None,Overcast
2017-07-03,7:51 PM,78.1,-,64,62,29.97,10,West,4.6,0,0,None,Clear
2017-08-16,6:00 AM,70,-,68,93,29.97,4,WNW,4.6,0,0,None,Scattered Clouds
2017-09-21,5:51 AM,72,-,64,76,29.97,10,North,5.8,0,0,None,Clear
2017-08-14,4:51 PM,78.1,-,62.1,58,29.97,10,SSE,5.8,0,0,None,Scattered Clouds
2017-05-19,9:51 PM,77,-,57,50,29.97,10,Variable,5.8,0,0,None,Clear
2017-06-14,6:51 PM,73.9,-,53.1,48,29.97,10,Variable,5.8,0,0,None,Clear
2017-07-16,8:51 PM,77,-,64,64,29.97,10,Variable,5.8,0,0,None,Clear
2017-10-10,1:51 AM,72,-,63,73,29.97,10,Variable,6.9,0,0,None,Partly Cloudy
2017-10-10,1:04 AM,73,-,64.9,76,29.97,10,Variable,6.9,0,0,None,Overcast
2017-04-08,9:51 PM,51.1,-,19.9,29,29.97,10,Variable,6.9,0,0,None,Clear
2017-11-10,12:08 AM,51.1,-,46,83,29.97,9,WSW,8.1,0,0,None,Overcast
2017-11-10,12:26 AM,51.1,-,46.9,86,29.97,9,West,9.2,0,0,None,Overcast
2017-01-06,3:02 AM,27,-,25,92,29.96,2,North,0,0,0,Snow,Light Snow
2017-01-31,10:20 AM,28.9,-,19,67,29.96,0.8,North,0,0,0,Snow,Light Snow
2017-12-30,12:51 PM,21,-,17.1,85,29.96,0.8,Calm,0,0,0.01,Snow,Light Snow
2017-05-13,5:49 AM,48.2,-,46.4,93,29.96,10,Variable,4.6,0,0.01,Rain,Light Rain
2017-05-13,7:23 AM,48.9,-,48,97,29.96,6,Variable,4.6,0,0.02,Rain,Light Rain
2017-01-31,6:51 AM,27,-,12,53,29.96,10,Calm,0,0,0,None,Partly Cloudy
2017-08-14,7:51 PM,75.9,-,64,67,29.96,10,Calm,0,0,0,None,Partly Cloudy
2017-03-29,12:26 AM,44.1,-,43,96,29.96,5,Calm,0,0,0,None,Overcast
2017-07-03,5:51 PM,73.9,-,70,87,29.96,10,Calm,0,0,0.02,None,Overcast
2017-07-15,5:20 AM,68,-,66.9,96,29.96,2.5,Calm,0,0,0,None,Overcast
2017-07-15,6:51 AM,68,-,66,93,29.96,4,Calm,0,0,0,None,Overcast
2017-09-15,1:51 AM,73,-,62.1,68,29.96,10,Calm,0,0,0,None,Overcast
2017-12-09,1:51 AM,35.1,-,17.1,48,29.96,10,Calm,0,0,0,None,Overcast
2017-12-15,1:51 PM,28,-,12,51,29.96,10,Calm,0,0,0,None,Overcast
2017-12-18,3:51 PM,45,-,34,65,29.96,7,Calm,0,0,0,None,Overcast
2017-04-28,7:12 AM,59,-,57.9,96,29.96,1.5,Calm,0,0,0,None,Mostly Cloudy
2017-04-29,5:51 AM,64.9,-,64,97,29.96,5,Calm,0,0,0.06,None,Mostly Cloudy
2017-07-11,12:51 AM,77,-,66.9,71,29.96,10,Calm,0,0,0,None,Mostly Cloudy
2017-02-01,5:51 PM,44.1,-,28,53,29.96,10,Calm,0,0,0,None,Clear
2017-02-14,2:51 AM,30,-,17.1,59,29.96,10,Calm,0,0,0,None,Clear
2017-06-22,2:51 AM,69.1,-,62.1,78,29.96,10,Calm,0,0,0,None,Clear
2017-06-25,5:51 AM,68,-,59,73,29.96,10,Calm,0,0,0,None,Clear
2017-07-01,5:51 AM,75.9,-,69.1,79,29.96,10,Calm,0,0,0,None,Clear
2017-07-03,4:51 AM,75,-,63,66,29.96,10,Calm,0,0,0,None,Clear
2017-07-03,5:51 AM,75,-,61,62,29.96,10,Calm,0,0,0,None,Clear
2017-07-16,9:51 AM,77,-,62.1,60,29.96,10,Calm,0,0,0,None,Clear
2017-07-16,10:51 AM,79,-,61,54,29.96,10,Calm,0,0,0,None,Clear
2017-07-20,4:51 AM,79,-,70,74,29.96,9,Calm,0,0,0,None,Clear
2017-07-20,5:51 AM,79,-,70,74,29.96,9,Calm,0,0,0,None,Clear
2017-08-16,8:51 AM,73,-,66,79,29.96,10,Calm,0,0,0,None,Clear
2017-09-26,5:51 PM,78.1,-,64.9,64,29.96,10,Calm,0,0,0,None,Clear
2017-11-18,7:51 AM,39.9,-,27,60,29.96,10,Calm,0,0,0,None,Clear
2017-11-22,2:51 AM,54,-,44.1,69,29.96,10,Calm,0,0,0,None,Clear
2017-06-30,11:51 PM,79,-,66,64,29.96,10,West,9.2,18.4,0,None,Scattered Clouds
2017-04-05,10:51 PM,48,-,42.1,80,29.96,10,SSE,10.4,18.4,0,None,Clear
2017-12-18,7:51 PM,46.9,-,33.1,59,29.96,9,Variable,6.9,19.6,0,None,Overcast
2017-12-18,8:51 PM,46.9,-,34,61,29.96,9,WSW,9.2,19.6,0,None,Overcast
2017-07-15,1:51 AM,69.1,-,68,96,29.96,3,East,3.5,0,0,None,Overcast
2017-07-15,5:09 AM,68,-,66.9,96,29.96,3,ENE,3.5,0,0,None,Overcast
2017-07-15,3:16 AM,68,-,66.9,96,29.96,2,NE,3.5,0,0,None,Overcast
2017-07-15,4:41 AM,68,-,66.9,96,29.96,1.8,NE,3.5,0,0,None,Overcast
2017-09-27,4:01 AM,70,-,66.9,90,29.96,10,NNE,3.5,0,0,None,Partly Cloudy
2017-07-02,5:01 AM,72,-,70,93,29.96,7,Variable,3.5,0,0,None,Scattered Clouds
2017-07-03,6:51 PM,75.9,-,68,76,29.96,10,Variable,3.5,0,0,None,Partly Cloudy
2017-08-14,9:51 PM,75,-,66.9,76,29.96,10,Variable,3.5,0,0,None,Partly Cloudy
2017-08-14,10:51 PM,75,-,66.9,76,29.96,9,Variable,3.5,0,0,None,Partly Cloudy
2017-09-27,3:36 AM,70,-,66,87,29.96,10,Variable,3.5,0,0,None,Mostly Cloudy
2017-09-27,6:33 AM,70,-,66.9,90,29.96,10,Variable,3.5,0,0,None,Mostly Cloudy
2017-09-27,6:46 AM,69.8,-,66.2,88,29.96,10,Variable,3.5,0,0,None,Mostly Cloudy
2017-02-22,12:51 PM,51.1,-,37,59,29.96,9,Variable,3.5,0,0,None,Clear
2017-04-05,7:51 PM,46.9,-,42.1,83,29.96,9,Variable,3.5,0,0,None,Clear
2017-07-12,1:51 AM,79,-,71.1,77,29.96,10,Variable,3.5,0,0,None,Clear
2017-07-16,6:51 AM,70,-,62.1,76,29.96,10,Variable,3.5,0,0,None,Clear
2017-08-16,7:51 AM,71.1,-,68,90,29.96,5,Variable,3.5,0,0,None,Clear
2017-08-16,9:51 AM,75,-,64.9,71,29.96,10,Variable,3.5,0,0,None,Clear
2017-09-15,3:51 AM,70,-,63,78,29.96,10,Variable,3.5,0,0,None,Clear
2017-11-24,4:51 PM,46.9,-,24.1,41,29.96,10,Variable,3.5,0,0,None,Clear
2017-11-24,5:51 PM,46.9,-,27,46,29.96,10,Variable,3.5,0,0,None,Clear
2017-05-18,8:51 AM,79,-,64.9,62,29.96,10,West,3.5,0,0,None,Clear
2017-06-22,12:51 AM,73,-,61,66,29.96,10,West,3.5,0,0,None,Clear
2017-09-15,2:51 AM,71.1,-,63,75,29.96,10,West,3.5,0,0,None,Clear
2017-04-28,7:51 AM,61,-,59,93,29.96,2,WNW,3.5,0,0,None,Overcast
2017-08-20,4:51 AM,71.1,-,62.1,73,29.96,10,WNW,3.5,0,0,None,Clear
2017-07-15,5:27 AM,68,-,66.9,96,29.96,3,ENE,4.6,0,0,None,Overcast
2017-09-27,8:16 AM,73,-,66.9,81,29.96,10,ENE,4.6,0,0,None,Mostly Cloudy
2017-06-14,6:51 AM,71.1,-,69.1,93,29.96,8,Variable,4.6,0,0,None,Overcast
2017-06-25,11:51 PM,75.9,-,48.9,38,29.96,10,Variable,4.6,0,0,None,Overcast
2017-07-10,7:51 PM,79,-,64.9,62,29.96,10,Variable,4.6,0,0,None,Overcast
2017-07-15,8:51 AM,70,-,68,93,29.96,5,Variable,4.6,0,0,None,Overcast
2017-08-04,11:33 PM,75,-,70,84,29.96,10,Variable,4.6,0,0,None,Mostly Cloudy
2017-08-14,6:51 PM,77,-,63,62,29.96,10,Variable,4.6,0,0,None,Mostly Cloudy
2017-06-14,3:51 PM,78.1,-,63,60,29.96,10,Variable,4.6,0,0,None,Clear
2017-07-12,5:51 AM,78.1,-,69.1,74,29.96,10,Variable,4.6,0,0,None,Clear
2017-09-21,4:51 AM,72,-,64,76,29.96,10,Variable,4.6,0,0,None,Clear
2017-11-24,2:51 PM,50,-,21.9,33,29.96,10,Variable,4.6,0,0,None,Clear
2017-11-10,1:20 AM,48.9,-,46,90,29.96,10,West,4.6,0,0,None,Partly Cloudy
2017-07-15,3:38 AM,68,-,66.9,96,29.96,1.8,ENE,5.8,0,0,None,Overcast
2017-09-27,7:48 AM,71.6,-,66.2,83,29.96,10,NE,5.8,0,0,None,Overcast
2017-07-10,8:51 PM,78.1,-,66,66,29.96,10,Variable,5.8,0,0,None,Partly Cloudy
2017-09-22,7:51 PM,77,-,55,47,29.96,10,Variable,5.8,0,0,None,Partly Cloudy
2017-11-09,10:51 PM,54,-,46,75,29.96,10,Variable,5.8,0,0,None,Overcast
2017-04-28,2:51 PM,82.9,-,48.9,31,29.96,9,Variable,5.8,0,0,None,Clear
2017-07-01,12:51 AM,78.1,-,66.9,68,29.96,10,Variable,5.8,0,0,None,Clear
2017-07-12,6:51 AM,77,-,69.1,76,29.96,10,Variable,5.8,0,0,None,Clear
2017-11-24,8:51 PM,46.9,-,27,46,29.96,10,Variable,5.8,0,0,None,Clear
2017-07-12,4:51 AM,79,-,69.1,72,29.96,10,WSW,5.8,0,0,None,Mostly Cloudy
2017-07-01,6:51 AM,77,-,70,79,29.96,10,Variable,6.9,0,0,None,Scattered Clouds
2017-08-04,7:24 PM,77,-,71.1,82,29.96,10,Variable,6.9,0,0,None,Mostly Cloudy
2017-04-05,6:51 PM,53.1,-,44.1,71,29.96,8,Variable,6.9,0,0,None,Clear
2017-06-14,5:51 PM,75.9,-,51.1,42,29.96,10,Variable,6.9,0,0,None,Clear
2017-08-04,8:01 PM,77,-,70,79,29.96,10,South,8.1,0,0,None,Mostly Cloudy
2017-08-04,5:51 PM,79,-,63,58,29.96,10,South,8.1,0,0,None,Clear
2017-06-25,10:51 PM,78.1,-,51.1,39,29.96,10,West,8.1,0,0,None,Overcast
2017-05-18,7:51 AM,75.9,-,64,67,29.96,10,WSW,8.1,0,0,None,Clear
2017-01-06,2:51 AM,27,-,24.1,89,29.95,1.2,Calm,0,0,0.02,Snow,Light Snow
2017-05-13,4:51 AM,50,-,46,86,29.95,8,Variable,5.8,0,0.02,Rain,Light Rain
2017-01-30,9:51 PM,30.9,-,8.1,38,29.95,10,North,0,0,0,None,Overcast
2017-02-11,5:51 AM,39,-,21.9,50,29.95,10,North,0,0,0,None,Overcast
2017-01-05,10:51 PM,30.9,-,14,50,29.95,10,North,0,0,0,None,Mostly Cloudy
2017-11-26,12:51 PM,46,-,23,40,29.95,10,North,0,0,0,None,Clear
2017-02-11,4:51 PM,46.9,-,24.1,41,29.95,10,Calm,0,0,0,None,Partly Cloudy
2017-03-10,12:51 AM,46.9,-,23,39,29.95,10,Calm,0,0,0,None,Partly Cloudy
2017-06-13,6:51 AM,78.1,-,64,62,29.95,10,Calm,0,0,0,None,Partly Cloudy
2017-07-02,5:51 AM,72,-,70,93,29.95,5,Calm,0,0,0,None,Partly Cloudy
2017-08-31,8:51 PM,71.1,-,51.1,49,29.95,9,Calm,0,0,0,None,Partly Cloudy
2017-01-06,3:13 AM,28,-,25,88,29.95,5,Calm,0,0,0,None,Overcast
2017-01-06,5:51 AM,28,-,21.9,78,29.95,8,Calm,0,0,0,None,Overcast
2017-02-07,7:16 AM,39,-,37.9,96,29.95,3,Calm,0,0,0,None,Overcast
2017-02-11,7:51 AM,37.9,-,25,60,29.95,10,Calm,0,0,0,None,Overcast
2017-06-18,12:03 AM,70,-,68,93,29.95,1.8,Calm,0,0,0,None,Overcast
2017-07-11,1:51 AM,77,-,68,74,29.95,10,Calm,0,0,0,None,Overcast
2017-07-15,7:51 AM,69.1,-,66.9,93,29.95,4,Calm,0,0,0,None,Overcast
2017-12-09,4:51 AM,35.1,-,16,46,29.95,10,Calm,0,0,0,None,Overcast
2017-04-28,6:20 AM,57.9,-,57.9,100,29.95,2,Calm,0,0,0,None,Mostly Cloudy
2017-04-28,6:31 AM,59,-,57.9,96,29.95,2,Calm,0,0,0,None,Mostly Cloudy
2017-06-21,11:51 PM,73.9,-,60.1,62,29.95,10,Calm,0,0,0,None,Clear
2017-07-01,1:51 AM,78.1,-,68,71,29.95,10,Calm,0,0,0,None,Clear
2017-07-03,1:51 AM,79,-,64.9,62,29.95,10,Calm,0,0,0,None,Clear
2017-07-03,2:51 AM,75.9,-,64,67,29.95,10,Calm,0,0,0,None,Clear
2017-09-21,12:51 AM,73,-,63,71,29.95,10,Calm,0,0,0,None,Clear
2017-11-22,3:51 PM,46.9,-,30,52,29.95,10,NW,9.2,25.3,0,None,Partly Cloudy
2017-09-27,12:51 AM,71.1,-,66,84,29.95,10,NE,3.5,0,0,None,Clear
2017-08-18,2:15 AM,77,-,72,84,29.95,7,South,3.5,0,0,None,Mostly Cloudy
2017-07-15,9:51 AM,72,-,68,87,29.95,10,Variable,3.5,0,0,None,Scattered Clouds
2017-09-15,12:51 AM,73,-,63,71,29.95,10,Variable,3.5,0,0,None,Scattered Clouds
2017-08-14,11:51 PM,73.9,-,66.9,79,29.95,10,Variable,3.5,0,0,None,Partly Cloudy
2017-11-09,11:51 PM,52,-,46,80,29.95,10,Variable,3.5,0,0,None,Overcast
2017-08-18,12:51 AM,75.9,-,72,87,29.95,6,Variable,3.5,0,0,None,Mostly Cloudy
2017-06-25,4:51 AM,70,-,57.9,65,29.95,10,Variable,3.5,0,0,None,Clear
2017-07-11,8:51 AM,78.1,-,68,71,29.95,10,Variable,3.5,0,0,None,Clear
2017-07-16,7:51 PM,78.1,-,64.9,64,29.95,10,Variable,3.5,0,0,None,Clear
2017-11-24,3:51 PM,48.9,-,23,36,29.95,10,Variable,3.5,0,0,None,Clear
2017-11-22,3:51 AM,55,-,46,72,29.95,10,West,3.5,0,0,None,Partly Cloudy
2017-08-16,6:51 AM,70,-,68,93,29.95,3,WNW,3.5,0,0,None,Partly Cloudy
2017-07-16,5:51 AM,69.1,-,62.1,78,29.95,10,WNW,3.5,0,0,None,Clear
2017-06-20,10:51 PM,78.1,-,53.1,42,29.95,10,WSW,3.5,0,0,None,Clear
2017-07-15,2:51 AM,68,-,66.9,96,29.95,3,East,4.6,0,0,None,Overcast
2017-07-11,5:44 AM,75,-,68,79,29.95,10,Variable,4.6,0,0,None,Mostly Cloudy
2017-06-20,11:51 PM,75.9,-,55,48,29.95,10,Variable,4.6,0,0,None,Clear
2017-08-04,10:51 PM,75,-,69.1,82,29.95,10,Variable,4.6,0,0,None,Clear
2017-09-21,1:51 AM,73,-,63,71,29.95,10,Variable,4.6,0,0,None,Clear
2017-09-21,3:51 AM,72,-,64,76,29.95,10,Variable,4.6,0,0,None,Clear
2017-02-11,3:51 PM,46.9,-,23,39,29.95,10,West,4.6,0,0,None,Clear
2017-06-10,6:51 AM,68,-,52,56,29.95,10,West,4.6,0,0,None,Clear
2017-06-20,9:51 PM,79,-,52,39,29.95,10,WSW,4.6,0,0,None,Clear
2017-09-27,8:39 AM,73,-,66.9,81,29.95,10,NE,5.8,0,0,None,Overcast
2017-04-16,10:51 AM,77,-,55.9,48,29.95,10,Variable,5.8,0,0,None,Partly Cloudy
2017-07-11,10:51 AM,78.1,-,68,71,29.95,10,Variable,6.9,0,0,None,Partly Cloudy
2017-09-22,5:51 PM,79,-,55,44,29.95,10,Variable,6.9,0,0,None,Mostly Cloudy
2017-08-04,9:51 PM,75.9,-,70,82,29.95,10,South,8.1,0,0,None,Mostly Cloudy
2017-05-18,6:51 AM,75,-,64,69,29.95,10,WSW,8.1,0,0,None,Clear
2017-11-24,9:51 PM,46.9,-,27,46,29.95,10,WSW,8.1,0,0,None,Clear
2017-09-22,6:51 PM,78.1,-,55,45,29.95,10,NE,9.2,0,0,None,Mostly Cloudy
2017-05-13,6:51 AM,50,-,48,93,29.94,5,Calm,0,0,0.04,Rain,Light Rain
2017-05-13,5:51 AM,48.9,-,46.9,93,29.94,9,Variable,3.5,0,0.02,Rain,Light Rain
2017-07-02,12:24 AM,72,-,70,93,29.94,10,North,0,0,0,None,Scattered Clouds
2017-08-04,7:51 PM,77,-,70,79,29.94,10,North,0,0,0,None,Scattered Clouds
2017-12-25,2:51 PM,34,-,12.9,42,29.94,10,North,0,0,0,None,Scattered Clouds
2017-03-16,2:51 PM,37,-,10,33,29.94,10,North,0,0,0,None,Partly Cloudy
2017-01-18,10:51 AM,39.9,-,37.9,93,29.94,7,North,0,0,0,None,Overcast
2017-04-06,2:51 AM,46,-,39.9,79,29.94,10,North,0,0,0,None,Overcast
2017-03-16,7:51 AM,24.1,-,10,55,29.94,10,North,0,0,0,None,Clear
2017-08-04,6:51 PM,78.1,-,69.1,74,29.94,10,North,0,0,0,None,Clear
2017-11-10,1:51 AM,48.9,-,44.1,83,29.94,10,North,0,0,0,None,Clear
2017-11-18,8:51 AM,44.1,-,26.1,49,29.94,10,North,0,0,0,None,Clear
2017-12-30,5:51 PM,21.9,-,14,72,29.94,10,North,0,0,0,None,Clear
2017-06-25,8:51 PM,75,-,60.1,60,29.94,10,Calm,0,0,0,None,Scattered Clouds
2017-09-14,11:51 PM,73.9,-,63,68,29.94,10,Calm,0,0,0,None,Scattered Clouds
2017-03-29,12:51 AM,44.1,-,43,96,29.94,4,Calm,0,0,0,None,Overcast
2017-04-05,10:51 AM,53.1,-,44.1,71,29.94,8,Calm,0,0,0,None,Overcast
2017-04-05,12:51 PM,55.9,-,39.9,55,29.94,10,Calm,0,0,0,None,Overcast
2017-04-05,1:51 PM,57.9,-,41,53,29.94,10,Calm,0,0,0,None,Overcast
2017-04-28,5:46 AM,57.2,-,57.2,100,29.94,1.5,Calm,0,0,0,None,Overcast
2017-06-18,12:35 AM,70,-,69.1,97,29.94,2.5,Calm,0,0,0,None,Overcast
2017-07-15,3:51 AM,68,-,66.9,96,29.94,1.5,Calm,0,0,0,None,Overcast
2017-06-25,3:51 PM,77,-,60.1,56,29.94,10,Calm,0,0,0,None,Mostly Cloudy
2017-08-16,5:51 AM,70,-,68,93,29.94,5,Calm,0,0,0,None,Mostly Cloudy
2017-04-05,9:07 AM,51.1,-,45,80,29.94,5,Calm,0,0,0,None,Haze
2017-04-05,9:40 AM,52,-,46,80,29.94,6,Calm,0,0,0,None,Haze
2017-06-13,4:51 AM,78.1,-,62.1,58,29.94,10,Calm,0,0,0,None,Clear
2017-06-13,5:51 AM,78.1,-,63,60,29.94,10,Calm,0,0,0,None,Clear
2017-06-20,8:51 PM,79,-,52,39,29.94,10,Calm,0,0,0,None,Clear
2017-06-21,10:51 PM,75,-,59,57,29.94,10,Calm,0,0,0,None,Clear
2017-07-03,3:51 AM,75,-,64,69,29.94,10,Calm,0,0,0,None,Clear
2017-07-09,5:51 AM,66.9,-,54,63,29.94,10,Calm,0,0,0,None,Clear
2017-07-16,4:51 AM,70,-,62.1,76,29.94,10,Calm,0,0,0,None,Clear
2017-08-31,6:51 AM,66,-,57.9,75,29.94,10,Calm,0,0,0,None,Clear
2017-09-13,3:51 AM,66,-,57.9,75,29.94,10,Calm,0,0,0,None,Clear
2017-09-13,6:51 AM,64.9,-,57,75,29.94,10,Calm,0,0,0,None,Clear
2017-09-27,2:51 AM,71.1,-,66,84,29.94,10,Calm,0,0,0,None,Clear
2017-11-10,3:51 AM,46.9,-,42.1,83,29.94,10,West,5.8,18.4,0,None,Clear
2017-06-14,5:51 AM,71.1,-,69.1,93,29.94,6,NE,3.5,0,0.06,None,Overcast
2017-07-15,4:51 AM,68,-,66.9,96,29.94,2.5,NE,3.5,0,0,None,Overcast
2017-04-05,11:51 AM,55.9,-,43,62,29.94,10,NNW,3.5,0,0,None,Overcast
2017-08-04,8:51 PM,75.9,-,70,82,29.94,10,South,3.5,0,0,None,Scattered Clouds
2017-06-18,12:20 AM,70,-,69.1,97,29.94,1.5,SSE,3.5,0,0,None,Overcast
2017-07-01,9:51 AM,79,-,71.1,77,29.94,10,Variable,3.5,0,0,None,Scattered Clouds
2017-07-15,10:51 AM,75,-,68,79,29.94,10,Variable,3.5,0,0,None,Scattered Clouds
2017-09-14,10:51 PM,73.9,-,64,71,29.94,10,Variable,3.5,0,0,None,Scattered Clouds
2017-07-02,1:17 AM,73.9,-,70,87,29.94,9,Variable,3.5,0,0,None,Overcast
2017-08-16,3:26 AM,71.1,-,70,96,29.94,2,Variable,3.5,0,0,None,Mostly Cloudy
2017-04-08,8:51 PM,51.1,-,21,31,29.94,10,Variable,3.5,0,0,None,Clear
2017-06-21,6:51 AM,72,-,61,68,29.94,10,Variable,3.5,0,0,None,Clear
2017-07-01,2:51 AM,77,-,68,74,29.94,10,Variable,3.5,0,0,None,Clear
2017-07-01,4:51 AM,75.9,-,68,76,29.94,10,Variable,3.5,0,0,None,Clear
2017-07-11,7:51 AM,77,-,70,79,29.94,10,Variable,3.5,0,0,None,Clear
2017-07-15,11:51 PM,75,-,61,62,29.94,10,Variable,3.5,0,0,None,Clear
2017-08-16,3:18 AM,71.1,-,70,96,29.94,1.8,West,3.5,0,0,None,Mostly Cloudy
2017-09-27,6:51 AM,71.1,-,66.9,87,29.94,10,ENE,4.6,0,0,None,Mostly Cloudy
2017-11-16,3:51 AM,52,-,46,80,29.94,10,South,4.6,0,0,None,Overcast
2017-06-21,12:51 AM,75.9,-,60.1,58,29.94,10,Variable,4.6,0,0,None,Partly Cloudy
2017-07-11,9:51 AM,75.9,-,66.9,74,29.94,9,Variable,4.6,0,0,None,Overcast
2017-04-05,5:51 PM,60.1,-,41,49,29.94,10,Variable,4.6,0,0,None,Clear
2017-06-21,7:51 AM,73.9,-,59,59,29.94,10,Variable,4.6,0,0,None,Clear
2017-08-13,10:51 AM,78.1,-,61,56,29.94,10,Variable,4.6,0,0,None,Clear
2017-09-27,1:51 AM,72,-,66,81,29.94,10,Variable,4.6,0,0,None,Clear
2017-06-10,5:51 AM,66.9,-,51.1,57,29.94,10,WNW,4.6,0,0,None,Clear
2017-09-27,10:39 AM,78.1,-,68,71,29.94,10,ENE,5.8,0,0,None,Scattered Clouds
2017-06-25,9:51 PM,78.1,-,54,43,29.94,10,Variable,5.8,0,0,None,Mostly Cloudy
2017-07-01,3:51 AM,75.9,-,68,76,29.94,10,Variable,5.8,0,0,None,Clear
2017-09-21,2:51 AM,73,-,63,71,29.94,10,Variable,5.8,0,0,None,Clear
2017-06-21,8:51 AM,75.9,-,59,56,29.94,10,West,5.8,0,0,None,Clear
2017-08-31,7:51 AM,66,-,57.9,75,29.94,10,West,5.8,0,0,None,Clear
2017-07-01,10:51 AM,79,-,72,79,29.94,10,Variable,6.9,0,0,None,Overcast
2017-07-15,11:51 AM,79,-,69.1,72,29.94,10,Variable,6.9,0,0,None,Mostly Cloudy
2017-08-20,3:51 AM,72,-,62.1,71,29.94,10,West,6.9,0,0,None,Clear
2017-08-31,8:51 AM,70,-,57.9,65,29.94,10,West,6.9,0,0,None,Clear
2017-11-10,12:51 AM,50,-,46.9,89,29.94,10,WSW,6.9,0,0.01,None,Overcast
2017-08-16,3:02 AM,71.1,-,70,96,29.94,2.5,West,8.1,0,0,None,Scattered Clouds
2017-08-16,4:17 AM,71.1,-,69.1,93,29.94,4,West,8.1,0,0,None,Overcast
2017-10-10,12:51 AM,73.9,-,66.9,79,29.94,10,WNW,9.2,0,0,None,Overcast
2017-11-16,5:13 AM,51.1,-,48,89,29.93,4,North,0,0,0.02,Rain,Light Rain
2017-01-20,5:51 PM,39.9,-,37.9,93,29.93,7,Calm,0,0,0.03,Rain,Light Rain
2017-11-22,8:24 AM,52,-,50,93,29.93,2.5,Calm,0,0,0.02,Rain,Light Rain
2017-07-01,7:41 PM,72,-,70,93,29.93,1.8,West,13.8,21.9,0.15,Rain,Rain
2017-11-16,5:32 AM,50,-,48.9,96,29.93,2,Variable,3.5,0,0.08,Rain,Rain
2017-11-22,8:15 AM,52,-,51.1,97,29.93,3,WNW,3.5,0,0.01,Rain,Light Rain
2017-11-22,8:28 AM,51.1,-,50,96,29.93,3,WNW,3.5,0,0.02,Rain,Light Rain
2017-05-13,8:51 AM,50,-,48,93,29.93,6,Variable,5.8,0,0.04,Rain,Light Rain
2017-11-22,6:45 AM,53.6,-,50,88,29.93,1.8,Variable,6.9,0,0.06,Rain,Rain
2017-05-13,9:51 AM,50,-,48,93,29.93,4,ENE,8.1,0,0.07,Rain,Light Rain
2017-05-13,7:51 AM,48.9,-,48,97,29.93,6,East,9.2,0,0.03,Rain,Light Rain
2017-08-04,11:51 PM,75.9,-,71.1,85,29.93,10,North,0,0,0,None,Overcast
2017-08-31,10:51 AM,75,-,60.1,60,29.93,10,North,0,0,0,None,Clear
2017-02-23,8:43 AM,48.9,-,45,86,29.93,3,Calm,0,0,0,None,Overcast
2017-03-21,3:51 AM,43,-,21.9,43,29.93,10,Calm,0,0,0,None,Overcast
2017-06-18,9:36 AM,77,-,73,88,29.93,9,Calm,0,0,0,None,Overcast
2017-09-27,7:51 AM,72,-,66.9,84,29.93,10,Calm,0,0,0,None,Overcast
2017-09-27,8:51 AM,73.9,-,66.9,79,29.93,10,Calm,0,0,0,None,Overcast
2017-11-22,4:51 AM,55,-,46.9,74,29.93,10,Calm,0,0,0,None,Mostly Cloudy
2017-01-05,3:51 PM,32,-,9,38,29.93,10,Calm,0,0,0,None,Clear
2017-03-16,6:51 AM,24.1,-,9,53,29.93,10,Calm,0,0,0,None,Clear
2017-06-25,3:51 AM,71.1,-,59,66,29.93,10,Calm,0,0,0,None,Clear
2017-07-15,10:51 PM,75.9,-,60.1,58,29.93,10,Calm,0,0,0,None,Clear
2017-07-16,1:51 AM,73,-,61,66,29.93,10,Calm,0,0,0,None,Clear
2017-07-16,3:51 AM,70,-,62.1,76,29.93,10,Calm,0,0,0,None,Clear
2017-09-13,7:51 AM,66,-,57,73,29.93,10,Calm,0,0,0,None,Clear
2017-09-13,8:51 AM,68,-,55.9,65,29.93,10,Calm,0,0,0,None,Clear
2017-12-06,6:51 AM,46.9,-,23,39,29.93,10,West,9.2,18.4,0,None,Overcast
2017-09-27,3:51 AM,70,-,66,87,29.93,10,NE,3.5,0,0,None,Mostly Cloudy
2017-04-28,5:27 AM,57.9,-,57,97,29.93,1.2,NNE,3.5,0,0,None,Overcast
2017-07-15,5:51 AM,68,-,66.9,96,29.93,3,SSE,3.5,0,0,None,Overcast
2017-07-11,2:51 AM,77,-,68,74,29.93,10,Variable,3.5,0,0,None,Overcast
2017-02-23,8:17 AM,48,-,45,89,29.93,3,Variable,3.5,0,0,None,Mostly Cloudy
2017-06-21,5:51 AM,71.1,-,61,70,29.93,10,Variable,3.5,0,0,None,Clear
2017-06-25,7:51 PM,75.9,-,60.1,58,29.93,10,Variable,3.5,0,0,None,Clear
2017-07-15,9:51 PM,78.1,-,59,52,29.93,10,Variable,3.5,0,0,None,Clear
2017-07-16,2:51 AM,71.1,-,62.1,73,29.93,10,Variable,3.5,0,0,None,Clear
2017-08-31,12:51 AM,69.1,-,57.9,68,29.93,10,Variable,3.5,0,0,None,Clear
2017-07-11,6:51 AM,75,-,69.1,82,29.93,10,Variable,4.6,0,0,None,Partly Cloudy
2017-05-18,5:51 AM,75,-,64,69,29.93,10,Variable,4.6,0,0,None,Clear
2017-08-13,9:51 AM,75,-,61,62,29.93,10,Variable,4.6,0,0,None,Clear
2017-08-31,9:51 AM,73,-,59,61,29.93,10,Variable,4.6,0,0,None,Clear
2017-07-16,12:51 AM,73,-,61,66,29.93,10,WNW,4.6,0,0,None,Clear
2017-06-21,9:51 AM,75.9,-,60.1,58,29.93,10,WNW,5.8,0,0,None,Clear
2017-08-18,1:51 AM,75.9,-,72,87,29.93,7,SSE,6.9,0,0,None,Mostly Cloudy
2017-08-31,7:51 PM,73,-,50,44,29.93,10,Variable,6.9,0,0,None,Clear
2017-11-10,2:51 AM,48,-,43,83,29.93,10,Variable,6.9,0,0,None,Clear
2017-06-21,1:51 AM,73.9,-,63,68,29.93,10,WSW,8.1,0,0,None,Clear
2017-01-31,9:51 AM,30.9,-,17.1,57,29.92,6,North,0,0,0,Snow,Light Snow
2017-08-18,8:06 AM,73.9,-,72,93,29.92,2,Calm,0,0,0.05,Rain,Rain
2017-08-18,8:23 AM,73,-,72,96,29.92,1.8,Calm,0,0,0.08,Rain,Rain
2017-08-18,8:16 AM,73,-,71.1,93,29.92,4,Calm,0,0,0.06,Rain,Light Rain
2017-08-18,8:31 AM,73,-,72,96,29.92,1.8,Calm,0,0,0.08,Rain,Light Rain
2017-11-16,5:42 AM,51.1,-,48.9,92,29.92,6,Calm,0,0,0.09,Rain,Light Rain
2017-11-22,9:02 AM,48,-,46.9,96,29.92,1.8,NW,3.5,0,0.03,Rain,Light Rain
2017-11-22,9:08 AM,48.9,-,46.9,93,29.92,3,NW,3.5,0,0.04,Rain,Light Rain
2017-07-01,3:20 PM,75.9,-,73.9,94,29.92,3,Variable,3.5,0,0.05,Rain,Light Rain
2017-11-22,8:58 AM,48.9,-,46.9,93,29.92,1.8,NW,4.6,0,0.02,Rain,Rain
2017-11-22,7:43 AM,54,-,52,93,29.92,4,West,5.8,0,0.04,Rain,Light Rain
2017-07-01,3:06 PM,77,-,71.1,82,29.92,1.8,Variable,6.9,0,0,Rain,Light Rain
2017-06-21,10:51 AM,79,-,59,50,29.92,10,North,0,0,0,None,Partly Cloudy
2017-02-01,11:51 AM,44.1,-,25,47,29.92,10,North,0,0,0,None,Overcast
2017-12-19,1:51 AM,46,-,37,71,29.92,10,North,0,0,0,None,Overcast
2017-12-10,2:51 PM,39,-,21.9,50,29.92,10,North,0,0,0,None,Mostly Cloudy
2017-04-05,9:51 AM,52,-,44.1,74,29.92,7,Calm,0,0,0,None,Partly Cloudy
2017-06-25,5:51 PM,78.1,-,60.1,54,29.92,10,Calm,0,0,0,None,Partly Cloudy
2017-08-16,2:51 AM,71.1,-,70,96,29.92,3,Calm,0,0,0,None,Partly Cloudy
2017-01-06,3:51 AM,28,-,23,81,29.92,7,Calm,0,0,0,None,Overcast
2017-01-20,9:51 PM,41,-,39.9,96,29.92,4,Calm,0,0,0,None,Overcast
2017-01-20,11:51 PM,41,-,39.9,96,29.92,5,Calm,0,0,0,None,Overcast
2017-03-21,5:51 AM,43,-,24.1,47,29.92,10,Calm,0,0,0,None,Overcast
2017-03-21,6:51 AM,43,-,24.1,47,29.92,10,Calm,0,0,0,None,Overcast
2017-04-28,5:05 AM,57.9,-,57,97,29.92,1,Calm,0,0,0,None,Overcast
2017-06-18,7:16 AM,73,-,71.1,93,29.92,3,Calm,0,0,0,None,Overcast
2017-06-25,2:51 AM,73,-,59,61,29.92,10,Calm,0,0,0,None,Overcast
2017-07-11,3:51 AM,75.9,-,68,76,29.92,10,Calm,0,0,0,None,Overcast
2017-08-16,4:51 AM,71.1,-,69.1,93,29.92,5,Calm,0,0,0,None,Overcast
2017-11-22,5:48 AM,53.6,-,48.2,82,29.92,10,Calm,0,0,0,None,Overcast
2017-12-19,2:51 AM,46,-,37,71,29.92,10,Calm,0,0,0,None,Overcast
2017-04-05,2:51 PM,61,-,39.9,46,29.92,10,Calm,0,0,0,None,Mostly Cloudy
2017-06-21,3:51 AM,73,-,64,73,29.92,10,Calm,0,0,0,None,Mostly Cloudy
2017-07-02,4:51 AM,72,-,70,93,29.92,7,Calm,0,0,0,None,Mostly Cloudy
2017-01-05,2:51 PM,32,-,9,38,29.92,10,Calm,0,0,0,None,Clear
2017-02-22,1:51 PM,55,-,37,51,29.92,9,Calm,0,0,0,None,Clear
2017-06-25,6:51 PM,75.9,-,57.9,54,29.92,10,Calm,0,0,0,None,Clear
2017-09-13,12:51 AM,70,-,57,63,29.92,10,Calm,0,0,0,None,Clear
2017-09-13,2:51 AM,66.9,-,57.9,73,29.92,10,Calm,0,0,0,None,Clear
2017-09-13,5:51 AM,64.9,-,57,75,29.92,10,Calm,0,0,0,None,Clear
2017-09-13,10:51 AM,75,-,57,53,29.92,10,Calm,0,0,0,None,Clear
2017-11-18,9:51 AM,46,-,30,54,29.92,10,Calm,0,0,0,None,Clear
2017-12-19,8:51 AM,48.9,-,37,64,29.92,10,West,9.2,18.4,0,None,Overcast
2017-04-28,5:14 AM,57.9,-,57,97,29.92,1.5,ENE,3.5,0,0,None,Overcast
2017-08-31,6:51 PM,73.9,-,52,46,29.92,10,NW,3.5,0,0,None,Clear
2017-03-21,11:51 AM,48.9,-,25,39,29.92,10,Variable,3.5,0,0,None,Overcast
2017-06-18,1:44 AM,70,-,69.1,97,29.92,3,Variable,3.5,0,0,None,Overcast
2017-06-18,7:32 AM,73,-,71.1,93,29.92,4,Variable,3.5,0,0,None,Overcast
2017-03-21,10:51 AM,48,-,24.1,39,29.92,10,Variable,3.5,0,0,None,Mostly Cloudy
2017-06-25,12:51 AM,75,-,57.9,55,29.92,10,Variable,3.5,0,0,None,Clear
2017-08-31,1:51 AM,68,-,59,73,29.92,10,Variable,3.5,0,0,None,Clear
2017-08-31,5:51 AM,64.9,-,57.9,78,29.92,10,Variable,3.5,0,0,None,Clear
2017-06-21,9:51 PM,75.9,-,57.9,54,29.92,10,West,3.5,0,0,None,Clear
2017-08-31,4:51 AM,66,-,57.9,75,29.92,10,West,3.5,0,0,None,Clear
2017-06-25,4:51 PM,77,-,61,58,29.92,10,East,4.6,0,0,None,Clear
2017-09-27,5:51 AM,70,-,66,87,29.92,10,East,4.6,0,0,None,Clear
2017-09-27,9:51 AM,77,-,68,74,29.92,10,ENE,4.6,0,0,None,Overcast
2017-09-27,4:51 AM,69.1,-,66.9,93,29.92,10,NNE,4.6,0,0,None,Clear
2017-09-14,9:51 PM,75.9,-,64,67,29.92,10,Variable,4.6,0,0,None,Overcast
2017-06-25,1:51 AM,73,-,57.9,59,29.92,10,Variable,4.6,0,0,None,Mostly Cloudy
2017-05-18,4:51 AM,75.9,-,64,67,29.92,10,Variable,4.6,0,0,None,Clear
2017-09-13,1:51 AM,68,-,57.9,70,29.92,10,West,4.6,0,0,None,Clear
2017-09-13,9:51 AM,72,-,57.9,61,29.92,10,West,4.6,0,0,None,Clear
2017-07-09,4:51 AM,70,-,54,57,29.92,10,WNW,4.6,0,0,None,Scattered Clouds
2017-06-21,2:51 AM,73.9,-,64,71,29.92,10,WSW,4.6,0,0,None,Scattered Clouds
2017-05-08,11:51 PM,53.1,-,32,45,29.92,10,ENE,5.8,0,0,None,Overcast
2017-04-28,6:48 AM,57.9,-,57.9,100,29.92,1.8,NE,5.8,0,0,None,Mostly Cloudy
2017-07-11,5:51 AM,75,-,68,79,29.92,10,Variable,5.8,0,0,None,Mostly Cloudy
2017-08-20,2:51 AM,73.9,-,62.1,66,29.92,10,Variable,6.9,0,0,None,Clear
2017-06-20,6:51 PM,81,-,52,36,29.92,10,WNW,8.1,0,0,None,Clear
2017-08-13,8:51 AM,73,-,63,71,29.92,10,WNW,8.1,0,0,None,Clear
2017-08-18,9:05 AM,73,-,72,96,29.91,1,Calm,0,0,0.35,Rain,Light Rain
2017-08-18,10:04 AM,75,-,73.9,96,29.91,2,Calm,0,0,0.02,Rain,Light Rain
2017-11-16,6:32 AM,51.1,-,48.9,92,29.91,2.5,WSW,11.5,20.7,0.03,Rain,Light Rain
2017-11-22,6:51 AM,54,-,51.1,90,29.91,4,Variable,3.5,0,0.07,Rain,Light Rain
2017-06-14,3:51 AM,72,-,66.9,84,29.91,10,NE,4.6,0,0,Rain,Light Rain
2017-11-16,6:48 AM,51.8,-,48.2,88,29.91,5,Variable,5.8,0,0.08,Rain,Light Rain
2017-07-01,7:31 PM,73,-,71.1,93,29.91,6,Variable,6.9,0,0.13,Rain,Light Rain
2017-05-13,10:51 AM,50,-,48.9,96,29.91,4,East,9.2,0,0.08,Rain,Light Rain
2017-06-14,4:51 AM,73,-,66,79,29.91,8,ENE,10.4,0,0,Rain,Light Rain
2017-08-18,8:40 AM,73,-,72,96,29.91,0.2,Calm,0,0,0.16,"Fog	",Rain
2017-01-01,2:51 AM,45,-,25,46,29.91,10,North,0,0,0,None,Overcast
2017-07-01,11:51 PM,72,-,70,93,29.91,9,North,0,0,0,None,Overcast
2017-07-01,10:51 PM,71.1,-,70,96,29.91,10,North,0,0,0,None,Mostly Cloudy
2017-02-01,7:51 AM,41,-,27,57,29.91,10,North,0,0,0,None,Clear
2017-05-18,2:51 AM,78.1,-,64,62,29.91,10,North,0,0,0,None,Clear
2017-06-22,9:51 PM,78.1,-,66,66,29.91,10,North,0,0,0,None,Clear
2017-12-10,12:51 PM,37.9,-,23,55,29.91,9,North,0,0,0,None,Clear
2017-12-15,9:51 PM,24.1,-,18,77,29.91,10,North,0,0,0,None,Clear
2017-12-16,1:51 AM,23,-,17.1,78,29.91,7,North,0,0,0,None,Clear
2017-02-22,4:51 PM,57,-,39,51,29.91,10,Calm,0,0,0,None,Scattered Clouds
2017-07-11,4:51 AM,75.9,-,66.9,74,29.91,10,Calm,0,0,0,None,Scattered Clouds
2017-02-11,2:51 PM,45,-,23,42,29.91,10,Calm,0,0,0,None,Partly Cloudy
2017-02-22,7:51 PM,52,-,42.1,69,29.91,10,Calm,0,0,0,None,Partly Cloudy
2017-08-16,1:51 AM,72,-,70,93,29.91,4,Calm,0,0,0,None,Partly Cloudy
2017-04-28,12:09 AM,57,-,55.9,96,29.91,3,Calm,0,0,0,None,Overcast
2017-04-28,1:38 AM,57.9,-,57,97,29.91,2.5,Calm,0,0,0,None,Overcast
2017-04-28,1:46 AM,57.2,-,57.2,100,29.91,3,Calm,0,0,0,None,Overcast
2017-06-18,12:51 AM,70,-,69.1,97,29.91,2,Calm,0,0,0,None,Overcast
2017-06-18,2:56 AM,71.1,-,69.1,93,29.91,2.5,Calm,0,0,0,None,Overcast
2017-06-18,3:11 AM,71.1,-,69.1,93,29.91,3,Calm,0,0,0,None,Overcast
2017-06-18,5:01 AM,71.1,-,70,96,29.91,3,Calm,0,0,0,None,Overcast
2017-06-18,5:18 AM,71.1,-,70,96,29.91,3,Calm,0,0,0,None,Overcast
2017-06-18,5:44 AM,72,-,70,93,29.91,4,Calm,0,0,0,None,Overcast
2017-06-18,6:09 AM,72,-,70,93,29.91,2.5,Calm,0,0,0,None,Overcast
2017-07-02,3:51 AM,72,-,70,93,29.91,6,Calm,0,0,0,None,Overcast
2017-08-18,9:17 AM,73.9,-,72,93,29.91,2.5,Calm,0,0,0.35,None,Overcast
2017-08-18,9:34 AM,75,-,73,94,29.91,3,Calm,0,0,0.35,None,Overcast
2017-08-18,9:38 AM,73.9,-,73,97,29.91,2.5,Calm,0,0,0.35,None,Overcast
2017-08-18,10:59 AM,75.9,-,75,97,29.91,2.5,Calm,0,0,0,None,Overcast
2017-11-22,10:32 AM,48.9,-,48,97,29.91,1.8,Calm,0,0,0,None,Overcast
2017-11-22,10:42 AM,48.9,-,46.9,93,29.91,3,Calm,0,0,0,None,Overcast
2017-04-28,5:51 AM,57.9,-,57,97,29.91,1.5,Calm,0,0,0,None,Mostly Cloudy
2017-08-18,2:51 AM,75.9,-,72,87,29.91,8,Calm,0,0,0,None,Mostly Cloudy
2017-09-14,7:02 AM,70,-,68,93,29.91,8,Calm,0,0,0,None,Mostly Cloudy
2017-02-22,2:51 PM,55.9,-,37.9,51,29.91,8,Calm,0,0,0,None,Clear
2017-02-22,8:51 PM,50,-,41,71,29.91,10,Calm,0,0,0,None,Clear
2017-02-22,9:51 PM,50,-,41,71,29.91,10,Calm,0,0,0,None,Clear
2017-06-10,3:51 AM,68,-,50,52,29.91,10,Calm,0,0,0,None,Clear
2017-06-10,4:51 AM,66.9,-,51.1,57,29.91,10,Calm,0,0,0,None,Clear
2017-06-22,8:51 PM,78.1,-,64.9,64,29.91,10,Calm,0,0,0,None,Clear
2017-08-16,12:51 AM,71.1,-,69.1,93,29.91,5,Calm,0,0,0,None,Clear
2017-08-31,11:51 AM,79,-,61,54,29.91,10,Calm,0,0,0,None,Clear
2017-09-13,4:51 AM,64,-,57.9,80,29.91,10,Calm,0,0,0,None,Clear
2017-06-20,5:51 PM,82,-,51.1,34,29.91,10,Variable,6.9,18.4,0,None,Partly Cloudy
2017-11-22,2:51 PM,50,-,33.1,52,29.91,10,WNW,11.5,21.9,0,None,Overcast
2017-06-22,10:51 PM,79,-,66.9,66,29.91,10,SW,3.5,0,0,None,Clear
2017-05-08,9:51 PM,53.1,-,32,45,29.91,10,Variable,3.5,0,0,None,Overcast
2017-06-19,10:26 PM,70,-,69.1,97,29.91,7,Variable,3.5,0,0,None,Overcast
2017-08-16,3:51 AM,71.1,-,70,96,29.91,2.5,Variable,3.5,0,0,None,Overcast
2017-08-18,10:34 AM,75,-,73.9,96,29.91,2,Variable,3.5,0,0.02,None,Overcast
2017-07-02,12:51 AM,72,-,70,93,29.91,10,Variable,3.5,0,0,None,Mostly Cloudy
2017-06-20,10:51 AM,77,-,60.1,56,29.91,10,Variable,3.5,0,0,None,Clear
2017-07-02,2:51 AM,72,-,71.1,97,29.91,7,West,3.5,0,0,None,Overcast
2017-08-18,10:19 AM,75,-,73.9,96,29.91,1.8,West,3.5,0,0.02,None,Overcast
2017-09-14,8:51 PM,77,-,63,62,29.91,10,WSW,3.5,0,0,None,Overcast
2017-09-27,10:51 AM,78.1,-,68,71,29.91,10,NE,4.6,0,0,None,Clear
2017-04-05,8:51 AM,48.9,-,45,86,29.91,5,NNE,4.6,0,0,None,Partly Cloudy
2017-02-22,5:51 PM,53.1,-,39.9,61,29.91,10,South,4.6,0,0,None,Overcast
2017-02-22,6:51 PM,53.1,-,42.1,66,29.91,10,South,4.6,0,0,None,Overcast
2017-08-18,3:51 AM,75.9,-,71.1,85,29.91,10,Variable,4.6,0,0,None,Scattered Clouds
2017-05-08,10:51 PM,54,-,30.9,41,29.91,10,Variable,4.6,0,0,None,Overcast
2017-08-18,10:44 AM,75,-,73.9,96,29.91,3,Variable,4.6,0,0.02,None,Overcast
2017-09-13,11:04 PM,72,-,69.1,91,29.91,10,Variable,4.6,0,0,None,Overcast
2017-11-16,4:51 AM,53.1,-,46,77,29.91,10,Variable,4.6,0,0,None,Overcast
2017-05-18,1:51 AM,79,-,64,60,29.91,10,Variable,4.6,0,0,None,Clear
2017-05-18,3:51 AM,75.9,-,64,67,29.91,10,Variable,4.6,0,0,None,Clear
2017-08-31,2:51 AM,66.9,-,59,76,29.91,10,Variable,4.6,0,0,None,Clear
2017-07-21,7:51 AM,77,-,69.1,76,29.91,10,West,4.6,0,0,None,Partly Cloudy
2017-12-19,7:51 AM,48,-,37,66,29.91,10,West,4.6,0,0,None,Overcast
2017-06-10,2:51 AM,69.1,-,50,51,29.91,10,West,4.6,0,0,None,Clear
2017-08-31,3:51 AM,66.9,-,57.9,73,29.91,10,West,4.6,0,0,None,Clear
2017-12-19,6:51 AM,46.9,-,36,66,29.91,10,WSW,4.6,0,0,None,Overcast
2017-07-02,1:51 AM,72,-,70,93,29.91,9,Variable,5.8,0,0,None,Overcast
2017-02-22,3:51 PM,57,-,37.9,49,29.91,10,West,5.8,0,0,None,Clear
2017-07-09,3:51 AM,72,-,54,53,29.91,10,WNW,5.8,0,0,None,Mostly Cloudy
2017-08-13,7:51 AM,72,-,64.9,78,29.91,10,WNW,5.8,0,0,None,Clear
2017-02-23,8:51 AM,48.9,-,45,86,29.91,3,WSW,5.8,0,0,None,Overcast
2017-06-21,12:51 PM,79,-,55,44,29.91,10,Variable,6.9,0,0,None,Mostly Cloudy
2017-03-21,12:51 PM,50,-,25,38,29.91,10,West,6.9,0,0,None,Scattered Clouds
2017-04-05,4:51 PM,62.1,-,42.1,48,29.91,10,ENE,8.1,0,0,None,Clear
2017-08-20,1:51 AM,75,-,64.9,71,29.91,10,West,8.1,0,0,None,Clear
2017-08-18,11:07 AM,75.9,-,73.9,94,29.91,2,WSW,8.1,0,0,None,Overcast
2017-12-19,9:51 AM,51.1,-,37.9,61,29.91,10,West,9.2,0,0,None,Overcast
2017-09-13,4:30 PM,71.1,-,69.1,93,29.9,4,Calm,0,0,0.06,Rain,Rain
2017-04-28,3:47 AM,57.2,-,57.2,100,29.9,1.8,Calm,0,0,0,Rain,Light Rain
2017-07-01,7:14 PM,78.1,-,72,81,29.9,1.2,SSW,10.4,24.2,0,Rain,Rain
2017-11-22,8:51 AM,48.9,-,46.9,93,29.9,2.5,NW,4.6,0,0.04,Rain,Light Rain
2017-09-13,4:23 PM,71.1,-,68,90,29.9,2.5,West,4.6,0,0.06,Rain,Light Rain
2017-08-18,11:21 AM,75.9,-,75,97,29.9,1.5,WSW,4.6,0,0.01,Rain,Light Rain
2017-11-16,6:58 AM,51.1,-,48.9,92,29.9,5,WSW,4.6,0,0.01,Rain,Light Rain
2017-09-13,4:12 PM,72,-,66,81,29.9,1.2,Variable,6.9,0,0,Rain,Light Rain
2017-07-01,7:51 PM,72,-,70,93,29.9,4,West,8.1,0,0.17,Rain,Light Rain
2017-11-20,3:51 AM,37.9,-,25,60,29.9,10,North,0,0,0,None,Scattered Clouds
2017-09-14,1:05 AM,71.1,-,68,90,29.9,10,North,0,0,0,None,Mostly Cloudy
2017-08-31,4:51 PM,77,-,57,50,29.9,10,Calm,0,0,0,None,Scattered Clouds
2017-07-21,6:51 AM,77,-,66.9,71,29.9,10,Calm,0,0,0,None,Partly Cloudy
2017-04-28,4:51 AM,57.9,-,57,97,29.9,1,Calm,0,0,0,None,Overcast
2017-06-18,2:06 AM,70,-,69.1,97,29.9,2.5,Calm,0,0,0,None,Overcast
2017-06-18,8:51 AM,77,-,72,84,29.9,9,Calm,0,0,0,None,Overcast
2017-07-09,2:51 AM,73,-,55,53,29.9,10,Calm,0,0,0,None,Overcast
2017-08-18,11:34 AM,75.9,-,75,97,29.9,2.5,Calm,0,0,0.01,None,Overcast
2017-08-18,11:43 AM,77,-,75,94,29.9,3,Calm,0,0,0.01,None,Overcast
2017-11-22,5:51 AM,54,-,48,80,29.9,10,Calm,0,0,0,None,Overcast
2017-05-08,8:51 PM,54,-,30.9,41,29.9,10,Calm,0,0,0,None,Mostly Cloudy
2017-06-18,4:30 AM,71.1,-,69.1,93,29.9,3,Calm,0,0,0,None,Mostly Cloudy
2017-02-23,7:51 AM,48,-,42.1,80,29.9,7,Calm,0,0,0,None,Clear
2017-04-08,7:51 PM,53.1,-,19,26,29.9,10,Calm,0,0,0,None,Clear
2017-06-22,7:51 PM,79,-,64,60,29.9,10,Calm,0,0,0,None,Clear
2017-09-14,9:51 AM,73,-,68,84,29.9,8,Calm,0,0,0,None,Clear
2017-12-06,5:51 AM,50,-,28.9,44,29.9,10,West,10.4,21.9,0,None,Overcast
2017-04-05,3:51 PM,63,-,41,45,29.9,10,ENE,3.5,0,0,None,Clear
2017-06-18,7:51 AM,73.9,-,71.1,91,29.9,5,Variable,3.5,0,0,None,Overcast
2017-06-24,11:51 PM,78.1,-,57,48,29.9,10,Variable,3.5,0,0,None,Clear
2017-06-10,1:51 AM,70,-,50,49,29.9,10,West,3.5,0,0,None,Clear
2017-09-13,12:51 PM,79,-,55.9,45,29.9,10,WSW,3.5,0,0,None,Mostly Cloudy
2017-06-20,7:05 AM,72,-,70,93,29.9,5,Variable,4.6,0,0,None,Scattered Clouds
2017-02-01,2:51 PM,46.9,-,23,39,29.9,10,Variable,4.6,0,0,None,Overcast
2017-06-18,9:51 AM,77,-,72,84,29.9,9,Variable,4.6,0,0,None,Overcast
2017-09-13,11:22 PM,72,-,69.1,91,29.9,10,Variable,4.6,0,0,None,Overcast
2017-07-09,1:51 AM,73,-,57.9,59,29.9,10,Variable,4.6,0,0,None,Mostly Cloudy
2017-02-23,9:51 AM,52,-,46.9,83,29.9,7,West,4.6,0,0,None,Overcast
2017-09-13,11:51 AM,79,-,55.9,45,29.9,10,West,4.6,0,0,None,Clear
2017-07-15,8:51 PM,79,-,60.1,52,29.9,10,WNW,4.6,0,0,None,Scattered Clouds
2017-02-23,11:51 PM,63,-,51.1,65,29.9,10,Variable,5.8,0,0,None,Scattered Clouds
2017-06-20,9:51 AM,73.9,-,64,71,29.9,10,Variable,5.8,0,0,None,Partly Cloudy
2017-08-31,3:51 PM,75.9,-,55.9,50,29.9,10,Variable,5.8,0,0,None,Overcast
2017-05-19,8:51 AM,79,-,66,64,29.9,10,Variable,5.8,0,0,None,Clear
2017-06-21,8:51 PM,77,-,57.9,52,29.9,10,Variable,5.8,0,0,None,Clear
2017-09-13,10:43 PM,72,-,69.1,91,29.9,10,Variable,6.9,0,0,None,Overcast
2017-08-31,5:51 PM,77,-,57.9,52,29.9,10,Variable,6.9,0,0,None,Mostly Cloudy
2017-03-31,4:18 PM,39,-,37.9,96,29.89,3,North,0,0,0.03,Rain,Light Rain
2017-08-18,7:51 AM,73.9,-,72,93,29.89,2.5,Calm,0,0,0.03,Rain,Light Rain
2017-11-16,5:51 AM,51.1,-,48.9,92,29.89,8,Calm,0,0,0.09,Rain,Light Rain
2017-05-13,11:51 AM,50,-,48.9,96,29.89,4,Variable,6.9,17.3,0.07,Rain,Light Rain
2017-05-13,1:31 PM,51.1,-,48.9,92,29.89,3,East,8.1,19.6,0.08,Rain,Light Rain
2017-04-28,3:58 AM,57.9,-,57.9,100,29.89,1.8,NNE,3.5,0,0,Rain,Light Rain
2017-06-20,12:23 AM,71.1,-,69.1,93,29.89,3,Variable,3.5,0,0.07,Rain,Rain
2017-07-20,8:51 PM,78.1,-,72,81,29.89,4,WNW,5.8,0,0.01,Rain,Light Rain
2017-05-13,1:12 PM,51.1,-,48.9,92,29.89,2,ENE,11.5,0,0.03,Rain,Rain
2017-01-21,9:51 AM,43,-,41,93,29.89,5,North,0,0,0,None,Overcast
2017-02-05,8:51 PM,41,-,19.9,43,29.89,10,North,0,0,0,None,Overcast
2017-06-20,1:05 AM,71.1,-,69.1,93,29.89,8,North,0,0,0,None,Overcast
2017-02-05,7:51 PM,41,-,18,40,29.89,10,North,0,0,0,None,Mostly Cloudy
2017-05-08,11:51 AM,52,-,28.9,41,29.89,10,North,0,0,0,None,Mostly Cloudy
2017-01-05,5:51 AM,28,-,8.1,43,29.89,10,North,0,0,0,None,Clear
2017-02-01,5:51 AM,39.9,-,26.1,58,29.89,10,North,0,0,0,None,Clear
2017-12-20,12:51 PM,43,-,19.9,40,29.89,10,North,0,0,0,None,Clear
2017-07-21,5:51 AM,77,-,66.9,71,29.89,10,Calm,0,0,0,None,Scattered Clouds
2017-07-21,12:51 AM,79,-,66.9,66,29.89,10,Calm,0,0,0,None,Partly Cloudy
2017-08-20,12:51 AM,77,-,64,64,29.89,10,Calm,0,0,0,None,Partly Cloudy
2017-09-14,10:51 AM,75,-,69.1,82,29.89,9,Calm,0,0,0,None,Partly Cloudy
2017-06-18,2:51 AM,71.1,-,69.1,93,29.89,2.5,Calm,0,0,0,None,Overcast
2017-06-18,5:51 AM,72,-,70,93,29.89,4,Calm,0,0,0,None,Overcast
2017-08-13,12:47 AM,73.4,-,69.8,88,29.89,10,Calm,0,0,0,None,Overcast
2017-09-13,5:16 PM,71.1,-,69.1,93,29.89,7,Calm,0,0,0,None,Overcast
2017-09-14,2:15 AM,71.1,-,68,90,29.89,9,Calm,0,0,0,None,Overcast
2017-09-14,11:51 AM,77,-,68,74,29.89,9,Calm,0,0,0,None,Overcast
2017-07-28,7:40 AM,73.9,-,70,87,29.89,5,Calm,0,0,0,None,Mostly Cloudy
2017-09-14,7:51 AM,71.1,-,66.9,87,29.89,8,Calm,0,0,0,None,Mostly Cloudy
2017-02-18,1:51 AM,36,-,14,41,29.89,10,Calm,0,0,0,None,Clear
2017-02-23,6:51 AM,44.1,-,39.9,85,29.89,7,Calm,0,0,0,None,Clear
2017-05-19,7:51 AM,77,-,66,69,29.89,10,Calm,0,0,0,None,Clear
2017-09-14,8:51 AM,72,-,66.9,84,29.89,8,Calm,0,0,0,None,Clear
2017-06-20,8:51 AM,73,-,64.9,76,29.89,10,WSW,10.4,16.1,0,None,Clear
2017-04-16,12:51 PM,84,-,50,31,29.89,10,West,8.1,17.3,0,None,Clear
2017-05-08,10:51 AM,51.1,-,28,41,29.89,10,NW,8.1,20.7,0,None,Mostly Cloudy
2017-12-19,10:51 AM,52,-,37,57,29.89,10,West,9.2,24.2,0,None,Scattered Clouds
2017-09-14,7:51 PM,77,-,63,62,29.89,10,Variable,3.5,0,0,None,Scattered Clouds
2017-06-18,1:51 AM,70,-,69.1,97,29.89,3,Variable,3.5,0,0,None,Overcast
2017-06-18,6:51 AM,72,-,70,93,29.89,2.5,Variable,3.5,0,0,None,Overcast
2017-08-18,5:51 AM,75.9,-,68,76,29.89,10,Variable,3.5,0,0,None,Overcast
2017-08-13,1:37 AM,73.9,-,70,87,29.89,10,Variable,3.5,0,0,None,Mostly Cloudy
2017-08-18,6:51 AM,75.9,-,69.1,79,29.89,10,Variable,3.5,0,0,None,Mostly Cloudy
2017-07-01,9:51 PM,71.1,-,69.1,93,29.89,10,Variable,3.5,0,0,None,Clear
2017-07-22,7:51 AM,79,-,64,60,29.89,10,Variable,3.5,0,0,None,Clear
2017-08-19,10:51 PM,79,-,64.9,62,29.89,10,West,3.5,0,0,None,Clear
2017-07-20,9:51 PM,78.1,-,69.1,74,29.89,10,WNW,3.5,0,0,None,Clear
2017-06-19,11:51 PM,71.1,-,69.1,93,29.89,7,Variable,4.6,0,0,None,Overcast
2017-08-18,4:51 AM,75.9,-,69.1,79,29.89,10,Variable,4.6,0,0,None,Overcast
2017-11-16,8:36 AM,52,-,48.9,89,29.89,10,Variable,4.6,0,0,None,Overcast
2017-06-24,10:51 PM,79,-,57.9,48,29.89,10,Variable,4.6,0,0,None,Clear
2017-07-21,1:51 AM,78.1,-,66.9,68,29.89,10,West,4.6,0,0,None,Overcast
2017-06-10,12:51 AM,71.1,-,51.1,49,29.89,10,West,4.6,0,0,None,Clear
2017-11-22,10:51 AM,50,-,46,86,29.89,9,WNW,4.6,0,0,None,Overcast
2017-05-08,7:51 PM,54,-,30,40,29.89,10,WNW,4.6,0,0,None,Mostly Cloudy
2017-09-14,6:51 AM,70,-,68,93,29.89,6,West,5.8,0,0,None,Scattered Clouds
2017-11-22,9:51 AM,48.9,-,46,90,29.89,8,WNW,5.8,0,0.04,None,Overcast
2017-06-20,6:58 AM,72,-,70,93,29.89,6,West,8.1,0,0,None,Mostly Cloudy
2017-04-28,3:51 AM,57.9,-,57,97,29.88,2,Calm,0,0,0,Rain,Light Rain
2017-06-19,7:48 PM,69.8,-,69.8,100,29.88,2.5,Calm,0,0,0.06,Rain,Light Rain
2017-05-13,2:11 PM,50,-,48.9,96,29.88,2.5,East,12.7,21.9,0.04,Rain,Rain
2017-06-19,7:29 PM,70,-,69.1,97,29.88,6,Variable,3.5,0,0.05,Rain,Light Rain
2017-11-16,6:51 AM,51.1,-,48.9,92,29.88,5,Variable,3.5,0,0.08,Rain,Light Rain
2017-06-19,9:51 PM,70,-,69.1,97,29.88,8,Variable,4.6,0,0.02,Rain,Light Rain
2017-05-13,12:51 PM,51.1,-,50,96,29.88,4,Variable,6.9,0,0.06,Rain,Light Rain
2017-08-18,8:51 AM,73,-,72,96,29.88,0.2,SSE,5.8,0,0.37,"Fog	",Rain
2017-06-20,7:51 AM,72,-,69.1,91,29.88,9,North,0,0,0,None,Partly Cloudy
2017-08-18,1:01 PM,79,-,77,94,29.88,5,North,0,0,0,None,Overcast
2017-11-16,8:58 AM,52,-,48,86,29.88,10,North,0,0,0,None,Overcast
2017-11-25,2:51 AM,44.1,-,30,58,29.88,10,North,0,0,0,None,Clear
2017-08-23,11:51 PM,72,-,52,49,29.88,10,Calm,0,0,0,None,Unknown
2017-02-23,12:51 AM,52,-,42.1,69,29.88,10,Calm,0,0,0,None,Scattered Clouds
2017-07-20,10:51 PM,78.1,-,68,71,29.88,10,Calm,0,0,0,None,Partly Cloudy
2017-02-23,10:51 AM,54,-,48.9,83,29.88,10,Calm,0,0,0,None,Overcast
2017-04-05,7:51 AM,48,-,46,93,29.88,3,Calm,0,0,0,None,Overcast
2017-04-28,1:51 AM,57.9,-,57,97,29.88,2.5,Calm,0,0,0,None,Overcast
2017-06-18,3:51 AM,71.1,-,69.1,93,29.88,4,Calm,0,0,0,None,Overcast
2017-06-18,4:51 AM,71.1,-,69.1,93,29.88,3,Calm,0,0,0,None,Overcast
2017-08-18,9:51 AM,75,-,73,94,29.88,4,Calm,0,0,0.35,None,Overcast
2017-08-18,10:51 AM,75.9,-,73.9,94,29.88,3,Calm,0,0,0.02,None,Overcast
2017-01-21,8:51 AM,43,-,41,93,29.88,6,Calm,0,0,0,None,Mostly Cloudy
2017-07-21,2:51 AM,77,-,68,74,29.88,10,Calm,0,0,0,None,Mostly Cloudy
2017-07-28,2:41 AM,73,-,70,90,29.88,9,Calm,0,0,0,None,Mostly Cloudy
2017-07-28,9:33 AM,75.9,-,70,82,29.88,5,Calm,0,0,0,None,Haze
2017-02-22,10:51 PM,51.1,-,42.1,71,29.88,10,Calm,0,0,0,None,Clear
2017-02-22,11:51 PM,52,-,42.1,69,29.88,10,Calm,0,0,0,None,Clear
2017-02-23,1:51 AM,50,-,42.1,74,29.88,10,Calm,0,0,0,None,Clear
2017-02-23,2:51 AM,48.9,-,41,74,29.88,10,Calm,0,0,0,None,Clear
2017-02-23,8:51 PM,55.9,-,48.9,77,29.88,9,Calm,0,0,0,None,Clear
2017-07-22,6:51 AM,78.1,-,66.9,68,29.88,10,Calm,0,0,0,None,Clear
2017-05-19,6:51 AM,75.9,-,66,71,29.88,10,WSW,8.1,17.3,0,None,Clear
2017-02-01,1:51 PM,46.9,-,24.1,41,29.88,10,West,10.4,17.3,0,None,Mostly Cloudy
2017-12-06,3:33 AM,50,-,43,77,29.88,10,WNW,9.2,18.4,0,None,Overcast
2017-11-22,1:51 PM,51.1,-,37,59,29.88,10,WNW,10.4,18.4,0,None,Scattered Clouds
2017-04-16,9:51 PM,70,-,57,63,29.88,10,WNW,8.1,21.9,0,None,Overcast
2017-11-22,12:51 PM,52,-,39.9,63,29.88,10,WNW,9.2,25.3,0,None,Mostly Cloudy
2017-02-23,3:51 AM,46.9,-,41,80,29.88,10,NNE,3.5,0,0,None,Clear
2017-07-20,11:51 PM,79,-,68,69,29.88,10,Variable,3.5,0,0,None,Scattered Clouds
2017-08-13,3:30 AM,73,-,70,90,29.88,10,Variable,3.5,0,0,None,Scattered Clouds
2017-06-20,12:35 AM,71.1,-,69.1,93,29.88,8,Variable,3.5,0,0.07,None,Overcast
2017-08-31,2:51 PM,79,-,57.9,48,29.88,10,Variable,3.5,0,0,None,Overcast
2017-09-13,8:51 PM,72,-,69.1,91,29.88,10,Variable,3.5,0,0,None,Overcast
2017-11-22,11:51 AM,50,-,45,83,29.88,9,Variable,3.5,0,0,None,Overcast
2017-07-01,8:51 PM,72,-,70,93,29.88,10,Variable,3.5,0,0,None,Clear
2017-07-21,3:51 AM,77,-,66.9,71,29.88,10,WNW,3.5,0,0,None,Overcast
2017-07-28,10:04 AM,77,-,69.1,76,29.88,5,NNE,4.6,0,0,None,Haze
2017-09-13,10:51 PM,72,-,69.1,91,29.88,10,SW,4.6,0,0,None,Overcast
2017-02-23,10:51 PM,64,-,52,65,29.88,10,SW,4.6,0,0,None,Clear
2017-08-13,2:16 AM,73.9,-,70,87,29.88,10,Variable,4.6,0,0,None,Scattered Clouds
2017-02-23,9:51 PM,63,-,52,67,29.88,10,Variable,4.6,0,0,None,Partly Cloudy
2017-06-14,2:51 AM,78.1,-,64,62,29.88,10,Variable,4.6,0,0,None,Mostly Cloudy
2017-07-09,12:51 AM,73.9,-,60.1,62,29.88,10,Variable,4.6,0,0,None,Clear
2017-07-21,4:51 AM,77,-,68,74,29.88,10,Variable,4.6,0,0,None,Clear
2017-08-13,6:51 AM,71.1,-,66.9,87,29.88,8,Variable,4.6,0,0,None,Clear
2017-11-18,10:51 AM,48,-,30.9,52,29.88,10,Variable,4.6,0,0,None,Clear
2017-05-08,6:51 PM,55.9,-,28,34,29.88,10,Variable,5.8,0,0,None,Partly Cloudy
2017-06-19,10:51 PM,70,-,69.1,97,29.88,8,Variable,5.8,0,0,None,Overcast
2017-03-21,1:51 PM,52,-,25,35,29.88,10,Variable,5.8,0,0,None,Clear
2017-05-08,8:51 AM,46.9,-,30,52,29.88,10,Variable,5.8,0,0,None,Clear
2017-09-13,11:51 PM,72,-,69.1,91,29.88,10,SW,6.9,0,0,None,Overcast
2017-05-08,9:51 AM,50,-,30,46,29.88,10,Variable,6.9,0,0,None,Clear
2017-02-23,11:51 AM,53.1,-,48,83,29.88,6,WSW,9.2,0,0,None,Haze
2017-05-13,2:27 PM,50,-,48.9,96,29.87,1.8,ENE,9.2,18.4,0.08,Rain,Rain
2017-05-13,2:34 PM,50,-,48.9,96,29.87,1.8,ENE,10.4,18.4,0.1,Rain,Rain
2017-06-19,7:15 PM,70,-,69.1,97,29.87,2.5,SW,4.6,0,0.03,Rain,Rain
2017-09-13,3:51 PM,75.9,-,64,67,29.87,6,West,6.9,0,0,Rain,Light Rain
2017-01-31,12:14 PM,28.9,-,23,78,29.87,7,North,0,0,0,None,Overcast
2017-11-16,7:51 AM,52,-,50,93,29.87,10,North,0,0,0.01,None,Overcast
2017-12-06,4:51 AM,50,-,37,61,29.87,10,North,0,0,0,None,Overcast
2017-07-01,3:51 PM,79,-,75.9,90,29.87,10,North,0,0,0.06,None,Mostly Cloudy
2017-02-17,7:51 PM,39,-,15.1,38,29.87,10,North,0,0,0,None,Clear
2017-07-28,4:04 AM,73,-,69.1,87,29.87,8,Calm,0,0,0,None,Scattered Clouds
2017-09-14,12:51 PM,78.1,-,66.9,68,29.87,10,Calm,0,0,0,None,Scattered Clouds
2017-08-13,5:51 AM,71.1,-,69.1,93,29.87,8,Calm,0,0,0,None,Partly Cloudy
2017-08-23,8:51 PM,75.9,-,51.1,42,29.87,10,Calm,0,0,0,None,Partly Cloudy
2017-09-14,12:51 AM,71.1,-,68,90,29.87,10,Calm,0,0,0,None,Partly Cloudy
2017-03-21,9:51 PM,55,-,27,34,29.87,10,Calm,0,0,0,None,Overcast
2017-04-05,6:44 AM,46.9,-,45,93,29.87,3,Calm,0,0,0,None,Overcast
2017-04-28,12:51 AM,57,-,55.9,96,29.87,4,Calm,0,0,0,None,Overcast
2017-09-13,4:51 PM,71.1,-,68,90,29.87,9,Calm,0,0,0.06,None,Overcast
2017-09-13,7:51 PM,72,-,68,87,29.87,10,Calm,0,0,0,None,Overcast
2017-09-14,4:51 AM,71.1,-,68,90,29.87,8,Calm,0,0,0,None,Overcast
2017-09-14,6:51 PM,78.1,-,63,60,29.87,10,Calm,0,0,0,None,Overcast
2017-06-19,7:30 AM,78.8,-,73.4,83,29.87,9,Calm,0,0,0,None,Mostly Cloudy
2017-08-13,3:41 AM,73,-,70,90,29.87,10,Calm,0,0,0,None,Mostly Cloudy
2017-07-08,11:51 PM,75,-,60.1,60,29.87,10,Calm,0,0,0,None,Clear
2017-07-22,5:51 AM,78.1,-,66.9,68,29.87,10,Calm,0,0,0,None,Clear
2017-08-23,9:51 PM,75,-,51.1,43,29.87,10,Calm,0,0,0,None,Clear
2017-12-06,3:22 AM,52,-,44.1,74,29.87,10,WNW,16.1,26.5,0,None,Overcast
2017-07-28,7:51 AM,75,-,70,84,29.87,5,NE,3.5,0,0,None,Haze
2017-06-20,6:51 AM,72,-,70,93,29.87,5,Variable,3.5,0,0,None,Scattered Clouds
2017-07-28,12:51 AM,73.9,-,69.1,85,29.87,10,Variable,3.5,0,0,None,Partly Cloudy
2017-09-13,6:51 PM,71.1,-,66.9,87,29.87,10,Variable,3.5,0,0,None,Overcast
2017-02-25,12:07 AM,60.1,-,55.9,86,29.87,10,Variable,3.5,0,0,None,Mostly Cloudy
2017-06-19,7:17 AM,78.1,-,73,84,29.87,9,Variable,3.5,0,0,None,Mostly Cloudy
2017-06-20,4:17 AM,71.1,-,70,96,29.87,6,Variable,3.5,0,0,None,Mostly Cloudy
2017-08-23,10:51 PM,73.9,-,52,46,29.87,10,Variable,3.5,0,0,None,Clear
2017-09-14,5:51 AM,71.1,-,68,90,29.87,8,WSW,3.5,0,0,None,Scattered Clouds
2017-09-13,9:51 PM,73,-,69.1,87,29.87,10,WSW,3.5,0,0,None,Overcast
2017-07-01,6:51 PM,79,-,72,79,29.87,10,Variable,4.6,0,0,None,Scattered Clouds
2017-05-19,5:51 AM,75,-,66,73,29.87,10,Variable,4.6,0,0,None,Clear
2017-03-21,8:51 PM,55,-,26.1,33,29.87,10,West,4.6,0,0,None,Partly Cloudy
2017-09-13,5:51 PM,71.1,-,68,90,29.87,9,WNW,4.6,0,0,None,Overcast
2017-06-20,6:07 AM,71.1,-,70,96,29.87,4,Variable,5.8,0,0,None,Partly Cloudy
2017-03-22,12:51 AM,50,-,19,29,29.87,10,NNW,6.9,0,0,None,Overcast
2017-02-25,12:18 AM,60.1,-,55,83,29.87,10,Variable,6.9,0,0,None,Mostly Cloudy
2017-05-08,5:51 PM,57,-,28.9,34,29.87,10,WNW,6.9,0,0,None,Mostly Cloudy
2017-03-21,10:51 PM,53.1,-,28,38,29.87,10,NW,8.1,0,0,None,Overcast
2017-05-08,12:51 PM,55,-,28.9,37,29.87,10,NW,8.1,0,0,None,Mostly Cloudy
2017-05-19,4:51 AM,75.9,-,66,71,29.87,10,WSW,8.1,0,0,None,Clear
2017-05-08,4:51 PM,57,-,28,33,29.87,10,WNW,9.2,0,0,None,Overcast
2017-05-13,1:51 PM,51.1,-,50,96,29.86,4,East,9.2,16.1,0.11,Rain,Light Rain
2017-05-08,1:51 PM,55,-,28.9,37,29.86,10,North,0,0,0,None,Overcast
2017-02-17,10:51 AM,33.1,-,15.1,48,29.86,10,North,0,0,0,None,Clear
2017-04-08,6:51 PM,55,-,19,24,29.86,10,North,0,0,0,None,Clear
2017-07-08,10:51 PM,75.9,-,60.1,58,29.86,10,Calm,0,0,0,None,Partly Cloudy
2017-07-28,10:51 AM,77,-,68,74,29.86,7,Calm,0,0,0,None,Partly Cloudy
2017-04-05,6:28 AM,46,-,44.1,93,29.86,3,Calm,0,0,0,None,Overcast
2017-04-05,6:35 AM,46.9,-,45,93,29.86,2.5,Calm,0,0,0,None,Overcast
2017-04-05,6:51 AM,46.9,-,45,93,29.86,2,Calm,0,0,0,None,Overcast
2017-04-28,2:51 AM,57.9,-,57,97,29.86,2.5,Calm,0,0,0,None,Overcast
2017-07-28,2:51 AM,73,-,70,90,29.86,10,Calm,0,0,0,None,Overcast
2017-08-13,12:51 AM,73.9,-,70,87,29.86,10,Calm,0,0,0,None,Overcast
2017-09-14,2:51 AM,71.1,-,68,90,29.86,9,Calm,0,0,0,None,Overcast
2017-02-18,3:51 AM,36,-,16,44,29.86,10,Calm,0,0,0,None,Clear
2017-03-21,2:51 PM,57,-,28.9,34,29.86,10,Calm,0,0,0,None,Clear
2017-07-28,1:51 AM,73,-,69.1,87,29.86,10,Calm,0,0,0,None,Clear
2017-07-28,5:51 AM,72,-,69.1,91,29.86,6,Calm,0,0,0,None,Clear
2017-08-19,9:51 AM,79,-,66,64,29.86,10,Calm,0,0,0,None,Clear
2017-05-08,3:51 PM,55.9,-,26.1,32,29.86,10,Variable,3.5,17.3,0,None,Overcast
2017-04-16,10:51 PM,71.1,-,55,57,29.86,10,West,8.1,17.3,0,None,Overcast
2017-04-16,1:51 PM,84.9,-,50,30,29.86,10,West,12.7,21.9,0,None,Partly Cloudy
2017-11-16,7:51 PM,46.9,-,33.1,59,29.86,10,West,9.2,23,0,None,Clear
2017-02-23,7:51 PM,57.9,-,48.9,72,29.86,9,ENE,3.5,0,0,None,Mostly Cloudy
2017-03-21,11:51 PM,51.1,-,24.1,35,29.86,10,NE,3.5,0,0,None,Partly Cloudy
2017-02-23,6:51 PM,59,-,50,72,29.86,10,NNE,3.5,0,0,None,Clear
2017-06-20,2:51 AM,71.1,-,70,96,29.86,6,Variable,3.5,0,0.01,None,Overcast
2017-09-14,1:51 AM,71.1,-,68,90,29.86,9,Variable,3.5,0,0,None,Overcast
2017-08-13,1:51 AM,73.9,-,70,87,29.86,10,Variable,3.5,0,0,None,Mostly Cloudy
2017-07-28,9:51 AM,75.9,-,69.1,79,29.86,5,Variable,3.5,0,0,None,Haze
2017-03-22,1:51 AM,48,-,18,30,29.86,10,WNW,3.5,0,0,None,Partly Cloudy
2017-08-18,11:51 AM,77,-,75.9,96,29.86,4,Variable,4.6,0,0.01,None,Overcast
2017-12-06,3:51 AM,50,-,42.1,74,29.86,10,Variable,4.6,0,0,None,Overcast
2017-07-28,8:51 AM,75.9,-,70,82,29.86,5,Variable,4.6,0,0,None,Haze
2017-03-22,2:51 AM,48,-,19,32,29.86,10,WNW,4.6,0,0,None,Partly Cloudy
2017-06-20,12:51 AM,71.1,-,69.1,93,29.86,10,Variable,5.8,0,0.07,None,Overcast
2017-05-19,2:51 AM,79,-,64.9,62,29.86,10,Variable,5.8,0,0,None,Clear
2017-07-01,4:51 PM,79,-,73.9,84,29.86,10,Variable,5.8,0,0,None,Clear
2017-10-30,11:51 PM,51.1,-,36,56,29.86,10,Variable,5.8,0,0,None,Clear
2017-05-19,3:51 AM,78.1,-,64.9,64,29.86,10,West,5.8,0,0,None,Clear
2017-05-08,2:51 PM,55.9,-,28.9,36,29.86,10,Variable,6.9,0,0,None,Mostly Cloudy
2017-11-16,8:51 AM,52,-,48.9,89,29.86,9,West,6.9,0,0,None,Overcast
2017-06-19,8:51 PM,70,-,69.1,97,29.85,9,Calm,0,0,0.07,Rain,Light Rain
2017-05-13,4:14 PM,50,-,48,93,29.85,2,NE,11.5,18.4,0.04,Rain,Rain
2017-06-19,5:35 PM,75,-,73,94,29.85,1.5,West,10.4,19.6,0.41,Rain,Rain
2017-05-13,4:04 PM,50,-,48,93,29.85,1.8,ENE,8.1,20.7,0.03,Rain,Rain
2017-05-13,5:36 PM,48,-,46,93,29.85,1.8,NE,13.8,23,0.1,Rain,Rain
2017-05-13,5:25 PM,48,-,46.9,96,29.85,2,ENE,13.8,24.2,0.08,Rain,Light Rain
2017-06-19,6:53 PM,70,-,69.1,97,29.85,3,Variable,3.5,0,0,Rain,Light Rain
2017-06-19,7:51 PM,70,-,69.1,97,29.85,3,Variable,5.8,0,0.07,Rain,Light Rain
2017-11-16,9:51 AM,52,-,46,80,29.85,10,North,0,0,0,None,Overcast
2017-05-19,1:51 AM,79,-,64.9,62,29.85,10,North,0,0,0,None,Clear
2017-02-01,1:51 AM,34,-,28.9,82,29.85,8,Calm,0,0,0,None,Partly Cloudy
2017-08-23,7:51 PM,77,-,51.1,40,29.85,10,Calm,0,0,0,None,Partly Cloudy
2017-04-05,6:18 AM,46,-,44.1,93,29.85,2.5,Calm,0,0,0,None,Overcast
2017-08-18,12:51 PM,78.1,-,77,96,29.85,4,Calm,0,0,0,None,Overcast
2017-09-14,3:51 AM,71.1,-,68,90,29.85,8,Calm,0,0,0,None,Overcast
2017-07-01,5:51 PM,79,-,73,82,29.85,10,Calm,0,0,0,None,Clear
2017-07-28,4:51 AM,72,-,69.1,91,29.85,7,Calm,0,0,0,None,Clear
2017-07-28,6:51 AM,73,-,70,90,29.85,5,Calm,0,0,0,None,Clear
2017-08-19,8:51 AM,77,-,69.1,76,29.85,10,Calm,0,0,0,None,Clear
2017-06-20,5:51 AM,71.1,-,70,96,29.85,3,WSW,12.7,20.7,0,None,Scattered Clouds
2017-11-16,6:51 PM,48.9,-,33.1,54,29.85,10,WNW,11.5,24.2,0,None,Clear
2017-08-13,2:51 AM,73,-,70,90,29.85,10,Variable,3.5,0,0,None,Scattered Clouds
2017-09-14,4:51 PM,73.9,-,70,87,29.85,9,Variable,3.5,0,0.02,None,Overcast
2017-08-23,11:51 AM,77,-,54,45,29.85,10,Variable,3.5,0,0,None,Clear
2017-08-13,3:51 AM,73,-,70,90,29.85,10,Variable,4.6,0,0,None,Mostly Cloudy
2017-08-13,4:51 AM,73,-,70,90,29.85,9,West,4.6,0,0,None,Scattered Clouds
2017-09-14,5:51 PM,78.1,-,64,62,29.85,10,West,4.6,0,0,None,Mostly Cloudy
2017-08-23,10:51 AM,75.9,-,55,48,29.85,10,Variable,5.8,0,0,None,Clear
2017-09-14,2:51 PM,78.1,-,64.9,64,29.85,10,South,8.1,0,0,None,Overcast
2017-03-21,7:51 PM,55,-,25,31,29.85,10,NW,9.2,0,0,None,Clear
2017-04-16,11:51 PM,71.1,-,55,57,29.85,10,West,9.2,0,0,None,Mostly Cloudy
2017-06-19,6:40 PM,71.1,-,69.1,93,29.84,1.5,Calm,0,0,0.12,Rain,Heavy Rain
2017-05-13,2:51 PM,50,-,48.9,96,29.84,2,Variable,5.8,17.3,0.15,Rain,Rain
2017-08-23,12:28 AM,73,-,71.1,93,29.84,1.8,WSW,5.8,18.4,0.11,Rain,Heavy Rain
2017-08-23,12:09 AM,73,-,71.1,93,29.84,4,Variable,6.9,21.9,0.05,Rain,Light Rain
2017-08-23,12:00 AM,73.9,-,71.1,91,29.84,2.5,WSW,11.5,21.9,0.04,Rain,Rain
2017-05-13,4:36 PM,50,-,48,93,29.84,1.8,ENE,16.1,27.6,0.08,Rain,Rain
2017-06-20,1:51 AM,71.1,-,70,96,29.84,4,Variable,4.6,0,0.02,Rain,Light Rain
2017-02-17,5:51 PM,39.9,-,15.1,36,29.84,10,North,0,0,0,None,Clear
2017-08-23,12:51 PM,79,-,53.1,40,29.84,10,North,0,0,0,None,Clear
2017-09-05,10:51 PM,72,-,63,73,29.84,9,Calm,0,0,0,None,Partly Cloudy
2017-02-01,12:51 AM,34,-,28.9,82,29.84,7,Calm,0,0,0,None,Overcast
2017-02-25,12:51 AM,60.1,-,55,83,29.84,10,Calm,0,0,0,None,Overcast
2017-06-19,7:51 AM,79,-,73,82,29.84,10,Calm,0,0,0,None,Overcast
2017-01-31,9:51 PM,30.9,-,28,89,29.84,6,Calm,0,0,0,None,Mostly Cloudy
2017-06-20,4:51 AM,71.1,-,70,96,29.84,4,Calm,0,0,0,None,Mostly Cloudy
2017-07-28,3:51 AM,73,-,69.1,87,29.84,9,Calm,0,0,0,None,Mostly Cloudy
2017-03-21,3:51 PM,57.9,-,30,35,29.84,10,Calm,0,0,0,None,Clear
2017-12-19,11:51 AM,53.1,-,37.9,57,29.84,10,Variable,6.9,27.6,0,None,Overcast
2017-04-16,2:51 PM,84,-,48.9,29,29.84,10,West,11.5,29.9,0,None,Partly Cloudy
2017-09-05,12:51 AM,72,-,60.1,66,29.84,10,South,3.5,0,0,None,Clear
2017-09-14,3:51 PM,78.1,-,66.9,68,29.84,10,Variable,3.5,0,0,None,Mostly Cloudy
2017-02-23,5:51 PM,61,-,51.1,70,29.84,10,South,4.6,0,0,None,Clear
2017-08-23,8:24 AM,73,-,66,79,29.84,10,Variable,4.6,0,0,None,Overcast
2017-06-19,6:51 AM,78.1,-,73,84,29.84,10,Variable,4.6,0,0,None,Mostly Cloudy
2017-06-23,2:51 AM,79,-,69.1,72,29.84,10,Variable,4.6,0,0,None,Clear
2017-07-08,9:51 PM,77,-,60.1,56,29.84,10,WNW,4.6,0,0,None,Mostly Cloudy
2017-10-30,10:51 PM,52,-,33.1,49,29.84,10,WSW,8.1,0,0,None,Clear
2017-02-23,12:51 PM,57,-,48.9,74,29.84,6,West,9.2,0,0,None,Haze
2017-05-13,3:51 PM,50,-,48,93,29.83,2.5,ENE,10.4,20.7,0.12,Rain,Rain
2017-05-13,6:40 PM,46.9,-,45,93,29.83,2,NE,11.5,24.2,0.13,Rain,Rain
2017-05-13,7:09 PM,46.9,-,45,93,29.83,2.5,NNE,12.7,24.2,0.01,Rain,Light Rain
2017-06-19,6:10 PM,72,-,71.1,97,29.83,1.5,Variable,3.5,0,0,Rain,Rain
2017-06-19,5:53 PM,71.1,-,70,96,29.83,3,WSW,3.5,0,0,Rain,Light Rain
2017-06-19,6:19 PM,71.1,-,70,96,29.83,0.5,Variable,4.6,0,0.08,"Fog	",Rain
2017-05-08,3:51 AM,45,-,37,74,29.83,10,North,0,0,0,None,Scattered Clouds
2017-02-05,2:51 PM,41,-,19.9,43,29.83,10,North,0,0,0,None,Overcast
2017-01-05,3:51 AM,28.9,-,10,45,29.83,10,North,0,0,0,None,Clear
2017-02-17,4:51 PM,41,-,14,33,29.83,10,North,0,0,0,None,Clear
2017-08-23,2:51 PM,79,-,52,39,29.83,10,North,0,0,0,None,Clear
2017-11-16,5:51 PM,50,-,33.1,52,29.83,10,North,0,0,0,None,Clear
2017-01-21,4:04 PM,45,-,43,93,29.83,4,Calm,0,0,0,None,Scattered Clouds
2017-01-31,8:51 PM,30.9,-,28,89,29.83,7,Calm,0,0,0,None,Scattered Clouds
2017-01-21,12:51 PM,44.1,-,42.1,93,29.83,6,Calm,0,0,0,None,Overcast
2017-01-31,11:51 PM,34,-,28.9,82,29.83,7,Calm,0,0,0,None,Overcast
2017-06-20,3:51 AM,71.1,-,70,96,29.83,6,Calm,0,0,0,None,Overcast
2017-09-05,9:51 PM,73,-,64,73,29.83,10,Calm,0,0,0,None,Overcast
2017-03-21,6:51 PM,57,-,30,36,29.83,10,Variable,5.8,17.3,0,None,Clear
2017-10-30,9:51 PM,53.1,-,34,48,29.83,10,WSW,8.1,17.3,0,None,Clear
2017-04-08,5:51 PM,55.9,-,19,24,29.83,10,NW,11.5,24.2,0,None,Clear
2017-02-25,1:51 AM,57,-,53.1,87,29.83,10,South,3.5,0,0,None,Mostly Cloudy
2017-06-18,10:51 PM,77,-,72,84,29.83,10,South,3.5,0,0,None,Clear
2017-08-23,9:51 AM,73,-,54,51,29.83,10,Variable,3.5,0,0,None,Scattered Clouds
2017-08-23,8:03 AM,73.9,-,70,87,29.83,10,Variable,3.5,0,0,None,Overcast
2017-06-23,3:51 AM,79,-,70,74,29.83,10,Variable,3.5,0,0,None,Clear
2017-08-19,7:51 AM,75,-,71.1,87,29.83,9,Variable,3.5,0,0,None,Clear
2017-08-23,6:51 PM,78.1,-,52,40,29.83,10,Variable,3.5,0,0,None,Clear
2017-09-05,1:51 AM,70,-,61,73,29.83,10,Variable,3.5,0,0,None,Clear
2017-06-23,5:51 AM,78.1,-,70,76,29.83,9,WSW,3.5,0,0,None,Clear
2017-09-05,2:51 AM,70,-,62.1,76,29.83,10,SW,4.6,0,0,None,Clear
2017-08-18,1:51 PM,79,-,75.9,90,29.83,6,Variable,4.6,0,0,None,Overcast
2017-12-06,2:41 AM,57.9,-,55,90,29.83,10,Variable,4.6,0,0,None,Overcast
2017-06-18,11:51 PM,78.1,-,72,81,29.83,10,Variable,4.6,0,0,None,Clear
2017-06-23,6:51 AM,78.1,-,71.1,79,29.83,8,Variable,4.6,0,0,None,Clear
2017-01-21,1:29 PM,46.9,-,43,86,29.83,7,West,4.6,0,0,None,Scattered Clouds
2017-08-19,5:12 AM,73.9,-,72,93,29.83,6,West,4.6,0,0,None,Scattered Clouds
2017-07-28,10:10 PM,75.9,-,68,76,29.83,10,ENE,5.8,0,0,None,Scattered Clouds
2017-06-19,5:51 AM,78.1,-,72,81,29.83,10,Variable,5.8,0,0,None,Mostly Cloudy
2017-12-06,2:33 AM,59,-,55,87,29.83,10,Variable,5.8,0,0,None,Mostly Cloudy
2017-08-23,5:51 PM,79,-,53.1,40,29.83,10,NW,6.9,0,0,None,Clear
2017-06-23,4:51 AM,78.1,-,70,76,29.83,10,Variable,6.9,0,0,None,Clear
2017-08-23,4:51 PM,79,-,54,42,29.83,10,NW,9.2,0,0,None,Clear
2017-08-23,3:51 PM,79,-,53.1,40,29.83,10,WNW,9.2,0,0,None,Clear
2017-03-10,1:47 PM,33.8,-,30.2,87,29.82,3,North,0,0,0,Snow,Light Snow
2017-08-22,11:51 PM,73.9,-,72,93,29.82,3,North,0,0,0.07,Rain,Rain
2017-06-19,6:51 PM,70,-,69.1,97,29.82,1.8,Calm,0,0,0.27,Rain,Light Rain
2017-04-04,12:51 AM,50,-,43,77,29.82,8,SE,9.2,18.4,0.01,Rain,Light Rain
2017-05-13,7:01 PM,46.9,-,45,93,29.82,3,NE,13.8,24.2,0,Rain,Light Rain
2017-05-13,4:51 PM,50,-,48,93,29.82,1.8,East,11.5,26.5,0.12,Rain,Rain
2017-08-23,12:43 AM,72,-,71.1,97,29.82,2,Variable,3.5,0,0.18,Rain,Rain
2017-06-19,6:27 PM,71.1,-,69.1,93,29.82,3,Variable,3.5,0,0.11,Rain,Light Rain
2017-04-16,4:51 PM,73,-,60.1,64,29.82,4,Variable,6.9,0,0,Rain,Light Rain
2017-06-19,5:43 PM,72,-,70,93,29.82,0.2,West,9.2,19.6,0.55,"Fog	",Rain
2017-04-08,11:51 AM,48,-,21,34,29.82,10,North,0,0,0,None,Clear
2017-05-08,2:51 AM,46,-,36,68,29.82,10,North,0,0,0,None,Clear
2017-11-25,8:51 AM,46.9,-,32,56,29.82,10,North,0,0,0,None,Clear
2017-08-18,6:24 PM,79,-,75.9,90,29.82,7,Calm,0,0,0,None,Scattered Clouds
2017-01-21,7:51 PM,44.1,-,44.1,100,29.82,3,Calm,0,0,0,None,Overcast
2017-01-21,10:39 PM,44.1,-,44.1,100,29.82,0.8,Calm,0,0,0,None,Overcast
2017-01-31,6:51 PM,30.9,-,27,85,29.82,10,Calm,0,0,0,None,Overcast
2017-08-19,4:44 AM,73.9,-,72,93,29.82,8,Calm,0,0,0,None,Overcast
2017-06-19,12:51 AM,77,-,72,84,29.82,10,Calm,0,0,0,None,Clear
2017-06-19,4:51 AM,78.1,-,72,81,29.82,10,Calm,0,0,0,None,Clear
2017-08-19,6:51 AM,73,-,72,96,29.82,5,Calm,0,0,0,None,Clear
2017-09-05,11:51 PM,72,-,63,73,29.82,9,Calm,0,0,0,None,Clear
2017-04-08,1:51 PM,52,-,19.9,28,29.82,10,WNW,11.5,20.7,0,None,Clear
2017-04-08,12:51 PM,51.1,-,21,31,29.82,10,NW,8.1,21.9,0,None,Clear
2017-02-25,2:51 AM,55.9,-,53.1,90,29.82,10,Variable,3.5,0,0,None,Overcast
2017-08-18,6:00 PM,79,-,75.9,90,29.82,6,Variable,3.5,0,0,None,Mostly Cloudy
2017-09-05,6:51 AM,70,-,64,81,29.82,8,Variable,4.6,0,0,None,Mostly Cloudy
2017-06-23,7:51 AM,79,-,71.1,77,29.82,9,Variable,4.6,0,0,None,Clear
2017-09-05,5:51 AM,69.1,-,64,84,29.82,10,West,4.6,0,0,None,Clear
2017-08-23,8:51 AM,71.1,-,60.1,68,29.82,10,Variable,5.8,0,0,None,Overcast
2017-02-23,1:51 PM,60.1,-,50,69,29.82,6,Variable,5.8,0,0,None,Haze
2017-11-18,11:51 AM,48,-,30.9,52,29.82,10,Variable,5.8,0,0,None,Clear
2017-02-23,4:51 PM,61,-,51.1,70,29.82,8,South,6.9,0,0,None,Clear
2017-09-05,7:51 AM,70,-,64.9,84,29.82,8,SW,6.9,0,0,None,Mostly Cloudy
2017-11-26,3:51 AM,46.9,-,30.9,54,29.82,10,WNW,6.9,0,0,None,Clear
2017-11-16,10:51 AM,52,-,45,77,29.82,10,West,8.1,0,0,None,Overcast
2017-05-13,5:51 PM,46.9,-,45,93,29.81,1.8,NE,12.7,23,0.14,Rain,Rain
2017-08-18,7:12 PM,79,-,77,94,29.81,2,South,4.6,0,0.05,Rain,Rain
2017-08-18,7:31 PM,75.9,-,73.9,94,29.81,4,WSW,6.9,0,0.07,Rain,Light Rain
2017-07-08,8:51 PM,77,-,60.1,56,29.81,10,North,0,0,0,None,Scattered Clouds
2017-03-10,2:03 PM,33.1,-,28.9,85,29.81,8,North,0,0,0,None,Overcast
2017-04-01,10:51 AM,41,-,34,76,29.81,10,North,0,0,0,None,Overcast
2017-12-06,1:51 AM,57.9,-,55,90,29.81,9,North,0,0,0,None,Overcast
2017-08-19,3:08 AM,73,-,72,96,29.81,10,North,0,0,0,None,Mostly Cloudy
2017-02-18,10:51 AM,46.9,-,24.1,41,29.81,10,North,0,0,0,None,Clear
2017-04-08,2:51 PM,55,-,19.9,25,29.81,10,North,0,0,0,None,Clear
2017-09-05,8:51 PM,71.1,-,66,84,29.81,9,Calm,0,0,0,None,Scattered Clouds
2017-02-25,3:51 AM,55,-,52,89,29.81,10,Calm,0,0,0,None,Partly Cloudy
2017-01-21,5:51 PM,45,-,44.1,97,29.81,5,Calm,0,0,0,None,Overcast
2017-12-06,2:51 AM,57.9,-,55,90,29.81,10,Calm,0,0,0,None,Overcast
2017-01-21,9:17 PM,44.1,-,44.1,100,29.81,3,Calm,0,0,0,None,Mostly Cloudy
2017-01-21,9:31 PM,44.1,-,44.1,100,29.81,2.5,Calm,0,0,0,None,Mostly Cloudy
2017-08-18,5:27 PM,79,-,75.9,90,29.81,6,Calm,0,0,0,None,Mostly Cloudy
2017-01-21,1:51 PM,48,-,43,83,29.81,6,Calm,0,0,0,None,Haze
2017-06-19,1:51 AM,77,-,72,84,29.81,10,Calm,0,0,0,None,Clear
2017-08-19,5:51 AM,73.9,-,72,93,29.81,6,Calm,0,0,0,None,Clear
2017-11-25,7:51 AM,45,-,30.9,58,29.81,10,Calm,0,0,0,None,Clear
2017-12-06,12:51 AM,57.9,-,55,90,29.81,10,WSW,11.5,16.1,0,None,Overcast
2017-08-18,10:51 PM,73,-,71.1,93,29.81,10,Variable,6.9,17.3,0,None,Clear
2017-04-08,4:51 PM,55.9,-,19,24,29.81,10,NW,9.2,19.6,0,None,Clear
2017-04-16,3:51 PM,82.9,-,51.1,33,29.81,10,West,9.2,20.7,0,None,Mostly Cloudy
2017-12-19,12:51 PM,54,-,36,51,29.81,10,Variable,5.8,23,0,None,Scattered Clouds
2017-04-16,8:51 PM,81,-,50,34,29.81,10,West,10.4,24.2,0,None,Scattered Clouds
2017-02-25,5:14 AM,52,-,51.1,97,29.81,6,South,3.5,0,0,None,Partly Cloudy
2017-06-19,2:51 AM,77,-,72,84,29.81,10,Variable,3.5,0,0,None,Clear
2017-08-19,1:38 AM,73.9,-,72,93,29.81,10,WSW,3.5,0,0,None,Mostly Cloudy
2017-06-19,3:51 AM,78.1,-,72,81,29.81,10,WSW,3.5,0,0,None,Clear
2017-09-05,9:51 AM,75,-,66,73,29.81,8,Variable,4.6,0,0,None,Partly Cloudy
2017-08-18,11:51 PM,73.9,-,72,93,29.81,10,Variable,4.6,0,0,None,Overcast
2017-03-21,4:51 PM,57.9,-,30.9,36,29.81,10,Variable,4.6,0,0,None,Clear
2017-07-28,8:51 PM,75.9,-,69.1,79,29.81,10,Variable,4.6,0,0,None,Clear
2017-09-05,3:51 AM,70,-,63,78,29.81,10,Variable,4.6,0,0,None,Clear
2017-09-05,4:51 AM,70,-,64,81,29.81,10,Variable,4.6,0,0,None,Clear
2017-11-16,4:51 PM,50,-,33.1,52,29.81,10,Variable,5.8,0,0,None,Clear
2017-08-19,1:48 AM,73.4,-,71.6,94,29.81,10,WNW,5.8,0,0,None,Overcast
2017-05-08,1:51 AM,46.9,-,37,68,29.81,10,Variable,6.9,0,0,None,Clear
2017-09-05,10:51 AM,79,-,66.9,66,29.81,8,WSW,8.1,0,0,None,Partly Cloudy
2017-03-21,5:51 PM,57.9,-,30,35,29.81,10,WNW,9.2,0,0,None,Clear
2017-03-10,1:51 PM,33.1,-,30,89,29.8,4,North,0,0,0,Snow,Light Snow
2017-07-22,11:15 PM,75,-,72,90,29.8,1.8,Calm,0,0,0.04,Rain,Rain
2017-06-19,5:51 PM,71.1,-,70,96,29.8,0.8,Calm,0,0,0.82,Rain,Light Rain
2017-04-04,2:24 AM,48.9,-,46.9,93,29.8,1.8,Calm,0,0,0.09,Rain,Heavy Rain
2017-05-13,6:51 PM,46.9,-,45,93,29.8,2.5,ENE,10.4,25.3,0.15,Rain,Light Rain
2017-04-04,2:33 AM,48.9,-,46.9,93,29.8,0.8,South,8.1,0,0.21,Rain,Heavy Rain
2017-08-23,7:51 AM,73.9,-,70,87,29.8,10,North,0,0,0,None,Overcast
2017-02-25,6:34 AM,51.1,-,50,96,29.8,4,North,0,0,0,None,Mostly Cloudy
2017-11-25,9:51 AM,48.9,-,30,48,29.8,10,North,0,0,0,None,Clear
2017-08-18,9:51 PM,73,-,72,96,29.8,10,Calm,0,0,0,None,Scattered Clouds
2017-01-22,12:09 AM,44.1,-,44.1,100,29.8,2,Calm,0,0,0,None,Overcast
2017-01-22,1:27 AM,43,-,43,100,29.8,2.5,Calm,0,0,0,None,Overcast
2017-09-27,9:51 PM,75.9,-,72,87,29.8,10,Calm,0,0,0,None,Clear
2017-11-26,2:51 AM,48,-,32,54,29.8,10,Variable,6.9,17.3,0,None,Mostly Cloudy
2017-04-08,3:51 PM,55,-,19.9,25,29.8,10,West,15,23,0,None,Clear
2017-07-28,7:51 PM,77,-,68,74,29.8,10,SSE,3.5,0,0,None,Clear
2017-02-25,7:23 AM,50,-,48.9,96,29.8,1.2,Variable,3.5,0,0,None,Overcast
2017-02-23,2:51 PM,64,-,51.1,63,29.8,8,Variable,3.5,0,0,None,Clear
2017-09-27,7:51 PM,78.1,-,72,81,29.8,10,ENE,4.6,0,0,None,Clear
2017-07-28,10:51 PM,75.9,-,68,76,29.8,10,NNE,4.6,0,0,None,Clear
2017-02-25,6:49 AM,50,-,50,100,29.8,2,Variable,4.6,0,0,None,Overcast
2017-02-25,7:40 AM,50,-,50,100,29.8,2,Variable,4.6,0,0,None,Overcast
2017-07-28,9:51 PM,77,-,66.9,71,29.8,10,Variable,4.6,0,0,None,Mostly Cloudy
2017-02-23,3:51 PM,64.9,-,51.1,61,29.8,8,Variable,4.6,0,0,None,Clear
2017-06-18,9:51 PM,78.1,-,71.1,79,29.8,10,Variable,4.6,0,0,None,Clear
2017-10-30,8:51 PM,53.1,-,34,48,29.8,10,Variable,5.8,0,0,None,Clear
2017-08-19,2:15 AM,73.9,-,71.1,91,29.8,10,West,5.8,0,0,None,Scattered Clouds
2017-05-08,12:51 AM,46.9,-,37,68,29.8,10,West,5.8,0,0,None,Partly Cloudy
2017-08-19,4:51 AM,73.9,-,72,93,29.8,8,WSW,5.8,0,0,None,Mostly Cloudy
2017-08-18,5:17 PM,79,-,75.9,90,29.8,6,South,6.9,0,0,None,Scattered Clouds
2017-09-05,8:51 AM,73,-,64.9,76,29.8,8,WSW,6.9,0,0,None,Clear
2017-06-19,4:51 PM,77,-,71.1,82,29.79,0.5,North,0,0,0.03,Rain,Heavy Rain
2017-08-18,6:51 PM,79,-,75.9,90,29.79,6,Calm,0,0,0,Rain,Light Rain
2017-06-19,5:17 PM,73.9,-,73,97,29.79,3,Variable,4.6,0,0.41,Rain,Light Rain
2017-08-23,12:51 AM,72,-,70,93,29.79,3,WSW,4.6,0,0.21,Rain,Rain
2017-08-18,7:51 PM,73.9,-,72,93,29.79,4,West,5.8,0,0.09,Rain,Rain
2017-04-01,9:13 AM,39,-,35.1,86,29.79,10,North,0,0,0,None,Overcast
2017-07-08,7:51 PM,78.1,-,61,56,29.79,10,North,0,0,0,None,Overcast
2017-04-16,5:51 PM,79,-,55.9,45,29.79,10,Calm,0,0,0,None,Partly Cloudy
2017-04-05,4:06 AM,46,-,45,96,29.79,2,Calm,0,0,0,None,Overcast
2017-04-05,4:51 AM,46,-,44.1,93,29.79,3,Calm,0,0,0,None,Overcast
2017-01-30,9:51 AM,34,-,12,40,29.79,10,Calm,0,0,0,None,Mostly Cloudy
2017-02-25,7:49 AM,50,-,50,100,29.79,1.2,SSE,4.6,0,0,None,Overcast
2017-02-25,7:58 AM,51.1,-,50,96,29.79,3,SSE,4.6,0,0,None,Overcast
2017-02-25,4:51 AM,53.1,-,51.1,93,29.79,8,SSE,4.6,0,0,None,Clear
2017-08-18,5:51 PM,79,-,75.9,90,29.79,6,Variable,4.6,0,0,None,Mostly Cloudy
2017-08-19,12:51 AM,73.9,-,72,93,29.79,10,WSW,4.6,0,0,None,Clear
2017-11-26,1:51 AM,48.9,-,36,61,29.79,10,Variable,5.8,0,0,None,Mostly Cloudy
2017-09-27,8:51 PM,77,-,72,84,29.79,10,Variable,5.8,0,0,None,Clear
2017-09-27,6:51 PM,79,-,72,79,29.79,10,ESE,6.9,0,0,None,Clear
2017-12-20,4:51 AM,48,-,32,54,29.79,10,West,8.1,0,0,None,Partly Cloudy
2017-08-23,2:40 AM,73,-,71.1,93,29.79,7,WSW,9.2,0,0,None,Mostly Cloudy
2017-07-28,11:51 PM,77,-,60.1,56,29.79,10,ENE,10.4,0,0,None,Partly Cloudy
2017-04-04,2:02 AM,48.9,-,46,90,29.78,3,North,0,0,0.03,Rain,Rain
2017-07-22,11:47 PM,73.4,-,71.6,94,29.78,3,Variable,3.5,0,0.12,Rain,Light Rain
2017-07-22,11:27 PM,73.9,-,71.1,91,29.78,2,Variable,4.6,0,0.08,Rain,Rain
2017-04-01,9:51 AM,39.9,-,34,79,29.78,10,North,0,0,0,None,Overcast
2017-08-23,6:51 AM,73,-,71.1,93,29.78,8,North,0,0,0,None,Mostly Cloudy
2017-03-10,2:51 PM,35.1,-,27,72,29.78,10,Calm,0,0,0,None,Scattered Clouds
2017-01-21,11:51 PM,44.1,-,44.1,100,29.78,1.5,Calm,0,0,0,None,Overcast
2017-01-22,1:37 AM,44.1,-,44.1,100,29.78,3,Calm,0,0,0,None,Overcast
2017-01-22,2:03 AM,44.1,-,44.1,100,29.78,3,Calm,0,0,0,None,Overcast
2017-02-25,6:51 AM,50,-,50,100,29.78,2,Calm,0,0,0,None,Overcast
2017-04-05,3:17 AM,46,-,45,96,29.78,2.5,Calm,0,0,0,None,Overcast
2017-08-19,3:51 AM,73.9,-,72,93,29.78,9,Calm,0,0,0,None,Overcast
2017-02-14,7:51 PM,39.9,-,24.1,53,29.78,10,Calm,0,0,0,None,Clear
2017-10-30,7:51 PM,53.1,-,34,48,29.78,10,Variable,4.6,18.4,0,None,Clear
2017-04-16,7:51 PM,81,-,50,34,29.78,10,WSW,10.4,18.4,0,None,Clear
2017-11-16,3:51 PM,52,-,36,54,29.78,10,WNW,11.5,23,0,None,Clear
2017-01-22,8:31 PM,46.9,-,42.1,83,29.78,10,ENE,13.8,23,0,None,Overcast
2017-12-19,2:51 PM,55,-,34,45,29.78,10,West,9.2,24.2,0,None,Clear
2017-12-19,1:51 PM,54,-,35.1,49,29.78,10,West,15,26.5,0,None,Partly Cloudy
2017-02-25,5:51 AM,53.1,-,51.1,93,29.78,6,SSE,4.6,0,0,None,Partly Cloudy
2017-06-18,8:51 PM,79,-,71.1,77,29.78,10,Variable,5.8,0,0,None,Clear
2017-08-19,2:51 AM,73,-,71.1,93,29.78,10,West,5.8,0,0,None,Clear
2017-08-19,1:51 AM,73.9,-,72,93,29.78,10,WNW,5.8,0,0,None,Overcast
2017-08-23,4:11 AM,73,-,72,96,29.78,8,Variable,6.9,0,0,None,Scattered Clouds
2017-11-16,11:51 AM,54,-,46,75,29.78,9,Variable,6.9,0,0,None,Scattered Clouds
2017-02-25,8:38 AM,54,-,52,93,29.78,8,South,8.1,0,0,None,Mostly Cloudy
2017-12-23,7:04 PM,45,-,43,93,29.77,2.5,Calm,0,0,0,Rain,Light Rain
2017-04-04,1:51 AM,48.9,-,46,90,29.77,4,Variable,6.9,0,0.08,Rain,Rain
2017-07-08,9:51 AM,78.1,-,69.1,74,29.77,10,Calm,0,0,0,None,Partly Cloudy
2017-04-05,3:51 AM,46,-,45,96,29.77,1.8,Calm,0,0,0,None,Overcast
2017-12-23,7:24 PM,45,-,44.1,97,29.77,5,Calm,0,0,0.02,None,Overcast
2017-12-23,7:33 PM,46,-,44.1,93,29.77,6,Calm,0,0,0.02,None,Overcast
2017-07-08,10:51 AM,79,-,70,74,29.77,10,Calm,0,0,0,None,Mostly Cloudy
2017-09-05,7:51 PM,78.1,-,69.1,74,29.77,9,Calm,0,0,0,None,Mostly Cloudy
2017-09-27,10:51 PM,75.9,-,73,91,29.77,10,Calm,0,0,0,None,Clear
2017-11-16,12:51 PM,55,-,41,59,29.77,10,West,10.4,17.3,0,None,Overcast
2017-11-16,2:51 PM,51.1,-,39.9,66,29.77,10,West,8.1,20.7,0.02,None,Overcast
2017-01-22,8:51 PM,46.9,-,41,80,29.77,10,East,11.5,25.3,0,None,Overcast
2017-07-22,9:51 PM,79,-,72,79,29.77,8,Variable,4.6,0,0,None,Overcast
2017-08-23,5:51 AM,73,-,72,96,29.77,7,West,4.6,0,0,None,Scattered Clouds
2017-02-18,11:51 AM,51.1,-,27,39,29.77,10,West,4.6,0,0,None,Clear
2017-12-20,3:51 AM,48,-,30.9,52,29.77,10,NW,5.8,0,0,None,Clear
2017-08-23,1:51 AM,73,-,71.1,93,29.77,9,Variable,6.9,0,0.02,None,Scattered Clouds
2017-11-18,12:51 PM,48.9,-,33.1,54,29.77,10,South,8.1,0,0,None,Clear
2017-08-18,8:51 PM,73,-,71.1,93,29.77,10,WSW,8.1,0,0.01,None,Clear
2017-11-25,10:51 AM,50,-,32,50,29.77,10,WSW,8.1,0,0,None,Clear
2017-12-23,6:33 PM,44.1,-,43,96,29.76,3,Calm,0,0,0.05,Rain,Light Rain
2017-04-01,7:59 AM,37,-,35.1,93,29.76,10,North,0,0,0,None,Overcast
2017-08-23,2:51 AM,73,-,72,96,29.76,9,North,0,0,0,None,Mostly Cloudy
2017-07-22,10:51 PM,78.1,-,71.1,79,29.76,9,Calm,0,0,0,None,Overcast
2017-07-08,8:51 AM,73.9,-,69.1,85,29.76,10,Calm,0,0,0,None,Clear
2017-01-22,7:51 PM,46.9,-,43,86,29.76,10,ENE,11.5,17.3,0,None,Overcast
2017-12-19,5:51 PM,55,-,34,45,29.76,10,WSW,6.9,19.6,0,None,Clear
2017-12-19,6:51 PM,54,-,35.1,49,29.76,10,SW,9.2,20.7,0,None,Clear
2017-02-25,7:51 AM,50,-,50,100,29.76,1.2,Variable,4.6,0,0,None,Overcast
2017-11-26,12:51 AM,51.1,-,34,52,29.76,10,Variable,4.6,0,0,None,Overcast
2017-07-08,7:51 AM,72,-,68,87,29.76,10,Variable,4.6,0,0,None,Clear
2017-12-19,3:51 PM,55,-,35.1,47,29.76,10,Variable,4.6,0,0,None,Clear
2017-08-23,4:51 AM,73,-,72,96,29.76,6,SW,5.8,0,0,None,Partly Cloudy
2017-12-23,6:38 PM,44.1,-,43,96,29.75,2.5,Calm,0,0,0.05,Rain,Rain
2017-07-22,11:51 PM,73,-,72,96,29.75,2.5,Calm,0,0,0.13,Rain,Light Rain
2017-09-05,6:51 PM,79,-,69.1,72,29.75,8,North,0,0,0,None,Clear
2017-01-22,2:51 AM,44.1,-,44.1,100,29.75,4,Calm,0,0,0,None,Scattered Clouds
2017-12-10,2:51 AM,30.9,-,28,89,29.75,4,Calm,0,0,0,None,Scattered Clouds
2017-01-22,6:20 AM,44.1,-,44.1,100,29.75,4,Calm,0,0,0,None,Overcast
2017-07-08,12:51 AM,70,-,68,93,29.75,7,Calm,0,0,0,None,Overcast
2017-07-08,1:51 AM,69.1,-,66.9,93,29.75,7,Calm,0,0,0,None,Clear
2017-07-08,2:51 AM,70,-,68,93,29.75,7,Calm,0,0,0,None,Clear
2017-12-19,7:51 PM,53.1,-,34,48,29.75,10,SW,9.2,17.3,0,None,Clear
2017-10-30,6:51 PM,53.1,-,34,48,29.75,10,WSW,11.5,18.4,0,None,Clear
2017-12-19,4:51 PM,55,-,34,45,29.75,10,WSW,10.4,20.7,0,None,Clear
2017-09-27,11:51 PM,75,-,73,94,29.75,10,NE,3.5,0,0,None,Clear
2017-08-23,3:51 AM,73,-,72,96,29.75,6,Variable,3.5,0,0,None,Mostly Cloudy
2017-07-08,5:51 AM,69.1,-,68,96,29.75,4,Variable,3.5,0,0,None,Clear
2017-02-25,10:05 AM,55,-,52,89,29.75,9,Variable,4.6,0,0,None,Mostly Cloudy
2017-11-25,11:51 PM,51.1,-,34,52,29.75,10,Variable,5.8,0,0,None,Partly Cloudy
2017-02-25,8:51 AM,54,-,51.1,90,29.75,10,South,6.9,0,0,None,Partly Cloudy
2017-11-16,1:51 PM,57,-,37,47,29.75,10,West,6.9,0,0,None,Clear
2017-12-20,2:51 AM,50,-,34,54,29.75,10,West,9.2,0,0,None,Overcast
2017-12-09,10:25 PM,30.9,-,28.9,92,29.74,2,Calm,0,0,0.01,Snow,Light Snow
2017-12-23,6:51 PM,44.1,-,43,96,29.74,1.8,Calm,0,0,0.08,Rain,Light Rain
2017-04-04,3:10 AM,50,-,48.9,96,29.74,1.5,Variable,6.9,18.4,0.22,Rain,Heavy Rain
2017-04-04,2:51 AM,48.9,-,48,97,29.74,0.8,SSE,11.5,18.4,0.46,Rain,Heavy Rain
2017-06-23,1:24 PM,79,-,72,79,29.74,5,Variable,5.8,0,0,Rain,Light Rain
2017-01-28,9:51 PM,37,-,21,52,29.74,10,North,0,0,0,None,Mostly Cloudy
2017-12-25,8:51 AM,36,-,28.9,76,29.74,10,North,0,0,0,None,Clear
2017-04-04,11:51 PM,46,-,43,89,29.74,7,Calm,0,0,0,None,Overcast
2017-12-09,10:43 PM,30.9,-,28.9,92,29.74,2.5,Calm,0,0,0.01,None,Overcast
2017-01-22,3:59 AM,43,-,43,100,29.74,4,Calm,0,0,0,None,Mostly Cloudy
2017-01-22,4:17 AM,43,-,43,100,29.74,4,Calm,0,0,0,None,Mostly Cloudy
2017-07-08,6:51 AM,70,-,66.9,90,29.74,9,Calm,0,0,0,None,Clear
2017-11-25,11:51 AM,53.1,-,30.9,43,29.74,10,Variable,4.6,25.3,0,None,Clear
2017-12-19,8:51 PM,53.1,-,34,48,29.74,10,WSW,12.7,26.5,0,None,Clear
2017-07-08,3:51 AM,71.1,-,69.1,93,29.74,4,Variable,3.5,0,0,None,Clear
2017-07-08,4:51 AM,70,-,68,93,29.74,6,WSW,3.5,0,0,None,Clear
2017-12-09,8:04 PM,30.9,-,30,96,29.73,1.2,North,0,0,0.01,Snow,Light Snow
2017-01-28,11:51 PM,37,-,21.9,54,29.73,10,North,0,0,0,None,Overcast
2017-05-14,1:51 AM,46,-,44.1,93,29.73,10,North,0,0,0,None,Overcast
2017-01-04,11:51 PM,34,-,10.9,38,29.73,10,North,0,0,0,None,Clear
2017-10-30,5:51 PM,53.1,-,34,48,29.73,10,North,0,0,0,None,Clear
2017-01-22,5:51 AM,43,-,43,100,29.73,4,Calm,0,0,0,None,Overcast
2017-01-30,3:51 AM,32,-,19,59,29.73,10,Calm,0,0,0,None,Overcast
2017-05-14,5:13 AM,46,-,45,96,29.73,10,Calm,0,0,0,None,Overcast
2017-12-09,10:51 PM,30,-,28.9,96,29.73,3,Calm,0,0,0.01,None,Overcast
2017-01-30,12:51 AM,35.1,-,19,52,29.73,10,Calm,0,0,0,None,Mostly Cloudy
2017-01-29,11:51 PM,36,-,19,50,29.73,10,Calm,0,0,0,None,Clear
2017-12-19,9:51 PM,51.1,-,34,52,29.73,10,WSW,9.2,20.7,0,None,Clear
2017-02-08,8:51 PM,46.9,-,28.9,50,29.73,10,Variable,6.9,0,0,None,Clear
2017-02-25,9:51 AM,55.9,-,52,87,29.73,10,SSE,8.1,0,0,None,Scattered Clouds
2017-12-09,8:51 PM,30.9,-,30,96,29.72,1.2,Calm,0,0,0.02,Snow,Light Snow
2017-04-04,4:15 AM,50,-,48.9,96,29.72,5,South,5.8,0,0.07,Rain,Light Rain
2017-04-04,3:59 AM,50,-,48.9,96,29.72,2.5,Variable,5.8,0,0.03,Rain,Rain
2017-01-22,3:51 AM,43,-,43,100,29.72,4,Calm,0,0,0,None,Scattered Clouds
2017-12-14,10:23 AM,27,-,21,78,29.72,10,Calm,0,0,0,None,Scattered Clouds
2017-01-22,4:51 AM,44.1,-,44.1,100,29.72,3,Calm,0,0,0,None,Overcast
2017-05-14,5:51 AM,46,-,44.1,93,29.72,10,Calm,0,0,0,None,Mostly Cloudy
2017-12-19,10:51 PM,51.1,-,34,52,29.72,10,WSW,8.1,17.3,0,None,Clear
2017-02-25,10:59 AM,57,-,53.1,87,29.72,10,South,10.4,17.3,0,None,Scattered Clouds
2017-12-20,1:51 AM,50,-,34,54,29.72,10,Variable,5.8,19.6,0,None,Mostly Cloudy
2017-05-14,7:51 AM,48,-,44.1,86,29.72,10,Variable,3.5,0,0,None,Partly Cloudy
2017-04-04,9:51 PM,46.9,-,44.1,90,29.72,10,Variable,4.6,0,0,None,Overcast
2017-05-14,8:51 AM,51.1,-,44.1,77,29.72,10,Variable,5.8,0,0,None,Scattered Clouds
2017-02-08,7:51 PM,48,-,30,50,29.72,10,North,6.9,0,0,None,Partly Cloudy
2017-06-23,1:51 PM,75.9,-,72,87,29.71,6,Variable,3.5,20.7,0,Rain,Light Rain
2017-01-29,7:51 AM,37,-,21.9,54,29.71,10,North,0,0,0,None,Overcast
2017-01-29,12:51 AM,37,-,21.9,54,29.71,10,Calm,0,0,0,None,Partly Cloudy
2017-11-25,8:51 PM,54,-,33.1,45,29.71,10,Calm,0,0,0,None,Mostly Cloudy
2017-11-25,7:51 PM,54,-,33.1,45,29.71,10,Calm,0,0,0,None,Clear
2017-12-19,11:51 PM,51.1,-,33.1,50,29.71,10,SW,10.4,21.9,0,None,Clear
2017-11-18,1:51 PM,50,-,36,59,29.71,10,Variable,3.5,0,0,None,Overcast
2017-02-25,10:51 AM,57.9,-,52,81,29.71,10,South,6.9,0,0,None,Mostly Cloudy
2017-02-18,12:51 PM,55,-,28.9,37,29.71,10,WSW,8.1,0,0,None,Clear
2017-12-14,12:05 AM,24.1,-,15.1,69,29.7,2,North,0,0,0,Snow,Light Snow
2017-04-04,3:51 AM,50,-,50,100,29.7,1.8,South,6.9,0,0.47,Rain,Rain
2017-01-28,9:51 AM,36,-,23,59,29.7,10,North,0,0,0,None,Overcast
2017-01-28,10:51 AM,37,-,21.9,54,29.7,10,North,0,0,0,None,Overcast
2017-02-12,7:51 PM,34,-,33.1,96,29.7,7,Calm,0,0,0,None,Overcast
2017-01-29,4:51 PM,39.9,-,14,35,29.7,10,Calm,0,0,0,None,Mostly Cloudy
2017-10-30,4:51 PM,55,-,34,45,29.7,10,West,8.1,17.3,0,None,Clear
2017-12-20,12:51 AM,50,-,33.1,52,29.7,10,WSW,12.7,23,0,None,Clear
2017-02-08,6:51 PM,48,-,30,50,29.7,10,North,5.8,0,0,None,Clear
2017-02-08,4:51 PM,54,-,36,51,29.7,10,Variable,5.8,0,0,None,Clear
2017-05-14,9:51 AM,53.1,-,44.1,71,29.7,10,Variable,6.9,0,0,None,Partly Cloudy
2017-12-25,6:51 AM,34,-,33.1,96,29.69,8,North,0,0,0.02,None,Overcast
2017-11-25,12:51 PM,55,-,33.1,43,29.69,10,North,0,0,0,None,Clear
2017-11-25,6:51 PM,55.9,-,33.1,42,29.69,10,North,0,0,0,None,Clear
2017-12-23,2:15 PM,43,-,42.1,97,29.69,3,Calm,0,0,0,None,Overcast
2017-11-25,1:51 PM,55,-,32,42,29.69,10,Calm,0,0,0,None,Clear
2017-04-04,8:51 PM,48,-,44.1,86,29.69,10,Variable,4.6,0,0,None,Overcast
2017-11-25,5:51 PM,55.9,-,34,44,29.69,10,Variable,4.6,0,0,None,Overcast
2017-04-04,8:17 PM,48,-,45,89,29.69,10,NE,5.8,0,0,None,Overcast
2017-02-08,5:51 PM,50,-,34,54,29.69,10,Variable,5.8,0,0,None,Clear
2017-05-14,10:51 AM,57,-,45,64,29.69,10,WNW,8.1,0,0,None,Partly Cloudy
2017-12-23,5:51 PM,48,-,46,93,29.68,5,WNW,3.5,0,0.01,Rain,Light Rain
2017-11-18,2:51 PM,50,-,39,66,29.68,9,South,4.6,0,0,Rain,Light Rain
2017-02-25,12:22 PM,59,-,53.1,81,29.68,10,SSE,10.4,17.3,0,None,Scattered Clouds
2017-02-18,1:51 PM,60.1,-,30.9,33,29.68,10,Variable,3.5,19.6,0,None,Clear
2017-01-22,1:51 PM,46.9,-,42.1,83,29.68,7,Variable,6.9,0,0,None,Overcast
2017-02-25,11:51 AM,57,-,53.1,87,29.68,9,South,9.2,0,0,None,Mostly Cloudy
2017-11-25,2:51 PM,57,-,32,39,29.68,10,WSW,9.2,0,0,None,Clear
2017-12-12,6:51 AM,46.9,-,37.9,71,29.67,10,North,0,0,0,None,Overcast
2017-02-18,2:51 PM,61,-,32,34,29.67,10,North,0,0,0,None,Clear
2017-12-23,2:41 PM,44.1,-,43,96,29.67,3,Calm,0,0,0,None,Overcast
2017-01-25,5:51 PM,46.9,-,32,56,29.67,10,Calm,0,0,0,None,Clear
2017-11-25,3:51 PM,55.9,-,34,44,29.67,10,Calm,0,0,0,None,Clear
2017-10-30,3:51 PM,54,-,34,47,29.67,10,Variable,4.6,18.4,0,None,Clear
2017-02-18,8:51 PM,61,-,30.9,32,29.67,10,WSW,10.4,19.6,0,None,Clear
2017-02-18,9:51 PM,60.1,-,30.9,33,29.67,10,WSW,11.5,23,0,None,Clear
2017-05-14,11:51 AM,61,-,46,58,29.67,10,Variable,4.6,0,0,None,Mostly Cloudy
2017-11-25,4:51 PM,55.9,-,34,44,29.67,10,Variable,4.6,0,0,None,Clear
2017-02-18,5:51 PM,61,-,33.1,35,29.67,10,SW,5.8,0,0,None,Clear
2017-11-18,3:51 PM,51.1,-,37.9,61,29.67,10,Variable,5.8,0,0,None,Overcast
2017-02-18,3:51 PM,63,-,33.1,33,29.67,10,WSW,6.9,0,0,None,Clear
2017-06-24,2:39 AM,73.9,-,72,93,29.66,2.5,North,0,0,0.04,Rain,Light Rain
2017-04-04,5:40 AM,51.1,-,50,96,29.66,6,Variable,6.9,0,0.01,Rain,Light Rain
2017-02-18,11:51 PM,59,-,32,36,29.66,10,North,0,0,0,None,Clear
2017-12-23,3:38 PM,46,-,45,96,29.66,3,Calm,0,0,0,None,Overcast
2017-01-25,4:51 PM,46.9,-,32,56,29.66,10,Calm,0,0,0,None,Clear
2017-04-04,4:51 AM,50,-,48.9,96,29.66,10,SE,10.4,18.4,0.14,None,Overcast
2017-02-18,10:51 PM,60.1,-,30.9,33,29.66,10,WSW,11.5,19.6,0,None,Clear
2017-02-18,7:51 PM,62.1,-,30.9,31,29.66,10,WSW,13.8,21.9,0,None,Clear
2017-12-23,4:51 PM,46.9,-,46,97,29.66,6,NW,3.5,0,0,None,Overcast
2017-02-18,4:51 PM,62.1,-,33.1,34,29.66,10,Variable,3.5,0,0,None,Clear
2017-02-18,6:51 PM,62.1,-,32,32,29.66,10,Variable,3.5,0,0,None,Clear
2017-01-25,3:51 PM,48,-,32,54,29.66,10,WNW,5.8,0,0,None,Clear
2017-02-08,3:51 PM,57,-,39,51,29.66,10,North,8.1,0,0,None,Clear
2017-06-24,3:11 AM,73,-,71.1,93,29.65,1,Variable,6.9,16.1,0.1,Rain,Rain
2017-06-24,1:21 AM,77,-,73,88,29.65,2.5,Variable,5.8,17.3,0.02,Rain,Light Rain
2017-06-24,2:48 AM,73.4,-,71.6,94,29.65,6,Variable,4.6,0,0.05,Rain,Light Rain
2017-06-24,1:28 AM,75.9,-,73,91,29.65,10,Variable,5.8,0,0.02,Rain,Light Rain
2017-03-15,5:51 PM,25,-,9,51,29.65,10,North,0,0,0,None,Overcast
2017-02-25,10:44 PM,46.9,-,39,74,29.65,10,North,0,0,0,None,Mostly Cloudy
2017-10-30,2:51 PM,55,-,34,45,29.65,10,North,0,0,0,None,Mostly Cloudy
2017-01-04,8:51 PM,39,-,10,30,29.65,10,North,0,0,0,None,Clear
2017-02-08,2:51 PM,60.1,-,41,49,29.65,10,Calm,0,0,0,None,Scattered Clouds
2017-12-23,2:51 PM,45,-,44.1,97,29.65,3,Calm,0,0,0,None,Overcast
2017-12-23,3:51 PM,46.9,-,46,97,29.65,4,Calm,0,0,0,None,Overcast
2017-01-25,6:51 PM,46,-,32,58,29.65,10,Calm,0,0,0,None,Clear
2017-02-08,11:51 AM,57.9,-,46.9,67,29.65,7,Calm,0,0,0,None,Clear
2017-04-04,6:40 AM,51.1,-,51.1,100,29.65,2.5,ENE,3.5,0,0.01,None,Overcast
2017-04-04,7:03 AM,51.1,-,50,96,29.65,1.8,ENE,5.8,0,0,None,Overcast
2017-01-25,7:51 PM,48,-,33.1,56,29.65,10,SW,5.8,0,0,None,Clear
2017-06-23,9:51 PM,78.1,-,75,90,29.65,10,Variable,5.8,0,0,None,Scattered Clouds
2017-02-08,10:51 AM,55,-,46,72,29.65,8,Variable,5.8,0,0,None,Clear
2017-02-08,12:51 PM,60.1,-,42.1,51,29.65,10,WNW,5.8,0,0,None,Clear
2017-04-04,7:51 PM,48,-,44.1,86,29.65,10,ENE,6.9,0,0,None,Overcast
2017-06-24,10:51 AM,78.1,-,69.1,74,29.65,10,West,6.9,0,0,None,Partly Cloudy
2017-04-04,7:08 PM,48,-,44.1,86,29.65,10,East,8.1,0,0,None,Overcast
2017-12-14,12:51 AM,24.1,-,19,81,29.64,1.5,Calm,0,0,0.01,Snow,Light Snow
2017-12-14,1:35 AM,24.1,-,21,88,29.64,0.8,Calm,0,0,0.02,Snow,Light Snow
2017-11-18,4:51 PM,48,-,42.1,80,29.64,10,Calm,0,0,0.03,Rain,Light Rain
2017-12-25,4:51 AM,37.9,-,37,97,29.64,2.5,Calm,0,0,0.05,Rain,Light Rain
2017-06-23,8:51 PM,77,-,75,94,29.64,7,Variable,3.5,0,0.03,Rain,Light Rain
2017-12-14,8:40 AM,26.1,-,23,88,29.64,3,Calm,0,0,0,None,Overcast
2017-01-25,12:51 PM,46.9,-,30.9,54,29.64,10,WNW,9.2,17.3,0,None,Partly Cloudy
2017-12-12,7:51 AM,48,-,39,71,29.64,10,Variable,5.8,18.4,0,None,Overcast
2017-02-25,12:51 PM,59,-,53.1,81,29.64,10,SSE,12.7,18.4,0,None,Partly Cloudy
2017-05-14,11:51 PM,54,-,39.9,59,29.64,10,Variable,4.6,0,0,None,Scattered Clouds
2017-02-08,1:51 PM,60.1,-,39.9,47,29.64,10,Variable,5.8,0,0,None,Clear
2017-04-04,6:51 PM,48,-,44.1,86,29.64,10,ENE,6.9,0,0,None,Overcast
2017-05-14,12:51 PM,64,-,46,52,29.64,10,Variable,6.9,0,0,None,Mostly Cloudy
2017-02-08,9:51 AM,53.1,-,46,77,29.64,7,West,8.1,0,0,None,Overcast
2017-04-04,5:51 AM,51.1,-,50,96,29.64,5,ESE,9.2,0,0.01,None,Overcast
2017-06-24,8:30 AM,71.1,-,70,96,29.63,3,North,0,0,0.17,Rain,Light Rain
2017-11-18,5:51 PM,46.9,-,44.1,90,29.63,5,Variable,3.5,0,0.03,Rain,Light Rain
2017-06-24,3:22 AM,73,-,71.1,93,29.63,10,Calm,0,0,0.1,None,Overcast
2017-02-25,10:51 PM,46.9,-,39,74,29.63,10,WNW,8.1,16.1,0,None,Overcast
2017-06-24,1:51 AM,75.9,-,73,91,29.63,10,Variable,6.9,19.6,0.02,None,Partly Cloudy
2017-05-14,10:51 PM,55.9,-,39.9,55,29.63,10,WNW,11.5,24.2,0,None,Partly Cloudy
2017-02-25,1:20 PM,60.1,-,54,80,29.63,10,South,15,24.2,0,None,Mostly Cloudy
2017-04-04,8:31 AM,50,-,48.9,96,29.63,1,ENE,4.6,0,0,None,Overcast
2017-04-04,8:13 AM,50,-,50,100,29.63,0.8,NE,4.6,0,0,None,Overcast
2017-04-04,6:51 AM,51.1,-,51.1,100,29.63,2,Variable,4.6,0,0.01,None,Overcast
2017-06-23,10:51 PM,77,-,73.9,90,29.63,10,Variable,4.6,0,0.01,None,Clear
2017-01-25,8:51 PM,50,-,33.1,52,29.63,10,Variable,5.8,0,0,None,Clear
2017-06-24,9:51 AM,73.9,-,71.1,91,29.63,10,WNW,9.2,0,0,None,Clear
2017-12-14,8:12 AM,26.1,-,24.1,92,29.62,2.5,Calm,0,0,0,Snow,Light Snow
2017-06-24,6:03 AM,73,-,71.1,93,29.62,2,Calm,0,0,0.04,Rain,Rain
2017-06-24,6:11 AM,73,-,71.1,93,29.62,2.5,Calm,0,0,0.07,Rain,Rain
2017-06-24,8:16 AM,71.1,-,70,96,29.62,1.2,Calm,0,0,0.13,Rain,Rain
2017-05-14,5:05 PM,55,-,48,77,29.62,2,WNW,9.2,29.9,0.01,Rain,Light Rain
2017-06-24,2:51 AM,73.9,-,72,93,29.62,7,Variable,4.6,0,0.05,Rain,Light Rain
2017-06-24,7:43 AM,71.1,-,70,96,29.62,1.2,Variable,5.8,0,0.58,Rain,Heavy Rain
2017-06-23,11:51 PM,79,-,73,82,29.62,10,Variable,6.9,26.5,0,None,Partly Cloudy
2017-04-04,7:51 AM,50,-,50,100,29.62,1,NE,3.5,0,0.01,None,Overcast
2017-02-25,2:00 PM,59,-,54,83,29.62,10,Variable,3.5,0,0,None,Overcast
2017-04-04,5:51 PM,48.9,-,46,90,29.62,10,ENE,5.8,0,0,None,Overcast
2017-01-25,9:51 PM,48.9,-,34,56,29.62,10,WSW,6.9,0,0,None,Partly Cloudy
2017-04-04,10:28 AM,46.9,-,46.9,100,29.62,2.5,ENE,9.2,0,0,None,Overcast
2017-05-14,9:51 PM,57.9,-,39.9,51,29.62,10,NW,9.2,0,0,None,Mostly Cloudy
2017-12-14,1:51 AM,24.1,-,21,88,29.61,1,Calm,0,0,0.03,Snow,Light Snow
2017-06-24,6:34 AM,73,-,71.1,93,29.61,2,Calm,0,0,0.18,Rain,Heavy Rain
2017-02-25,7:47 PM,50,-,44.6,82,29.61,3,WNW,11.5,27.6,0.1,Rain,Rain
2017-11-18,6:51 PM,48,-,45,89,29.61,6,South,5.8,0,0.03,Rain,Light Rain
2017-04-04,4:51 PM,48.9,-,46,90,29.61,10,North,0,0,0,None,Overcast
2017-05-14,1:51 PM,64,-,45,50,29.61,10,Calm,0,0,0,None,Scattered Clouds
2017-06-24,8:51 AM,72,-,70,93,29.61,10,Variable,3.5,0,0.17,None,Scattered Clouds
2017-02-08,8:51 AM,50,-,46.9,89,29.61,4,Variable,4.6,0,0,None,Mostly Cloudy
2017-06-24,4:51 AM,73,-,71.1,93,29.61,8,West,6.9,0,0,None,Overcast
2017-04-04,10:40 AM,46.9,-,46.9,100,29.61,3,East,8.1,0,0,None,Overcast
2017-04-04,8:51 AM,50,-,48.9,96,29.61,1.2,ENE,8.1,0,0,None,Overcast
2017-04-04,11:35 AM,46.9,-,46,97,29.61,4,East,11.5,0,0,None,Overcast
2017-04-04,11:20 AM,46.9,-,46,97,29.61,2.5,ENE,12.7,0,0,None,Overcast
2017-06-24,6:43 AM,73,-,71.1,93,29.6,1.5,Calm,0,0,0.24,Rain,Heavy Rain
2017-06-24,7:18 AM,72,-,70,93,29.6,1,Calm,0,0,0.4,Rain,Heavy Rain
2017-05-14,5:14 PM,55,-,48,77,29.6,4,Variable,5.8,17.3,0.01,Rain,Rain
2017-06-24,7:51 AM,71.1,-,70,96,29.6,2,Variable,3.5,0,0.61,Rain,Rain
2017-06-24,5:51 AM,73,-,71.1,93,29.6,5,Variable,3.5,0,0.01,Rain,Light Rain
2017-06-24,7:09 AM,72,-,71.1,97,29.6,0.5,Calm,0,0,0.19,"Fog	",Rain
2017-12-12,8:51 AM,48.9,-,37.9,66,29.6,10,South,9.2,16.1,0,None,Overcast
2017-02-25,1:51 PM,59,-,54,83,29.6,10,Variable,5.8,20.7,0,None,Overcast
2017-10-30,1:51 PM,54,-,35.1,49,29.6,10,WNW,12.7,32.2,0,None,Scattered Clouds
2017-06-24,3:51 AM,72,-,71.1,97,29.6,10,Variable,3.5,0,0.1,None,Overcast
2017-04-04,9:51 AM,48,-,46.9,96,29.6,1.2,ENE,5.8,0,0,None,Overcast
2017-02-25,9:51 PM,48,-,41,77,29.6,10,Variable,6.9,0,0.01,None,Partly Cloudy
2017-04-04,10:51 AM,46.9,-,46,97,29.6,3,East,8.1,0,0,None,Overcast
2017-12-14,2:51 AM,25,-,21.9,88,29.59,1.8,Calm,0,0,0.02,Snow,Light Snow
2017-02-25,7:51 PM,50,-,45,83,29.59,4,West,6.9,27.6,0.11,Rain,Light Rain
2017-02-25,8:51 PM,48,-,43,83,29.59,6,West,8.1,0,0.02,Rain,Light Rain
2017-05-14,8:51 PM,61,-,44.1,54,29.59,10,North,0,0,0,None,Overcast
2017-03-15,8:51 AM,21.9,-,9,58,29.59,10,North,0,0,0,None,Mostly Cloudy
2017-02-12,11:51 PM,36,-,33.1,89,29.59,10,Calm,0,0,0,None,Partly Cloudy
2017-05-14,2:51 PM,64.9,-,44.1,47,29.59,10,Variable,4.6,16.1,0,None,Overcast
2017-05-14,5:51 PM,61,-,50,67,29.59,10,Variable,4.6,0,0.02,None,Mostly Cloudy
2017-02-25,2:31 PM,61,-,55,81,29.59,10,South,8.1,0,0,None,Overcast
2017-01-25,10:51 PM,51.1,-,33.1,50,29.59,10,West,8.1,0,0,None,Overcast
2017-02-25,6:39 PM,57.9,-,57,97,29.58,0.8,North,0,0,0.1,Rain,Heavy Rain
2017-02-08,3:11 AM,39,-,39,100,29.58,1.8,Calm,0,0,0,Rain,Light Rain
2017-01-27,3:51 PM,41,-,23,49,29.58,10,North,0,0,0,None,Overcast
2017-02-08,2:24 AM,39,-,39,100,29.58,1.2,Calm,0,0,0,None,Overcast
2017-05-14,3:51 PM,64.9,-,43,45,29.58,10,Variable,3.5,0,0,None,Scattered Clouds
2017-05-14,6:51 PM,62.1,-,44.1,52,29.58,10,Variable,5.8,0,0,None,Clear
2017-04-04,11:51 AM,46.9,-,46,97,29.58,5,ENE,8.1,0,0,None,Overcast
2017-02-09,1:51 PM,26.1,-,19,75,29.57,0.8,North,0,0,0,Snow,Light Snow
2017-02-08,3:39 AM,39,-,39,100,29.57,1.8,Calm,0,0,0.02,Rain,Light Rain
2017-06-24,6:51 AM,73,-,71.1,93,29.57,1,Calm,0,0,0.33,Rain,Heavy Rain
2017-02-08,6:51 AM,41,-,39.9,96,29.57,5,Calm,0,0,0,None,Scattered Clouds
2017-02-08,7:51 AM,45,-,43,93,29.57,4,Calm,0,0,0,None,Clear
2017-02-15,5:51 AM,37.9,-,28.9,70,29.57,10,Calm,0,0,0,None,Clear
2017-04-04,12:51 PM,46.9,-,46,97,29.57,6,ENE,10.4,20.7,0,None,Overcast
2017-12-12,9:51 AM,50,-,39.9,68,29.57,10,South,10.4,23,0,None,Overcast
2017-05-14,7:51 PM,61,-,43,52,29.57,10,Variable,4.6,0,0,None,Mostly Cloudy
2017-02-25,7:29 PM,53.1,-,52,96,29.57,10,Variable,5.8,0,0.07,None,Overcast
2017-05-14,4:51 PM,64.9,-,44.1,47,29.57,10,Variable,5.8,0,0,None,Mostly Cloudy
2017-02-25,6:49 PM,55.4,-,55.4,100,29.56,0.5,Variable,6.9,20.7,0.38,"Fog	",Rain
2017-02-08,4:13 AM,39,-,39,100,29.56,2,Calm,0,0,0,None,Overcast
2017-12-14,4:12 AM,26.1,-,23,88,29.56,8,Calm,0,0,0,None,Overcast
2017-02-08,2:51 AM,39,-,39,100,29.56,2.5,Calm,0,0,0,None,Mostly Cloudy
2017-02-08,4:02 AM,39,-,39,100,29.56,3,Calm,0,0,0,None,Mostly Cloudy
2017-02-15,6:51 AM,36,-,30,79,29.56,10,Calm,0,0,0,None,Clear
2017-11-19,2:51 PM,48,-,28,46,29.56,10,WNW,15,27.6,0,None,Overcast
2017-01-25,11:51 PM,51.1,-,33.1,50,29.56,10,Variable,4.6,0,0,None,Overcast
2017-02-25,7:21 PM,53.1,-,52,96,29.56,10,WNW,8.1,0,0.07,None,Overcast
2017-02-25,7:14 PM,53.1,-,52,96,29.55,8,West,5.8,16.1,0.07,Rain,Light Rain
2017-02-25,6:53 PM,54,-,54,100,29.55,1.2,Variable,5.8,20.7,0,Rain,Rain
2017-02-25,7:04 PM,53.1,-,53.1,100,29.55,2,West,3.5,0,0.05,Rain,Rain
2017-02-25,6:57 PM,54,-,53.1,97,29.55,2,Variable,4.6,0,0.02,Rain,Heavy Rain
2017-02-25,6:34 PM,57.2,-,55.4,94,29.55,2,West,9.2,0,0,Rain,Light Rain
2017-02-09,11:51 AM,28,-,26.1,92,29.55,0.2,North,0,0,0.1,"Fog	",Snow
2017-12-14,4:58 AM,26.1,-,23,88,29.55,8,North,0,0,0,None,Overcast
2017-02-08,4:35 AM,39.9,-,39.9,100,29.55,3,Calm,0,0,0,None,Overcast
2017-02-25,2:51 PM,62.1,-,55,78,29.55,10,SSE,10.4,17.3,0,None,Overcast
2017-03-02,6:51 AM,48,-,26.1,42,29.55,10,Variable,6.9,26.5,0,None,Partly Cloudy
2017-10-30,12:51 PM,55,-,35.1,47,29.55,10,West,18.4,28.8,0,None,Partly Cloudy
2017-02-08,3:51 AM,39,-,39,100,29.54,2.5,Calm,0,0,0.03,Rain,Light Rain
2017-02-09,10:51 AM,28,-,26.1,92,29.54,0.2,North,0,0,0.09,"Fog	",Snow
2017-12-12,11:07 AM,50,-,41,71,29.54,10,North,0,0,0,None,Overcast
2017-02-25,3:18 PM,62.1,-,55.9,80,29.54,10,Variable,5.8,18.4,0,None,Scattered Clouds
2017-01-26,12:51 AM,50,-,34,54,29.54,10,West,4.6,0,0,None,Overcast
2017-02-25,6:51 PM,55,-,55,100,29.53,0.8,WNW,6.9,20.7,0.4,Rain,Rain
2017-01-04,9:25 AM,46,-,42.1,86,29.53,7,North,0,0,0,None,Overcast
2017-01-04,4:51 PM,46.9,-,24.1,41,29.53,10,WNW,16.1,27.6,0,None,Clear
2017-11-19,1:51 PM,-,-,-,0,29.53,10,WNW,11.5,31.1,0,None,Scattered Clouds
2017-01-04,10:23 AM,46.9,-,41,80,29.53,10,Variable,4.6,0,0,None,Scattered Clouds
2017-11-18,8:51 PM,51.1,-,44.1,77,29.53,10,Variable,4.6,0,0.01,None,Overcast
2017-12-12,11:15 AM,50,-,39.9,68,29.53,10,Variable,5.8,0,0,None,Overcast
2017-12-12,10:51 AM,50,-,41,71,29.53,10,South,8.1,0,0,None,Overcast
2017-01-04,11:32 AM,48,-,41,77,29.52,10,North,0,0,0,None,Overcast
2017-01-03,7:51 PM,43,-,43,100,29.52,3,Calm,0,0,0,None,Overcast
2017-02-15,7:51 AM,37.9,-,32,79,29.52,8,Calm,0,0,0,None,Mostly Cloudy
2017-02-25,4:27 PM,59,-,55,87,29.52,10,South,10.4,17.3,0,None,Mostly Cloudy
2017-02-25,3:38 PM,62.6,-,55.4,77,29.52,10,SSE,10.4,21.9,0,None,Scattered Clouds
2017-02-25,3:26 PM,62.1,-,55.9,80,29.52,10,South,11.5,21.9,0,None,Mostly Cloudy
2017-01-04,3:51 PM,50,-,26.1,39,29.52,10,WNW,11.5,27.6,0,None,Clear
2017-01-26,1:51 AM,50,-,35.1,57,29.52,10,West,5.8,0,0,None,Overcast
2017-02-25,4:33 PM,57.9,-,55,90,29.51,10,South,17.3,27.6,0,None,Overcast
2017-03-02,5:51 AM,50,-,24.1,36,29.51,10,WNW,11.5,32.2,0,None,Clear
2017-10-30,11:51 AM,54,-,37.9,55,29.51,10,West,18.4,34.5,0,None,Mostly Cloudy
2017-01-04,12:33 PM,50,-,42.1,74,29.51,10,Variable,4.6,0,0,None,Overcast
2017-01-04,8:19 AM,44.1,-,41,89,29.5,5,North,0,0,0,None,Overcast
2017-01-04,8:12 AM,44.1,-,41,89,29.5,5,Calm,0,0,0,None,Overcast
2017-01-04,9:51 AM,46,-,41,83,29.5,7,Calm,0,0,0,None,Overcast
2017-03-02,4:51 AM,51.1,-,27,39,29.5,10,West,13.8,25.3,0,None,Clear
2017-11-19,12:51 PM,50,-,28,43,29.5,10,NW,11.5,27.6,0,None,Partly Cloudy
2017-11-18,9:51 PM,51.1,-,46,83,29.5,10,Variable,5.8,0,0,None,Mostly Cloudy
2017-01-04,11:51 AM,48,-,41,77,29.5,10,Variable,6.9,0,0,None,Overcast
2017-01-26,2:51 AM,50,-,35.1,57,29.5,10,West,9.2,0,0,None,Overcast
2017-01-04,12:51 PM,50,-,41,71,29.49,10,North,0,0,0,None,Overcast
2017-01-03,9:51 PM,41,-,41,100,29.49,2.5,Calm,0,0,0,None,Overcast
2017-12-12,11:51 AM,48.9,-,37.9,66,29.49,10,West,8.1,21.9,0,None,Overcast
2017-11-19,11:51 AM,48.9,-,30,48,29.49,10,WNW,15,31.1,0,None,Overcast
2017-01-04,10:51 AM,48,-,41,77,29.49,10,WSW,4.6,0,0,None,Scattered Clouds
2017-01-04,2:51 PM,52,-,34,50,29.48,10,North,0,0,0,None,Scattered Clouds
2017-02-25,5:51 PM,57,-,55.9,96,29.48,10,South,11.5,19.6,0,None,Overcast
2017-01-04,1:51 PM,51.1,-,37.9,61,29.48,10,West,11.5,20.7,0,None,Mostly Cloudy
2017-02-25,3:51 PM,60.1,-,55,83,29.48,10,SSE,11.5,24.2,0,None,Partly Cloudy
2017-02-25,4:51 PM,57,-,55,93,29.48,10,South,12.7,27.6,0,None,Overcast
2017-01-04,4:46 AM,42.8,-,39.2,87,29.47,10,North,0,0,0,None,Overcast
2017-04-07,5:51 PM,46.9,-,30,52,29.47,10,WNW,9.2,23,0,None,Overcast
2017-03-02,3:51 AM,55,-,28,35,29.47,10,West,13.8,36.8,0,None,Overcast
2017-12-12,12:51 PM,46.9,-,35.1,63,29.46,10,West,10.4,17.3,0,None,Overcast
2017-01-26,4:51 AM,48.9,-,36,61,29.46,10,WSW,4.6,0,0,None,Mostly Cloudy
2017-01-26,3:51 AM,48.9,-,35.1,59,29.46,10,Variable,5.8,0,0,None,Clear
2017-10-30,10:51 AM,51.1,-,39,63,29.45,10,West,16.1,24.2,0,None,Overcast
2017-01-26,8:51 AM,46.9,-,39.9,77,29.44,10,Calm,0,0,0,Rain,Light Rain
2017-12-12,6:51 PM,41,-,30.9,67,29.44,10,North,0,0,0,None,Scattered Clouds
2017-12-12,8:51 PM,34,-,23,64,29.44,10,North,0,0,0,None,Mostly Cloudy
2017-01-26,6:51 AM,48.9,-,36,61,29.44,10,Calm,0,0,0,None,Overcast
2017-11-19,10:51 AM,50,-,30.9,48,29.44,10,WNW,19.6,35.7,0,None,Mostly Cloudy
2017-01-26,5:51 AM,48,-,36,63,29.44,10,Variable,3.5,0,0,None,Mostly Cloudy
2017-11-18,10:51 PM,54,-,48,80,29.44,10,Variable,5.8,0,0,None,Scattered Clouds
2017-01-26,9:51 AM,48,-,42.1,80,29.43,6,Calm,0,0,0.02,Rain,Light Rain
2017-03-02,2:51 AM,59,-,35.1,41,29.43,10,North,0,0,0,None,Overcast
2017-01-26,7:51 AM,48.9,-,36,61,29.43,10,Calm,0,0,0,None,Overcast
2017-04-07,4:51 PM,48,-,30.9,52,29.42,10,WNW,10.4,27.6,0,None,Overcast
2017-03-02,1:51 AM,62.1,-,46,56,29.42,10,West,8.1,31.1,0,None,Overcast
2017-02-15,11:51 AM,43,-,28.9,58,29.41,10,North,0,0,0,None,Clear
2017-11-18,11:51 PM,55.9,-,48.9,77,29.41,10,Variable,3.5,0,0,None,Partly Cloudy
2017-03-02,12:51 AM,64,-,50,60,29.41,10,WSW,9.2,0,0,None,Scattered Clouds
2017-03-14,8:51 PM,28.9,-,19,67,29.4,10,North,0,0,0,None,Overcast
2017-10-30,9:51 AM,50,-,39.9,68,29.4,10,Variable,6.9,20.7,0,None,Overcast
2017-01-26,3:51 PM,48,-,26.1,42,29.4,10,WNW,17.3,31.1,0,None,Overcast
2017-04-07,11:35 AM,45,-,36,71,29.39,10,North,0,0,0,None,Overcast
2017-01-26,10:51 AM,50,-,43,77,29.39,10,Calm,0,0,0,None,Overcast
2017-04-07,3:51 PM,48,-,34,58,29.39,10,West,9.2,17.3,0,None,Overcast
2017-11-19,9:51 AM,51.1,-,34,52,29.39,10,WNW,18.4,39.1,0,None,Mostly Cloudy
2017-04-07,1:51 PM,46.9,-,34,61,29.38,10,North,0,0,0,None,Overcast
2017-04-07,2:51 PM,46.9,-,34,61,29.38,10,West,10.4,20.7,0,None,Overcast
2017-01-26,11:51 AM,51.1,-,41,68,29.37,10,North,0,0,0,None,Overcast
2017-04-07,11:51 AM,46,-,36,68,29.37,10,North,0,0,0,None,Overcast
2017-02-15,12:51 PM,44.1,-,30,58,29.37,8,Calm,0,0,0,None,Overcast
2017-01-26,2:51 PM,51.1,-,30,44,29.37,10,WNW,12.7,24.2,0,None,Overcast
2017-11-19,12:51 AM,57,-,50,77,29.36,10,Variable,4.6,0,0,None,Partly Cloudy
2017-02-15,1:51 PM,45,-,30,56,29.34,8,Calm,0,0,0,None,Mostly Cloudy
2017-01-26,12:51 PM,53.1,-,42.1,66,29.34,10,Variable,5.8,0,0,None,Partly Cloudy
2017-01-24,1:12 PM,36,-,35.1,97,29.33,1.8,North,0,0,0.05,Rain,Rain
2017-11-19,1:51 AM,57.9,-,51.1,78,29.33,10,Variable,3.5,0,0,Rain,Light Rain
2017-10-30,8:51 AM,48,-,39.9,74,29.33,10,West,10.4,25.3,0.03,None,Overcast
2017-01-26,1:51 PM,54,-,35.1,49,29.33,10,West,11.5,26.5,0,None,Scattered Clouds
2017-11-19,8:51 AM,53.1,-,41,64,29.32,10,West,8.1,25.3,0,None,Mostly Cloudy
2017-11-19,2:51 AM,57,-,53.1,87,29.31,8,North,0,0,0.02,Rain,Light Rain
2017-04-07,3:51 AM,48,-,35.1,61,29.31,10,WSW,13.8,21.9,0,None,Clear
2017-02-15,3:51 PM,46,-,30.9,56,29.3,9,North,0,0,0,None,Mostly Cloudy
2017-04-07,12:51 AM,50,-,44.1,80,29.29,10,North,0,0,0,None,Partly Cloudy
2017-04-07,1:51 AM,51.1,-,41,68,29.29,10,WSW,8.1,19.6,0,None,Mostly Cloudy
2017-04-07,2:51 AM,48.9,-,37,64,29.29,10,West,8.1,0,0,None,Clear
2017-11-19,3:51 AM,57,-,54,89,29.28,10,North,0,0,0.01,Rain,Light Rain
2017-04-06,9:51 PM,50,-,44.1,80,29.28,10,SW,9.2,17.3,0,None,Partly Cloudy
2017-04-06,11:51 PM,51.1,-,44.1,77,29.28,10,WSW,9.2,27.6,0,None,Clear
2017-04-06,5:23 PM,45,-,45,100,29.27,3,Calm,0,0,0.12,Rain,Light Rain
2017-04-06,10:51 PM,50,-,44.1,80,29.27,10,SW,8.1,17.3,0,None,Partly Cloudy
2017-11-19,4:51 AM,57,-,55.9,96,29.25,4,Variable,5.8,0,0.11,Rain,Rain
2017-11-19,7:51 AM,55.9,-,48.9,77,29.25,10,Variable,6.9,19.6,0.02,None,Overcast
2017-04-06,5:51 PM,46.9,-,46.9,100,29.24,6,East,4.6,0,0.12,None,Mostly Cloudy
2017-11-19,5:51 AM,59,-,55.9,90,29.23,8,SW,8.1,24.2,0.05,Rain,Light Rain
2017-11-19,6:51 AM,57,-,54,89,29.22,7,Variable,5.8,17.3,0.02,Rain,Light Rain
2017-04-06,6:51 PM,48.9,-,46.9,93,29.2,8,ESE,4.6,0,0,None,Clear
2017-10-30,6:51 AM,48.9,-,46.9,93,29.16,4,West,10.4,17.3,0.06,Rain,Light Rain
2017-10-30,5:51 AM,51.1,-,48.9,92,29.08,6,Variable,5.8,0,0.04,Rain,Light Rain
2017-10-30,2:59 AM,57.9,-,54,87,29.07,10,Calm,0,0,0,None,Overcast
2017-10-30,4:43 AM,53.1,-,51.1,93,29.04,6,North,0,0,0.07,Rain,Light Rain
2017-10-30,4:35 AM,53.1,-,51.1,93,29.04,2.5,Variable,3.5,17.3,0.07,Rain,Rain
2017-10-30,2:51 AM,57,-,54,89,29.04,10,Calm,0,0,0,None,Mostly Cloudy
2017-10-30,1:51 AM,59,-,54,83,29.03,10,Variable,3.5,0,0,None,Overcast
2017-10-30,3:51 AM,57,-,53.1,87,29.03,10,WNW,5.8,0,0,None,Overcast
2017-10-30,4:51 AM,53.1,-,51.1,93,29.02,10,North,0,0,0.07,None,Overcast
2017-10-30,12:51 AM,60.1,-,57,90,28.99,10,Variable,4.6,0,0,None,Partly Cloudy
2017-10-30,12:10 AM,61,-,57.9,90,28.96,10,Variable,5.8,24.2,0,None,Scattered Clouds
2017-09-03,3:47 AM,59,,57.2,94,30.03,0.5,NE,3.5,0,0.43,"Fog	",Heavy Rain
2017-06-17,2:09 PM,69.1,,68,96,29.97,0.5,Variable,4.6,0,0.34,"Fog	",Heavy Rain
2017-07-07,10:26 AM,69.1,,68,96,29.82,0.2,Variable,6.9,17.3,0.24,"Fog	",Heavy Rain
2017-07-07,10:36 AM,69.1,,68,96,29.82,0.2,Variable,5.8,0,0.55,"Fog	",Heavy Rain
2017-07-07,11:06 AM,68,,66.9,96,29.81,0.2,Variable,6.9,17.3,0.34,"Fog	",Heavy Rain
2017-07-24,10:31 AM,64.9,,63,93,29.81,0.5,NE,11.5,19.6,0.12,"Fog	",Heavy Rain
2017-07-07,10:51 AM,68,,66.9,96,29.8,0.2,Variable,6.9,0,0.83,"Fog	",Heavy Rain
2017-05-05,11:31 AM,54,,54,100,29.78,0.5,East,9.2,0,0.21,"Fog	",Heavy Rain
2017-07-07,8:51 PM,73,,70,90,29.75,0.5,Variable,4.6,21.9,0.02,"Fog	",Heavy Rain
2017-05-05,1:11 PM,52,,52,100,29.72,0.2,Variable,6.9,17.3,0.46,"Fog	",Heavy Rain
2017-05-05,11:51 AM,53.1,,53.1,100,29.7,0.2,ENE,17.3,23,0.57,"Fog	",Heavy Rain
2017-05-05,12:51 PM,53.1,,52,96,29.67,0.5,ENE,8.1,0,0.92,"Fog	",Heavy Rain
2017-10-29,12:51 PM,62.1,,61,96,29.64,0.5,East,6.9,0,0.17,"Fog	",Heavy Rain
2017-10-29,1:36 PM,62.1,,62.1,100,29.62,0.2,Variable,4.6,0,0.3,"Fog	",Heavy Rain